<?xml version="1.0" encoding="UTF-8"?><osm version="0.6" generator="https://github.com/Rub21/geojson2osm"><node lat="46.459873" lon="6.840395"  id="-1"  changeset="false" ><tag k="id" v="2978"/><tag k="amenity" v="toilets"/><tag k="municipali" v="Vevey"/><tag k="name" v="Place Du March�"/><tag k="toilets_po" v="seated"/><tag k="wc_guide_i" v="2978"/><tag k="Cluster_ID" v="24"/><tag k="xyz" v="1062_1323_11"/></node><node lat="46.495152" lon="6.707797"  id="-2"  changeset="false" ><tag k="id" v="3115"/><tag k="amenity" v="toilets"/><tag k="municipali" v="Villette (Lavaux)"/><tag k="name" v="Gare de Villette"/><tag k="toilets_po" v="seated"/><tag k="wc_guide_i" v="3115"/><tag k="Cluster_ID" v="36"/><tag k="xyz" v="1062_1323_11"/></node><node lat="46.498787" lon="6.698308"  id="-3"  changeset="false" ><tag k="id" v="3117"/><tag k="amenity" v="toilets"/><tag k="descriptio" v="A c�t� de la station d'�puration de Lutry, accessible seulement � pied par le chemin du bord du lac"/><tag k="municipali" v="Lutry"/><tag k="name" v="Chemin du bord Du Lac, Lutry"/><tag k="toilets_po" v="seated"/><tag k="wc_guide_i" v="3117"/><tag k="Cluster_ID" v="36"/><tag k="xyz" v="1062_1323_11"/></node><node lat="46.503723" lon="6.690674"  id="-4"  changeset="false" ><tag k="id" v="3509"/><tag k="amenity" v="toilets"/><tag k="municipali" v="Lutry"/><tag k="name" v="Av De La Gare"/><tag k="toilets_po" v="seated"/><tag k="wc_guide_i" v="3509"/><tag k="Cluster_ID" v="36"/><tag k="xyz" v="1062_1323_11"/></node><node lat="46.556087" lon="6.829971"  id="-5"  changeset="false" ><tag k="id" v="3862"/><tag k="amenity" v="toilets"/><tag k="descriptio" v="doublons"/><tag k="municipali" v="Pal�zieux Village"/><tag k="toilets_po" v="seated"/><tag k="wc_guide_i" v="3862"/><tag k="Cluster_ID" v="24"/><tag k="xyz" v="1062_1323_11"/></node><node lat="46.46172" lon="6.836221"  id="-6"  changeset="false" ><tag k="id" v="3966"/><tag k="amenity" v="toilets"/><tag k="municipali" v="Vevey"/><tag k="name" v="Jardin Doret"/><tag k="toilets_po" v="seated"/><tag k="wc_guide_i" v="3966"/><tag k="Cluster_ID" v="24"/><tag k="xyz" v="1062_1323_11"/></node><node lat="46.477009" lon="6.833028"  id="-7"  changeset="false" ><tag k="id" v="4231"/><tag k="amenity" v="toilets"/><tag k="municipali" v="Chardonne"/><tag k="name" v="Gare Funi"/><tag k="toilets_po" v="seated"/><tag k="wc_guide_i" v="4231"/><tag k="Cluster_ID" v="24"/><tag k="xyz" v="1062_1323_11"/></node><node lat="46.500992" lon="6.782646"  id="-8"  changeset="false" ><tag k="id" v="4253"/><tag k="amenity" v="toilets"/><tag k="municipali" v="Puidoux"/><tag k="name" v="A Cote Du Local Voirie"/><tag k="toilets_po" v="seated"/><tag k="wc_guide_i" v="4253"/><tag k="Cluster_ID" v="24"/><tag k="xyz" v="1062_1323_11"/></node><node lat="46.500935" lon="6.694331"  id="-9"  changeset="false" ><tag k="id" v="4264"/><tag k="amenity" v="toilets"/><tag k="municipali" v="Lutry"/><tag k="name" v="Terminus Ligne bus no 9 Lutry Petite Corniche"/><tag k="toilets_po" v="seated"/><tag k="wc_guide_i" v="4264"/><tag k="Cluster_ID" v="36"/><tag k="xyz" v="1062_1323_11"/></node><node lat="46.48711" lon="6.730265"  id="-10"  changeset="false" ><tag k="id" v="4283"/><tag k="amenity" v="toilets"/><tag k="municipali" v="Cully"/><tag k="name" v="Place D'Arme"/><tag k="toilets_po" v="seated"/><tag k="wc_guide_i" v="4283"/><tag k="Cluster_ID" v="24"/><tag k="xyz" v="1062_1323_11"/></node><node lat="46.468746" lon="6.823258"  id="-11"  changeset="false" ><tag k="id" v="4655"/><tag k="amenity" v="toilets"/><tag k="descriptio" v="cach�es au bord du lac"/><tag k="municipali" v="Corseaux"/><tag k="toilets_po" v="seated"/><tag k="wc_guide_i" v="4655"/><tag k="Cluster_ID" v="24"/><tag k="xyz" v="1062_1323_11"/></node><node lat="46.554741" lon="6.830012"  id="-12"  changeset="false" ><tag k="id" v="4733"/><tag k="amenity" v="toilets"/><tag k="municipali" v="Pal�zieux"/><tag k="name" v="Pal�zieux-Village"/><tag k="toilets_po" v="seated"/><tag k="wc_guide_i" v="4733"/><tag k="Cluster_ID" v="24"/><tag k="xyz" v="1062_1323_11"/></node><node lat="46.497097" lon="6.723028"  id="-13"  changeset="false" ><tag k="id" v="16811"/><tag k="amenity" v="toilets"/><tag k="municipali" v="Grandvaux"/><tag k="name" v="Gare CFF"/><tag k="toilets_po" v="seated"/><tag k="wc_guide_i" v="16811"/><tag k="Cluster_ID" v="24"/><tag k="xyz" v="1062_1323_11"/></node><node lat="46.470757" lon="6.850663"  id="-14"  changeset="false" ><tag k="id" v="18225"/><tag k="amenity" v="toilets"/><tag k="municipali" v="Vevey"/><tag k="name" v="Sous Pont"/><tag k="toilets_po" v="seated"/><tag k="wc_guide_i" v="18225"/><tag k="Cluster_ID" v="24"/><tag k="xyz" v="1062_1323_11"/></node><node lat="46.505276" lon="6.709204"  id="-15"  changeset="false" ><tag k="id" v="19503"/><tag k="amenity" v="toilets"/><tag k="municipali" v="Lutry"/><tag k="name" v="Dans Le Shop De La Station Service Shell"/><tag k="toilets_po" v="seated"/><tag k="wc_guide_i" v="19503"/><tag k="Cluster_ID" v="24"/><tag k="xyz" v="1062_1323_11"/></node><node lat="46.460335" lon="6.847102"  id="-16"  changeset="false" ><tag k="id" v="19771"/><tag k="amenity" v="toilets"/><tag k="descriptio" v="Parking"/><tag k="municipali" v="Vevey"/><tag k="name" v="Parking Souterain"/><tag k="toilets_po" v="seated"/><tag k="wc_guide_i" v="19771"/><tag k="Cluster_ID" v="24"/><tag k="xyz" v="1062_1323_11"/></node><node lat="46.524681" lon="6.830417"  id="-17"  changeset="false" ><tag k="id" v="19800"/><tag k="amenity" v="toilets"/><tag k="municipali" v="Granges (Veveyse)"/><tag k="toilets_po" v="seated"/><tag k="wc_guide_i" v="19800"/><tag k="Cluster_ID" v="24"/><tag k="xyz" v="1062_1323_11"/></node><node lat="46.509842" lon="6.699333"  id="-18"  changeset="false" ><tag k="id" v="19821"/><tag k="amenity" v="toilets"/><tag k="descriptio" v="Libre"/><tag k="municipali" v="Lutry"/><tag k="name" v="Gare De Bossiere"/><tag k="toilets_po" v="seated"/><tag k="wc_guide_i" v="19821"/><tag k="Cluster_ID" v="36"/><tag k="xyz" v="1062_1323_11"/></node><node lat="46.492077" lon="6.769822"  id="-19"  changeset="false" ><tag k="id" v="20094"/><tag k="amenity" v="toilets"/><tag k="municipali" v="Puidoux"/><tag k="name" v="Station service Avia"/><tag k="toilets_po" v="seated"/><tag k="wc_guide_i" v="20094"/><tag k="Cluster_ID" v="24"/><tag k="xyz" v="1062_1323_11"/></node><node lat="46.458401" lon="6.849681"  id="-20"  changeset="false" ><tag k="id" v="20600"/><tag k="amenity" v="toilets"/><tag k="municipali" v="Vevey"/><tag k="name" v="Rue D'Italie"/><tag k="toilets_po" v="seated"/><tag k="wc_guide_i" v="20600"/><tag k="Cluster_ID" v="24"/><tag k="xyz" v="1062_1323_11"/></node></osm>