<?xml version="1.0" encoding="UTF-8"?><osm version="0.6" generator="https://github.com/Rub21/geojson2osm"><node lat="47.11462" lon="7.842959"  id="-1"  changeset="false" ><tag k="id" v="1156"/><tag k="amenity" v="toilets"/><tag k="descriptio" v="Pissoir gratis. Wc 50 Rappen"/><tag k="municipali" v="Huttwil"/><tag k="name" v="Bahnhof Huttwil"/><tag k="toilets_po" v="seated"/><tag k="wc_guide_i" v="1156"/><tag k="Cluster_ID" v="34"/><tag k="xyz" v="1068_1328_11"/></node><node lat="47.044876" lon="7.802868"  id="-2"  changeset="false" ><tag k="id" v="1195"/><tag k="amenity" v="toilets"/><tag k="municipali" v="Wasen Gemeinde Sumiswald"/><tag k="name" v="Friedhof, Wasen I. E"/><tag k="toilets_po" v="seated"/><tag k="wc_guide_i" v="1195"/><tag k="Cluster_ID" v="34"/><tag k="xyz" v="1068_1328_11"/></node><node lat="47.044853" lon="7.802761"  id="-3"  changeset="false" ><tag k="id" v="1199"/><tag k="amenity" v="toilets"/><tag k="municipali" v="Sumiswald"/><tag k="name" v="Friedhof Wasen i. E"/><tag k="toilets_po" v="seated"/><tag k="wc_guide_i" v="1199"/><tag k="Cluster_ID" v="34"/><tag k="xyz" v="1068_1328_11"/></node><node lat="47.044945" lon="7.802708"  id="-4"  changeset="false" ><tag k="id" v="1219"/><tag k="amenity" v="toilets"/><tag k="descriptio" v="Pissoir und Wc im selben Raum"/><tag k="municipali" v="Sumiswald"/><tag k="name" v="Friedhof Wasen i. E"/><tag k="toilets_po" v="seated"/><tag k="wc_guide_i" v="1219"/><tag k="Cluster_ID" v="34"/><tag k="xyz" v="1068_1328_11"/></node><node lat="47.044819" lon="7.80304"  id="-5"  changeset="false" ><tag k="id" v="1236"/><tag k="amenity" v="toilets"/><tag k="descriptio" v="1 Pissoir und 1 Wc"/><tag k="municipali" v="Wasen i. E"/><tag k="name" v="Wasen i. E, Friedhof"/><tag k="toilets_po" v="seated"/><tag k="wc_guide_i" v="1236"/><tag k="Cluster_ID" v="34"/><tag k="xyz" v="1068_1328_11"/></node><node lat="47.04483" lon="7.802954"  id="-6"  changeset="false" ><tag k="id" v="1309"/><tag k="amenity" v="toilets"/><tag k="municipali" v="Sumiswald"/><tag k="name" v="Friedhof Wasen"/><tag k="toilets_po" v="seated"/><tag k="wc_guide_i" v="1309"/><tag k="Cluster_ID" v="34"/><tag k="xyz" v="1068_1328_11"/></node><node lat="47.14642" lon="7.790712"  id="-7"  changeset="false" ><tag k="id" v="1800"/><tag k="amenity" v="toilets"/><tag k="descriptio" v="Schl�ssel erh�ltlich im Bistro gegen�ber der Toilette."/><tag k="municipali" v="Kleindietwil"/><tag k="name" v="Bahnhof"/><tag k="toilets_po" v="seated"/><tag k="wc_guide_i" v="1800"/><tag k="Cluster_ID" v="34"/><tag k="xyz" v="1068_1328_11"/></node><node lat="47.135357" lon="7.817511"  id="-8"  changeset="false" ><tag k="id" v="16707"/><tag k="amenity" v="toilets"/><tag k="municipali" v="Rohrbach"/><tag k="name" v="friedhof"/><tag k="toilets_po" v="seated"/><tag k="wc_guide_i" v="16707"/><tag k="Cluster_ID" v="34"/><tag k="xyz" v="1068_1328_11"/></node><node lat="47.04332" lon="7.794991"  id="-9"  changeset="false" ><tag k="id" v="19119"/><tag k="amenity" v="toilets"/><tag k="municipali" v="Wasen"/><tag k="name" v="Feurerwehr"/><tag k="toilets_po" v="seated"/><tag k="wc_guide_i" v="19119"/><tag k="Cluster_ID" v="34"/><tag k="xyz" v="1068_1328_11"/></node><node lat="47.139454" lon="7.815009"  id="-10"  changeset="false" ><tag k="id" v="20104"/><tag k="amenity" v="toilets"/><tag k="municipali" v="Rohrbach"/><tag k="name" v="Hirschenpark Rohrbach"/><tag k="toilets_po" v="seated"/><tag k="wc_guide_i" v="20104"/><tag k="Cluster_ID" v="34"/><tag k="xyz" v="1068_1328_11"/></node><node lat="47.111324" lon="7.855114"  id="-11"  changeset="false" ><tag k="id" v="20505"/><tag k="amenity" v="toilets"/><tag k="municipali" v="Huttwil"/><tag k="name" v="Friedhof im UG"/><tag k="toilets_po" v="seated"/><tag k="wc_guide_i" v="20505"/><tag k="Cluster_ID" v="34"/><tag k="xyz" v="1068_1328_11"/></node></osm>