<?xml version="1.0" encoding="UTF-8"?><osm version="0.6" generator="https://github.com/Rub21/geojson2osm"><node lat="47.472954" lon="9.463477"  id="-1"  changeset="false" ><tag k="id" v="804"/><tag k="amenity" v="toilets"/><tag k="descriptio" v="im Geb�ude"/><tag k="municipali" v="Goldach"/><tag k="toilets_po" v="seated"/><tag k="wc_guide_i" v="804"/><tag k="Cluster_ID" v="29"/><tag k="xyz" v="1077_1331_11"/></node><node lat="47.407333" lon="9.461471"  id="-2"  changeset="false" ><tag k="id" v="808"/><tag k="amenity" v="toilets"/><tag k="municipali" v="Trogen"/><tag k="toilets_po" v="seated"/><tag k="wc_guide_i" v="808"/><tag k="Cluster_ID" v="29"/><tag k="xyz" v="1077_1331_11"/></node><node lat="47.427101" lon="9.482703"  id="-3"  changeset="false" ><tag k="id" v="809"/><tag k="amenity" v="toilets"/><tag k="municipali" v="Rehetobel"/><tag k="name" v="Post"/><tag k="toilets_po" v="seated"/><tag k="wc_guide_i" v="809"/><tag k="Cluster_ID" v="29"/><tag k="xyz" v="1077_1331_11"/></node><node lat="47.426125" lon="9.376724"  id="-4"  changeset="false" ><tag k="id" v="909"/><tag k="amenity" v="toilets"/><tag k="descriptio" v="WC im ersten Stock. Lift vorhanden."/><tag k="municipali" v="St. Gallen"/><tag k="name" v="Coop City"/><tag k="toilets_po" v="seated"/><tag k="wc_guide_i" v="909"/><tag k="Cluster_ID" v="29"/><tag k="xyz" v="1077_1331_11"/></node><node lat="47.41103" lon="9.442964"  id="-5"  changeset="false" ><tag k="id" v="1062"/><tag k="amenity" v="toilets"/><tag k="municipali" v="Speicher"/><tag k="name" v="Bahnhof Speicher"/><tag k="toilets_po" v="seated"/><tag k="wc_guide_i" v="1062"/><tag k="Cluster_ID" v="29"/><tag k="xyz" v="1077_1331_11"/></node><node lat="47.42659" lon="9.378631"  id="-6"  changeset="false" ><tag k="id" v="1143"/><tag k="amenity" v="toilets"/><tag k="municipali" v="St Gallen"/><tag k="name" v="Museumsquartier"/><tag k="toilets_po" v="seated"/><tag k="wc_guide_i" v="1143"/><tag k="Cluster_ID" v="29"/><tag k="xyz" v="1077_1331_11"/></node><node lat="47.502411" lon="9.44256"  id="-7"  changeset="false" ><tag k="id" v="1206"/><tag k="amenity" v="toilets"/><tag k="descriptio" v="Nur Tag�ber"/><tag k="municipali" v="Steinach"/><tag k="name" v="Neben Der Post"/><tag k="toilets_po" v="seated"/><tag k="wc_guide_i" v="1206"/><tag k="Cluster_ID" v="29"/><tag k="xyz" v="1077_1331_11"/></node><node lat="47.51149" lon="9.42996"  id="-8"  changeset="false" ><tag k="id" v="1289"/><tag k="amenity" v="toilets"/><tag k="municipali" v="Arbon"/><tag k="name" v="EKZ Novaseta"/><tag k="toilets_po" v="seated"/><tag k="wc_guide_i" v="1289"/><tag k="Cluster_ID" v="29"/><tag k="xyz" v="1077_1331_11"/></node><node lat="47.506027" lon="9.428458"  id="-9"  changeset="false" ><tag k="id" v="1360"/><tag k="amenity" v="toilets"/><tag k="descriptio" v="Ist meistens Geschlossen, hat nur Offen wen ein Fussballspiel auf dem Platz neben hat."/><tag k="municipali" v="Arbon"/><tag k="name" v="Sportplatz Sch�ntal"/><tag k="toilets_po" v="seated"/><tag k="wc_guide_i" v="1360"/><tag k="Cluster_ID" v="29"/><tag k="xyz" v="1077_1331_11"/></node><node lat="47.513474" lon="9.436425"  id="-10"  changeset="false" ><tag k="id" v="1362"/><tag k="amenity" v="toilets"/><tag k="municipali" v="Arbon"/><tag k="name" v="Jakob Z�llig Park"/><tag k="toilets_po" v="seated"/><tag k="wc_guide_i" v="1362"/><tag k="Cluster_ID" v="29"/><tag k="xyz" v="1077_1331_11"/></node><node lat="47.516476" lon="9.438806"  id="-11"  changeset="false" ><tag k="id" v="1482"/><tag k="amenity" v="toilets"/><tag k="municipali" v="Arbon"/><tag k="name" v="Schlosswiese Arbon"/><tag k="toilets_po" v="seated"/><tag k="wc_guide_i" v="1482"/><tag k="Cluster_ID" v="29"/><tag k="xyz" v="1077_1331_11"/></node><node lat="47.424751" lon="9.376366"  id="-12"  changeset="false" ><tag k="id" v="1533"/><tag k="amenity" v="toilets"/><tag k="descriptio" v="Bei der Kasse kann ein Chip f�r das WC verlangt werden."/><tag k="municipali" v="St. Gallen"/><tag k="name" v="R�sslitor"/><tag k="toilets_po" v="seated"/><tag k="wc_guide_i" v="1533"/><tag k="Cluster_ID" v="29"/><tag k="xyz" v="1077_1331_11"/></node><node lat="47.447021" lon="9.387646"  id="-13"  changeset="false" ><tag k="id" v="1630"/><tag k="amenity" v="toilets"/><tag k="municipali" v="St. Gallen"/><tag k="name" v="Wildpark Peter und Paul"/><tag k="toilets_po" v="seated"/><tag k="wc_guide_i" v="1630"/><tag k="Cluster_ID" v="29"/><tag k="xyz" v="1077_1331_11"/></node><node lat="47.473785" lon="9.466878"  id="-14"  changeset="false" ><tag k="id" v="1693"/><tag k="amenity" v="toilets"/><tag k="descriptio" v="Schl�ssel an der Kasse verlangen"/><tag k="municipali" v="Goldach"/><tag k="name" v="Bahnhof Goldach, Avec Shop"/><tag k="toilets_po" v="seated"/><tag k="wc_guide_i" v="1693"/><tag k="Cluster_ID" v="29"/><tag k="xyz" v="1077_1331_11"/></node><node lat="47.438217" lon="9.412537"  id="-15"  changeset="false" ><tag k="id" v="1695"/><tag k="amenity" v="toilets"/><tag k="municipali" v="St. Gallen"/><tag k="name" v="Gallusmarkt"/><tag k="toilets_po" v="seated"/><tag k="wc_guide_i" v="1695"/><tag k="Cluster_ID" v="29"/><tag k="xyz" v="1077_1331_11"/></node><node lat="47.420364" lon="9.362197"  id="-16"  changeset="false" ><tag k="id" v="1733"/><tag k="amenity" v="toilets"/><tag k="descriptio" v="2 Multikunktions Boxen"/><tag k="municipali" v="St.Gallen"/><tag k="name" v="Kreuzbleiche"/><tag k="toilets_po" v="seated"/><tag k="wc_guide_i" v="1733"/><tag k="Cluster_ID" v="29"/><tag k="xyz" v="1077_1331_11"/></node><node lat="47.419914" lon="9.384298"  id="-17"  changeset="false" ><tag k="id" v="1743"/><tag k="amenity" v="toilets"/><tag k="municipali" v="St. Gallen"/><tag k="name" v="Gemeinschaftsbad Dreilinden"/><tag k="toilets_po" v="seated"/><tag k="wc_guide_i" v="1743"/><tag k="Cluster_ID" v="29"/><tag k="xyz" v="1077_1331_11"/></node><node lat="47.426491" lon="9.386787"  id="-18"  changeset="false" ><tag k="id" v="1745"/><tag k="amenity" v="toilets"/><tag k="municipali" v="St.Gallen"/><tag k="name" v="Flurhofstrasse/Tempelackerstrasse"/><tag k="toilets_po" v="seated"/><tag k="wc_guide_i" v="1745"/><tag k="Cluster_ID" v="29"/><tag k="xyz" v="1077_1331_11"/></node><node lat="47.417576" lon="9.367132"  id="-19"  changeset="false" ><tag k="id" v="1747"/><tag k="amenity" v="toilets"/><tag k="municipali" v="St.Gallen"/><tag k="toilets_po" v="urinal"/><tag k="wc_guide_i" v="1747"/><tag k="Cluster_ID" v="29"/><tag k="xyz" v="1077_1331_11"/></node><node lat="47.430222" lon="9.376445"  id="-20"  changeset="false" ><tag k="id" v="1749"/><tag k="amenity" v="toilets"/><tag k="municipali" v="St.Gallen"/><tag k="toilets_po" v="urinal"/><tag k="wc_guide_i" v="1749"/><tag k="Cluster_ID" v="29"/><tag k="xyz" v="1077_1331_11"/></node><node lat="47.436829" lon="9.37616"  id="-21"  changeset="false" ><tag k="id" v="1751"/><tag k="amenity" v="toilets"/><tag k="descriptio" v="Haltestelle"/><tag k="municipali" v="St. Gallen"/><tag k="name" v="Rotmonten"/><tag k="toilets_po" v="seated"/><tag k="wc_guide_i" v="1751"/><tag k="Cluster_ID" v="29"/><tag k="xyz" v="1077_1331_11"/></node><node lat="47.442558" lon="9.394941"  id="-22"  changeset="false" ><tag k="id" v="1752"/><tag k="amenity" v="toilets"/><tag k="descriptio" v="Buswendeschlaufe"/><tag k="municipali" v="St. Gallen"/><tag k="name" v="Heiligkreuz"/><tag k="toilets_po" v="seated"/><tag k="wc_guide_i" v="1752"/><tag k="Cluster_ID" v="29"/><tag k="xyz" v="1077_1331_11"/></node><node lat="47.444344" lon="9.408245"  id="-23"  changeset="false" ><tag k="id" v="1753"/><tag k="amenity" v="toilets"/><tag k="descriptio" v="Buswendeschlaufe"/><tag k="municipali" v="St. Gallen"/><tag k="name" v="Stephanshorn"/><tag k="toilets_po" v="seated"/><tag k="wc_guide_i" v="1753"/><tag k="Cluster_ID" v="29"/><tag k="xyz" v="1077_1331_11"/></node><node lat="47.414528" lon="9.397216"  id="-24"  changeset="false" ><tag k="id" v="1754"/><tag k="amenity" v="toilets"/><tag k="descriptio" v="Buswendeschlaufe"/><tag k="municipali" v="St. Gallen"/><tag k="name" v="St.Georgen Bach"/><tag k="toilets_po" v="seated"/><tag k="wc_guide_i" v="1754"/><tag k="Cluster_ID" v="29"/><tag k="xyz" v="1077_1331_11"/></node><node lat="47.43433" lon="9.392323"  id="-25"  changeset="false" ><tag k="id" v="1998"/><tag k="amenity" v="toilets"/><tag k="municipali" v="St. Gallen"/><tag k="name" v="Bahnhof St. Fiden"/><tag k="toilets_po" v="seated"/><tag k="wc_guide_i" v="1998"/><tag k="Cluster_ID" v="29"/><tag k="xyz" v="1077_1331_11"/></node><node lat="47.494446" lon="9.344387"  id="-26"  changeset="false" ><tag k="id" v="2034"/><tag k="amenity" v="toilets"/><tag k="municipali" v="H�ggenschwil"/><tag k="name" v="Friedhofkappelle"/><tag k="toilets_po" v="seated"/><tag k="wc_guide_i" v="2034"/><tag k="Cluster_ID" v="29"/><tag k="xyz" v="1077_1331_11"/></node><node lat="47.431427" lon="9.396358"  id="-27"  changeset="false" ><tag k="id" v="2209"/><tag k="amenity" v="toilets"/><tag k="municipali" v="St. Gallen"/><tag k="toilets_po" v="seated"/><tag k="wc_guide_i" v="2209"/><tag k="Cluster_ID" v="29"/><tag k="xyz" v="1077_1331_11"/></node><node lat="47.507492" lon="9.412032"  id="-28"  changeset="false" ><tag k="id" v="2890"/><tag k="amenity" v="toilets"/><tag k="municipali" v="Stachen"/><tag k="name" v="Sportplatz"/><tag k="toilets_po" v="seated"/><tag k="wc_guide_i" v="2890"/><tag k="Cluster_ID" v="29"/><tag k="xyz" v="1077_1331_11"/></node><node lat="47.402542" lon="9.333349"  id="-29"  changeset="false" ><tag k="id" v="3282"/><tag k="amenity" v="toilets"/><tag k="municipali" v="St. Gallen"/><tag k="name" v="Bus Wendeplatz"/><tag k="toilets_po" v="seated"/><tag k="wc_guide_i" v="3282"/><tag k="Cluster_ID" v="29"/><tag k="xyz" v="1077_1331_11"/></node><node lat="47.42271" lon="9.368972"  id="-30"  changeset="false" ><tag k="id" v="3563"/><tag k="amenity" v="toilets"/><tag k="municipali" v="St. Gallen"/><tag k="toilets_po" v="seated"/><tag k="wc_guide_i" v="3563"/><tag k="Cluster_ID" v="29"/><tag k="xyz" v="1077_1331_11"/></node><node lat="47.412857" lon="9.336119"  id="-31"  changeset="false" ><tag k="id" v="3753"/><tag k="amenity" v="toilets"/><tag k="municipali" v="St. Gallen"/><tag k="name" v="Einkaufscentrum Lerchenfeld"/><tag k="toilets_po" v="seated"/><tag k="wc_guide_i" v="3753"/><tag k="Cluster_ID" v="29"/><tag k="xyz" v="1077_1331_11"/></node><node lat="47.419411" lon="9.366178"  id="-32"  changeset="false" ><tag k="id" v="3808"/><tag k="amenity" v="toilets"/><tag k="municipali" v="St. Gallen"/><tag k="name" v="Pissoir"/><tag k="toilets_po" v="urinal"/><tag k="wc_guide_i" v="3808"/><tag k="Cluster_ID" v="29"/><tag k="xyz" v="1077_1331_11"/></node><node lat="47.422455" lon="9.371993"  id="-33"  changeset="false" ><tag k="id" v="4347"/><tag k="amenity" v="toilets"/><tag k="municipali" v="Sankt Gallen"/><tag k="name" v="Migros Klubschule"/><tag k="toilets_po" v="seated"/><tag k="wc_guide_i" v="4347"/><tag k="Cluster_ID" v="29"/><tag k="xyz" v="1077_1331_11"/></node><node lat="47.47924" lon="9.458466"  id="-34"  changeset="false" ><tag k="id" v="4730"/><tag k="amenity" v="toilets"/><tag k="descriptio" v="Geb�ude-Hinterseite"/><tag k="municipali" v="T�bach"/><tag k="name" v="Sportanlage Kellen"/><tag k="toilets_po" v="seated"/><tag k="wc_guide_i" v="4730"/><tag k="Cluster_ID" v="29"/><tag k="xyz" v="1077_1331_11"/></node><node lat="47.408813" lon="9.465475"  id="-35"  changeset="false" ><tag k="id" v="18337"/><tag k="amenity" v="toilets"/><tag k="municipali" v="Trogen"/><tag k="name" v="Feuerwehrdepot"/><tag k="toilets_po" v="seated"/><tag k="wc_guide_i" v="18337"/><tag k="Cluster_ID" v="29"/><tag k="xyz" v="1077_1331_11"/></node><node lat="47.49271" lon="9.459174"  id="-36"  changeset="false" ><tag k="id" v="19026"/><tag k="amenity" v="toilets"/><tag k="municipali" v="Horn"/><tag k="name" v="Friedhof"/><tag k="toilets_po" v="seated"/><tag k="wc_guide_i" v="19026"/><tag k="Cluster_ID" v="29"/><tag k="xyz" v="1077_1331_11"/></node><node lat="47.479946" lon="9.485094"  id="-37"  changeset="false" ><tag k="id" v="19234"/><tag k="amenity" v="toilets"/><tag k="municipali" v="Rorschach"/><tag k="toilets_po" v="urinal"/><tag k="wc_guide_i" v="19234"/><tag k="Cluster_ID" v="29"/><tag k="xyz" v="1077_1331_11"/></node><node lat="47.47963" lon="9.486714"  id="-38"  changeset="false" ><tag k="id" v="19523"/><tag k="amenity" v="toilets"/><tag k="municipali" v="Rorschach"/><tag k="name" v="Badeh�tte"/><tag k="toilets_po" v="urinal"/><tag k="wc_guide_i" v="19523"/><tag k="Cluster_ID" v="29"/><tag k="xyz" v="1077_1331_11"/></node><node lat="47.479622" lon="9.486828"  id="-39"  changeset="false" ><tag k="id" v="19524"/><tag k="amenity" v="toilets"/><tag k="municipali" v="Rorschach"/><tag k="name" v="Badeh�tte"/><tag k="toilets_po" v="seated"/><tag k="wc_guide_i" v="19524"/><tag k="Cluster_ID" v="29"/><tag k="xyz" v="1077_1331_11"/></node><node lat="47.436901" lon="9.409468"  id="-40"  changeset="false" ><tag k="id" v="19532"/><tag k="amenity" v="toilets"/><tag k="descriptio" v="Oberhalb des Parkplatzes. Geradeaus hinein und dann links."/><tag k="municipali" v="St. Gallen"/><tag k="name" v="Schwimmbad Blumenwies"/><tag k="toilets_po" v="seated"/><tag k="wc_guide_i" v="19532"/><tag k="Cluster_ID" v="29"/><tag k="xyz" v="1077_1331_11"/></node><node lat="47.433731" lon="9.399915"  id="-41"  changeset="false" ><tag k="id" v="19723"/><tag k="amenity" v="toilets"/><tag k="municipali" v="St. Gallen"/><tag k="name" v="Brauerstrasse"/><tag k="toilets_po" v="seated"/><tag k="wc_guide_i" v="19723"/><tag k="Cluster_ID" v="29"/><tag k="xyz" v="1077_1331_11"/></node><node lat="47.419586" lon="9.362342"  id="-42"  changeset="false" ><tag k="id" v="20069"/><tag k="amenity" v="toilets"/><tag k="descriptio" v="Schl�ssel verlangen"/><tag k="municipali" v="St. Gallen"/><tag k="name" v="St. Leonhard Garage"/><tag k="toilets_po" v="seated"/><tag k="wc_guide_i" v="20069"/><tag k="Cluster_ID" v="29"/><tag k="xyz" v="1077_1331_11"/></node><node lat="47.421326" lon="9.38668"  id="-43"  changeset="false" ><tag k="id" v="20983"/><tag k="amenity" v="toilets"/><tag k="municipali" v="St. Gallen"/><tag k="toilets_po" v="seated"/><tag k="wc_guide_i" v="20983"/><tag k="Cluster_ID" v="29"/><tag k="xyz" v="1077_1331_11"/></node></osm>