<?xml version="1.0" encoding="UTF-8"?><osm version="0.6" generator="https://github.com/Rub21/geojson2osm"><node lat="46.395088" lon="6.249352"  id="-1"  changeset="false" ><tag k="id" v="2769"/><tag k="amenity" v="toilets"/><tag k="descriptio" v="Derri�re le b�timent"/><tag k="municipali" v="Prangins"/><tag k="name" v="Vieux Pressoir"/><tag k="toilets_po" v="seated"/><tag k="wc_guide_i" v="2769"/><tag k="Cluster_ID" v="45"/><tag k="xyz" v="1059_1322_11"/></node><node lat="46.384609" lon="6.23636"  id="-2"  changeset="false" ><tag k="id" v="2770"/><tag k="amenity" v="toilets"/><tag k="descriptio" v="Sur le quai No 1 de la gare"/><tag k="municipali" v="Nyon"/><tag k="name" v="Wc De La Gare"/><tag k="toilets_po" v="seated"/><tag k="wc_guide_i" v="2770"/><tag k="Cluster_ID" v="45"/><tag k="xyz" v="1059_1322_11"/></node><node lat="46.397354" lon="6.205301"  id="-3"  changeset="false" ><tag k="id" v="2828"/><tag k="amenity" v="toilets"/><tag k="municipali" v="Signy"/><tag k="name" v="Signy Centre"/><tag k="toilets_po" v="seated"/><tag k="wc_guide_i" v="2828"/><tag k="Cluster_ID" v="45"/><tag k="xyz" v="1059_1322_11"/></node><node lat="46.316929" lon="6.192948"  id="-4"  changeset="false" ><tag k="id" v="3039"/><tag k="amenity" v="toilets"/><tag k="municipali" v="Coppet"/><tag k="toilets_po" v="seated"/><tag k="wc_guide_i" v="3039"/><tag k="Cluster_ID" v="45"/><tag k="xyz" v="1059_1322_11"/></node><node lat="46.418964" lon="6.289083"  id="-5"  changeset="false" ><tag k="id" v="4108"/><tag k="amenity" v="toilets"/><tag k="municipali" v="Gland"/><tag k="name" v="Plage de gland"/><tag k="toilets_po" v="seated"/><tag k="wc_guide_i" v="4108"/><tag k="Cluster_ID" v="45"/><tag k="xyz" v="1059_1322_11"/></node><node lat="46.357109" lon="6.206687"  id="-6"  changeset="false" ><tag k="id" v="16825"/><tag k="amenity" v="toilets"/><tag k="municipali" v="Crans-pr�s-C�ligny"/><tag k="toilets_po" v="seated"/><tag k="wc_guide_i" v="16825"/><tag k="Cluster_ID" v="45"/><tag k="xyz" v="1059_1322_11"/></node><node lat="46.378155" lon="6.177284"  id="-7"  changeset="false" ><tag k="id" v="18128"/><tag k="amenity" v="toilets"/><tag k="municipali" v="Borex"/><tag k="name" v="Arr�t De Bus"/><tag k="toilets_po" v="seated"/><tag k="wc_guide_i" v="18128"/><tag k="Cluster_ID" v="45"/><tag k="xyz" v="1059_1322_11"/></node><node lat="46.400444" lon="6.175282"  id="-8"  changeset="false" ><tag k="id" v="18333"/><tag k="amenity" v="toilets"/><tag k="municipali" v="Ch�serex"/><tag k="name" v="Ch�serex Centre"/><tag k="toilets_po" v="seated"/><tag k="wc_guide_i" v="18333"/><tag k="Cluster_ID" v="45"/><tag k="xyz" v="1059_1322_11"/></node><node lat="46.382824" lon="6.235129"  id="-9"  changeset="false" ><tag k="id" v="19037"/><tag k="amenity" v="toilets"/><tag k="municipali" v="Nyon"/><tag k="name" v="Centre Commercial La Combe"/><tag k="toilets_po" v="seated"/><tag k="wc_guide_i" v="19037"/><tag k="website" v="https://www.lacombe.ch/"/><tag k="Cluster_ID" v="45"/><tag k="xyz" v="1059_1322_11"/></node><node lat="46.318371" lon="6.175688"  id="-10"  changeset="false" ><tag k="id" v="19106"/><tag k="amenity" v="toilets"/><tag k="municipali" v="Commugny"/><tag k="name" v="Greffe municipal"/><tag k="toilets_po" v="seated"/><tag k="wc_guide_i" v="19106"/><tag k="Cluster_ID" v="45"/><tag k="xyz" v="1059_1322_11"/></node><node lat="46.381325" lon="6.15309"  id="-11"  changeset="false" ><tag k="id" v="19404"/><tag k="amenity" v="toilets"/><tag k="municipali" v="La Rippe"/><tag k="name" v="A c�t� de la place de jeux pour enfants"/><tag k="toilets_po" v="seated"/><tag k="wc_guide_i" v="19404"/><tag k="Cluster_ID" v="45"/><tag k="xyz" v="1059_1322_11"/></node><node lat="46.380501" lon="6.240558"  id="-12"  changeset="false" ><tag k="id" v="19815"/><tag k="amenity" v="toilets"/><tag k="municipali" v="Nyon"/><tag k="toilets_po" v="seated"/><tag k="wc_guide_i" v="19815"/><tag k="Cluster_ID" v="45"/><tag k="xyz" v="1059_1322_11"/></node></osm>