<?xml version="1.0" encoding="UTF-8"?><osm version="0.6" generator="https://github.com/Rub21/geojson2osm"><node lat="46.788029" lon="7.079144"  id="-1"  changeset="false" ><tag k="id" v="948"/><tag k="amenity" v="toilets"/><tag k="municipali" v="Avry"/><tag k="toilets_po" v="seated"/><tag k="wc_guide_i" v="948"/><tag k="Cluster_ID" v="4"/><tag k="xyz" v="1064_1325_11"/></node><node lat="46.695835" lon="7.137372"  id="-2"  changeset="false" ><tag k="id" v="2249"/><tag k="amenity" v="toilets"/><tag k="municipali" v="La Roche"/><tag k="name" v="Maison de Ville"/><tag k="toilets_po" v="seated"/><tag k="wc_guide_i" v="2249"/><tag k="Cluster_ID" v="4"/><tag k="xyz" v="1064_1325_11"/></node><node lat="46.768024" lon="7.065511"  id="-3"  changeset="false" ><tag k="id" v="2346"/><tag k="amenity" v="toilets"/><tag k="descriptio" v="Toilettes derriere eglise"/><tag k="municipali" v="Neyruz"/><tag k="name" v="Eglise"/><tag k="toilets_po" v="seated"/><tag k="wc_guide_i" v="2346"/><tag k="Cluster_ID" v="4"/><tag k="xyz" v="1064_1325_11"/></node><node lat="46.773113" lon="7.169523"  id="-4"  changeset="false" ><tag k="id" v="3475"/><tag k="amenity" v="toilets"/><tag k="municipali" v="Marly FR"/><tag k="name" v="Bushaltestelle Tpf"/><tag k="toilets_po" v="seated"/><tag k="wc_guide_i" v="3475"/><tag k="Cluster_ID" v="4"/><tag k="xyz" v="1064_1325_11"/></node><node lat="46.727463" lon="7.136859"  id="-5"  changeset="false" ><tag k="id" v="19152"/><tag k="amenity" v="toilets"/><tag k="municipali" v="Treyvaux"/><tag k="name" v="La croix blanche"/><tag k="toilets_po" v="seated"/><tag k="wc_guide_i" v="19152"/><tag k="Cluster_ID" v="4"/><tag k="xyz" v="1064_1325_11"/></node><node lat="46.691753" lon="7.112028"  id="-6"  changeset="false" ><tag k="id" v="19415"/><tag k="amenity" v="toilets"/><tag k="descriptio" v="Aussi douche"/><tag k="municipali" v="Pont-la-Ville"/><tag k="name" v="Chapelle de Thusy"/><tag k="toilets_po" v="seated"/><tag k="wc_guide_i" v="19415"/><tag k="Cluster_ID" v="39"/><tag k="xyz" v="1064_1325_11"/></node><node lat="46.780148" lon="7.08833"  id="-7"  changeset="false" ><tag k="id" v="19554"/><tag k="amenity" v="toilets"/><tag k="municipali" v="Matran"/><tag k="name" v="Coop Brico-loisirs"/><tag k="toilets_po" v="seated"/><tag k="wc_guide_i" v="19554"/><tag k="Cluster_ID" v="4"/><tag k="xyz" v="1064_1325_11"/></node><node lat="46.72821" lon="7.136894"  id="-8"  changeset="false" ><tag k="id" v="20255"/><tag k="amenity" v="toilets"/><tag k="municipali" v="Treyvaux"/><tag k="toilets_po" v="seated"/><tag k="wc_guide_i" v="20255"/><tag k="Cluster_ID" v="4"/><tag k="xyz" v="1064_1325_11"/></node><node lat="46.80003" lon="7.176747"  id="-9"  changeset="false" ><tag k="id" v="20662"/><tag k="amenity" v="toilets"/><tag k="municipali" v="Bourguillon"/><tag k="name" v="Cimeti�re De Bourguillon"/><tag k="toilets_po" v="seated"/><tag k="wc_guide_i" v="20662"/><tag k="Cluster_ID" v="4"/><tag k="xyz" v="1064_1325_11"/></node></osm>