<?xml version="1.0" encoding="UTF-8"?><osm version="0.6" generator="https://github.com/Rub21/geojson2osm"><node lat="47.698563" lon="8.632886"  id="-1"  changeset="false" ><tag k="id" v="1275"/><tag k="amenity" v="toilets"/><tag k="municipali" v="Schaffhausen"/><tag k="name" v="Bahnhofsunterf�hrung"/><tag k="toilets_po" v="seated"/><tag k="wc_guide_i" v="1275"/><tag k="Cluster_ID" v="42"/><tag k="xyz" v="1073_1333_11"/></node><node lat="47.681049" lon="8.620309"  id="-2"  changeset="false" ><tag k="id" v="1588"/><tag k="amenity" v="toilets"/><tag k="municipali" v="Neuhausen am Rheinfall"/><tag k="name" v="Gemeindehaus Neuhausen am Rheinfall"/><tag k="toilets_po" v="seated"/><tag k="wc_guide_i" v="1588"/><tag k="Cluster_ID" v="42"/><tag k="xyz" v="1073_1333_11"/></node><node lat="47.689861" lon="8.625555"  id="-3"  changeset="false" ><tag k="id" v="2019"/><tag k="amenity" v="toilets"/><tag k="municipali" v="Flurlingen"/><tag k="name" v="Badi Flurlingen"/><tag k="toilets_po" v="seated"/><tag k="wc_guide_i" v="2019"/><tag k="Cluster_ID" v="42"/><tag k="xyz" v="1073_1333_11"/></node><node lat="47.693501" lon="8.631134"  id="-4"  changeset="false" ><tag k="id" v="2056"/><tag k="amenity" v="toilets"/><tag k="descriptio" v="Bei der Unterf�hrung am Radweg 2"/><tag k="municipali" v="Schaffhausen"/><tag k="name" v="Moserdenkmal"/><tag k="toilets_po" v="seated"/><tag k="wc_guide_i" v="2056"/><tag k="Cluster_ID" v="42"/><tag k="xyz" v="1073_1333_11"/></node><node lat="47.696587" lon="8.657945"  id="-5"  changeset="false" ><tag k="id" v="2458"/><tag k="amenity" v="toilets"/><tag k="descriptio" v="Busstation"/><tag k="municipali" v="Schaffhausen"/><tag k="name" v="Spielplatz"/><tag k="toilets_po" v="seated"/><tag k="wc_guide_i" v="2458"/><tag k="Cluster_ID" v="42"/><tag k="xyz" v="1073_1333_11"/></node><node lat="47.695461" lon="8.629557"  id="-6"  changeset="false" ><tag k="id" v="2516"/><tag k="amenity" v="toilets"/><tag k="descriptio" v="Bei Bushaltestelle"/><tag k="municipali" v="Schaffhausen"/><tag k="name" v="F�senstaubpark"/><tag k="toilets_po" v="seated"/><tag k="wc_guide_i" v="2516"/><tag k="Cluster_ID" v="42"/><tag k="xyz" v="1073_1333_11"/></node><node lat="47.6954" lon="8.629557"  id="-7"  changeset="false" ><tag k="id" v="2784"/><tag k="amenity" v="toilets"/><tag k="municipali" v="Schaffhausen"/><tag k="toilets_po" v="seated"/><tag k="wc_guide_i" v="2784"/><tag k="Cluster_ID" v="42"/><tag k="xyz" v="1073_1333_11"/></node><node lat="47.699741" lon="8.63534"  id="-8"  changeset="false" ><tag k="id" v="2789"/><tag k="amenity" v="toilets"/><tag k="municipali" v="Schaffhausen"/><tag k="name" v="Durchgang Turm"/><tag k="toilets_po" v="seated"/><tag k="wc_guide_i" v="2789"/><tag k="Cluster_ID" v="42"/><tag k="xyz" v="1073_1333_11"/></node><node lat="47.676563" lon="8.6219"  id="-9"  changeset="false" ><tag k="id" v="2923"/><tag k="amenity" v="toilets"/><tag k="descriptio" v="Mit Spielplatz in der N�he"/><tag k="municipali" v="Neuhausen am Rheinfall"/><tag k="name" v="Alte Neuhauser Badi"/><tag k="toilets_po" v="seated"/><tag k="wc_guide_i" v="2923"/><tag k="Cluster_ID" v="42"/><tag k="xyz" v="1073_1333_11"/></node><node lat="47.743103" lon="8.701"  id="-10"  changeset="false" ><tag k="id" v="4209"/><tag k="amenity" v="toilets"/><tag k="municipali" v="Thayngen"/><tag k="name" v="Rastplatz E41"/><tag k="toilets_po" v="seated"/><tag k="wc_guide_i" v="4209"/><tag k="Cluster_ID" v="42"/><tag k="xyz" v="1073_1333_11"/></node><node lat="47.686165" lon="8.621125"  id="-11"  changeset="false" ><tag k="id" v="16594"/><tag k="amenity" v="toilets"/><tag k="municipali" v="Neuhausen am Rheinfall"/><tag k="name" v="Migrolino"/><tag k="toilets_po" v="seated"/><tag k="wc_guide_i" v="16594"/><tag k="Cluster_ID" v="42"/><tag k="xyz" v="1073_1333_11"/></node><node lat="47.703403" lon="8.624862"  id="-12"  changeset="false" ><tag k="id" v="19571"/><tag k="amenity" v="toilets"/><tag k="municipali" v="Schaffhausen"/><tag k="name" v="Unter Trib�ne"/><tag k="toilets_po" v="seated"/><tag k="wc_guide_i" v="19571"/><tag k="Cluster_ID" v="42"/><tag k="xyz" v="1073_1333_11"/></node><node lat="47.705711" lon="8.653801"  id="-13"  changeset="false" ><tag k="id" v="20081"/><tag k="amenity" v="toilets"/><tag k="municipali" v="Schaffhausen"/><tag k="name" v="ToiToi Waldfriedhof"/><tag k="toilets_po" v="seated"/><tag k="wc_guide_i" v="20081"/><tag k="Cluster_ID" v="42"/><tag k="xyz" v="1073_1333_11"/></node></osm>