<?xml version="1.0" encoding="UTF-8"?><osm version="0.6" generator="https://github.com/Rub21/geojson2osm"><node lat="47.23819" lon="8.917658"  id="-1"  changeset="false" ><tag k="id" v="1169"/><tag k="amenity" v="toilets"/><tag k="municipali" v="Eschenbach"/><tag k="name" v="Dorftreff Sportplatz"/><tag k="toilets_po" v="seated"/><tag k="wc_guide_i" v="1169"/><tag k="Cluster_ID" v="20"/><tag k="xyz" v="1074_1329_11"/></node><node lat="47.240608" lon="8.949308"  id="-2"  changeset="false" ><tag k="id" v="1171"/><tag k="amenity" v="toilets"/><tag k="descriptio" v="Bei Agrola-Kasse um eine �ffnung der Toilette bitten."/><tag k="municipali" v="Eschenbach"/><tag k="name" v="Tankstelle Agrola"/><tag k="toilets_po" v="seated"/><tag k="wc_guide_i" v="1171"/><tag k="Cluster_ID" v="20"/><tag k="xyz" v="1074_1329_11"/></node><node lat="47.19347" lon="8.850498"  id="-3"  changeset="false" ><tag k="id" v="1306"/><tag k="amenity" v="toilets"/><tag k="municipali" v="Lachen SZ"/><tag k="name" v="Hafen"/><tag k="toilets_po" v="seated"/><tag k="wc_guide_i" v="1306"/><tag k="Cluster_ID" v="20"/><tag k="xyz" v="1074_1329_11"/></node><node lat="47.23164" lon="8.836379"  id="-4"  changeset="false" ><tag k="id" v="1501"/><tag k="amenity" v="toilets"/><tag k="municipali" v="rapperswil-jona"/><tag k="name" v="Eisenhof"/><tag k="toilets_po" v="seated"/><tag k="wc_guide_i" v="1501"/><tag k="Cluster_ID" v="20"/><tag k="xyz" v="1074_1329_11"/></node><node lat="47.235893" lon="8.819106"  id="-5"  changeset="false" ><tag k="id" v="2161"/><tag k="amenity" v="toilets"/><tag k="municipali" v="Kempraten"/><tag k="name" v="Fluhstrasse 1"/><tag k="toilets_po" v="seated"/><tag k="wc_guide_i" v="2161"/><tag k="Cluster_ID" v="20"/><tag k="xyz" v="1074_1329_11"/></node><node lat="47.189857" lon="8.85335"  id="-6"  changeset="false" ><tag k="id" v="2530"/><tag k="amenity" v="toilets"/><tag k="municipali" v="Lachen"/><tag k="name" v="Bahnhof Lachen SZ"/><tag k="toilets_po" v="seated"/><tag k="wc_guide_i" v="2530"/><tag k="Cluster_ID" v="20"/><tag k="xyz" v="1074_1329_11"/></node><node lat="47.211319" lon="8.797474"  id="-7"  changeset="false" ><tag k="id" v="2725"/><tag k="amenity" v="toilets"/><tag k="municipali" v="Rapperswil"/><tag k="name" v="Spielplatz"/><tag k="toilets_po" v="seated"/><tag k="wc_guide_i" v="2725"/><tag k="Cluster_ID" v="20"/><tag k="xyz" v="1074_1329_11"/></node><node lat="47.255146" lon="8.850865"  id="-8"  changeset="false" ><tag k="id" v="3500"/><tag k="amenity" v="toilets"/><tag k="municipali" v="R�ti"/><tag k="name" v="Friedhof R�ti"/><tag k="toilets_po" v="seated"/><tag k="wc_guide_i" v="3500"/><tag k="Cluster_ID" v="20"/><tag k="xyz" v="1074_1329_11"/></node><node lat="47.181026" lon="8.871953"  id="-9"  changeset="false" ><tag k="id" v="3523"/><tag k="amenity" v="toilets"/><tag k="municipali" v="Galgenen"/><tag k="name" v="Mehrzweckhalle"/><tag k="toilets_po" v="seated"/><tag k="wc_guide_i" v="3523"/><tag k="Cluster_ID" v="20"/><tag k="xyz" v="1074_1329_11"/></node><node lat="47.229061" lon="8.818662"  id="-10"  changeset="false" ><tag k="id" v="3892"/><tag k="amenity" v="toilets"/><tag k="municipali" v="Rapperswil-Jona"/><tag k="name" v="Turnhalle Halden"/><tag k="toilets_po" v="seated"/><tag k="wc_guide_i" v="3892"/><tag k="Cluster_ID" v="20"/><tag k="xyz" v="1074_1329_11"/></node><node lat="47.193542" lon="8.85057"  id="-11"  changeset="false" ><tag k="id" v="4040"/><tag k="amenity" v="toilets"/><tag k="municipali" v="Lachen"/><tag k="name" v="Seeanlage"/><tag k="toilets_po" v="seated"/><tag k="wc_guide_i" v="4040"/><tag k="Cluster_ID" v="20"/><tag k="xyz" v="1074_1329_11"/></node><node lat="47.205765" lon="8.793129"  id="-12"  changeset="false" ><tag k="id" v="4224"/><tag k="amenity" v="toilets"/><tag k="municipali" v="Pf�ffikon"/><tag k="name" v="Korporation Parkplatz"/><tag k="toilets_po" v="seated"/><tag k="wc_guide_i" v="4224"/><tag k="Cluster_ID" v="20"/><tag k="xyz" v="1074_1329_11"/></node><node lat="47.182098" lon="8.900428"  id="-13"  changeset="false" ><tag k="id" v="18145"/><tag k="amenity" v="toilets"/><tag k="municipali" v="Siebnen"/><tag k="name" v="Bahnhof Siebnen-Wangen"/><tag k="toilets_po" v="seated"/><tag k="wc_guide_i" v="18145"/><tag k="Cluster_ID" v="20"/><tag k="xyz" v="1074_1329_11"/></node><node lat="47.229088" lon="8.828362"  id="-14"  changeset="false" ><tag k="id" v="18260"/><tag k="amenity" v="toilets"/><tag k="municipali" v="Rapperswil (SG)"/><tag k="toilets_po" v="seated"/><tag k="wc_guide_i" v="18260"/><tag k="Cluster_ID" v="20"/><tag k="xyz" v="1074_1329_11"/></node><node lat="47.230354" lon="8.853637"  id="-15"  changeset="false" ><tag k="id" v="18307"/><tag k="amenity" v="toilets"/><tag k="municipali" v="Jona"/><tag k="toilets_po" v="seated"/><tag k="wc_guide_i" v="18307"/><tag k="Cluster_ID" v="20"/><tag k="xyz" v="1074_1329_11"/></node><node lat="47.172379" lon="8.927787"  id="-16"  changeset="false" ><tag k="id" v="18862"/><tag k="amenity" v="toilets"/><tag k="descriptio" v="Nur ge�ffnet w�hrend Gottesdienst und Trauerfeier"/><tag k="municipali" v="Sch�belbach"/><tag k="name" v="Friedhof Sch�belbach"/><tag k="toilets_po" v="seated"/><tag k="wc_guide_i" v="18862"/><tag k="Cluster_ID" v="20"/><tag k="xyz" v="1074_1329_11"/></node><node lat="47.19381" lon="8.865108"  id="-17"  changeset="false" ><tag k="id" v="19243"/><tag k="amenity" v="toilets"/><tag k="descriptio" v="Beim Spielplatz"/><tag k="municipali" v="Lachen"/><tag k="name" v="Sportplatz Peterswinkel"/><tag k="toilets_po" v="seated"/><tag k="wc_guide_i" v="19243"/><tag k="Cluster_ID" v="20"/><tag k="xyz" v="1074_1329_11"/></node><node lat="47.20359" lon="8.864894"  id="-18"  changeset="false" ><tag k="id" v="19685"/><tag k="amenity" v="toilets"/><tag k="municipali" v="Wangen SZ"/><tag k="name" v="Flugplatz Wangen"/><tag k="toilets_po" v="seated"/><tag k="wc_guide_i" v="19685"/><tag k="Cluster_ID" v="20"/><tag k="xyz" v="1074_1329_11"/></node><node lat="47.203472" lon="8.940105"  id="-19"  changeset="false" ><tag k="id" v="19794"/><tag k="amenity" v="toilets"/><tag k="municipali" v="Tuggen"/><tag k="name" v="Friedhof"/><tag k="toilets_po" v="seated"/><tag k="wc_guide_i" v="19794"/><tag k="Cluster_ID" v="20"/><tag k="xyz" v="1074_1329_11"/></node><node lat="47.277008" lon="8.918817"  id="-20"  changeset="false" ><tag k="id" v="20408"/><tag k="amenity" v="toilets"/><tag k="descriptio" v="In Luftschutzanlage (unter Kindergarten)"/><tag k="municipali" v="Wald ZH"/><tag k="name" v="�ffentlicher Spielplatz"/><tag k="toilets_po" v="seated"/><tag k="wc_guide_i" v="20408"/><tag k="Cluster_ID" v="20"/><tag k="xyz" v="1074_1329_11"/></node></osm>