<?xml version="1.0" encoding="UTF-8"?><osm version="0.6" generator="https://github.com/Rub21/geojson2osm"><node lat="47.519955" lon="8.329055"  id="-1"  changeset="false" ><tag k="id" v="16589"/><tag k="amenity" v="toilets"/><tag k="descriptio" v="Nur, wenn Kirche ge�ffnet. Untergeschoss."/><tag k="municipali" v="Lengnau"/><tag k="name" v="Kirchentoilette"/><tag k="toilets_po" v="seated"/><tag k="wc_guide_i" v="16589"/><tag k="Cluster_ID" v="28"/><tag k="xyz" v="1071_1332_11"/></node><node lat="47.5191" lon="8.334031"  id="-2"  changeset="false" ><tag k="id" v="16591"/><tag k="amenity" v="toilets"/><tag k="descriptio" v="Nur w�hrend Sportbetrieb ge�ffnet."/><tag k="municipali" v="Lengnau"/><tag k="name" v="Turnhallentoilette"/><tag k="toilets_po" v="seated"/><tag k="wc_guide_i" v="16591"/><tag k="Cluster_ID" v="28"/><tag k="xyz" v="1071_1332_11"/></node><node lat="47.537617" lon="8.290264"  id="-3"  changeset="false" ><tag k="id" v="16860"/><tag k="amenity" v="toilets"/><tag k="municipali" v="Endingen"/><tag k="name" v="Posthaltestelle"/><tag k="toilets_po" v="seated"/><tag k="wc_guide_i" v="16860"/><tag k="Cluster_ID" v="28"/><tag k="xyz" v="1071_1332_11"/></node><node lat="47.559639" lon="8.287003"  id="-4"  changeset="false" ><tag k="id" v="18752"/><tag k="amenity" v="toilets"/><tag k="descriptio" v="Anbau an Kirche"/><tag k="municipali" v="Tegerfelden"/><tag k="name" v="Kirche / Friedhof"/><tag k="toilets_po" v="seated"/><tag k="wc_guide_i" v="18752"/><tag k="Cluster_ID" v="28"/><tag k="xyz" v="1071_1332_11"/></node><node lat="47.537033" lon="8.288227"  id="-5"  changeset="false" ><tag k="id" v="19830"/><tag k="amenity" v="toilets"/><tag k="municipali" v="Endingen"/><tag k="name" v="Haltestelle"/><tag k="toilets_po" v="seated"/><tag k="wc_guide_i" v="19830"/><tag k="Cluster_ID" v="28"/><tag k="xyz" v="1071_1332_11"/></node><node lat="47.537563" lon="8.289799"  id="-6"  changeset="false" ><tag k="id" v="19831"/><tag k="amenity" v="toilets"/><tag k="municipali" v="Endingen"/><tag k="name" v="Marktgasse"/><tag k="toilets_po" v="seated"/><tag k="wc_guide_i" v="19831"/><tag k="Cluster_ID" v="28"/><tag k="xyz" v="1071_1332_11"/></node><node lat="47.523075" lon="8.356542"  id="-7"  changeset="false" ><tag k="id" v="20540"/><tag k="amenity" v="toilets"/><tag k="municipali" v="Schneisingen"/><tag k="name" v="Bei der Kirche"/><tag k="toilets_po" v="seated"/><tag k="wc_guide_i" v="20540"/><tag k="Cluster_ID" v="40"/><tag k="xyz" v="1071_1332_11"/></node></osm>