<?xml version="1.0" encoding="UTF-8"?><osm version="0.6" generator="https://github.com/Rub21/geojson2osm"><node lat="46.738361" lon="7.612967"  id="-1"  changeset="false" ><tag k="id" v="1327"/><tag k="amenity" v="toilets"/><tag k="municipali" v="Thun"/><tag k="name" v="Spielplatz L�ssliweg"/><tag k="toilets_po" v="seated"/><tag k="wc_guide_i" v="1327"/><tag k="Cluster_ID" v="7"/><tag k="xyz" v="1067_1325_11"/></node><node lat="46.764114" lon="7.620754"  id="-2"  changeset="false" ><tag k="id" v="1328"/><tag k="amenity" v="toilets"/><tag k="municipali" v="Steffisburg"/><tag k="name" v="Feuerwehrmagazin"/><tag k="toilets_po" v="seated"/><tag k="wc_guide_i" v="1328"/><tag k="Cluster_ID" v="7"/><tag k="xyz" v="1067_1325_11"/></node><node lat="46.774143" lon="7.573153"  id="-3"  changeset="false" ><tag k="id" v="1832"/><tag k="amenity" v="toilets"/><tag k="municipali" v="Uetendorf"/><tag k="name" v="Dorfplatz"/><tag k="toilets_po" v="seated"/><tag k="wc_guide_i" v="1832"/><tag k="Cluster_ID" v="7"/><tag k="xyz" v="1067_1325_11"/></node><node lat="46.75761" lon="7.626085"  id="-4"  changeset="false" ><tag k="id" v="1862"/><tag k="amenity" v="toilets"/><tag k="municipali" v="Thun"/><tag k="name" v="Parkhaus City West"/><tag k="toilets_po" v="seated"/><tag k="wc_guide_i" v="1862"/><tag k="Cluster_ID" v="7"/><tag k="xyz" v="1067_1325_11"/></node><node lat="46.781887" lon="7.634952"  id="-5"  changeset="false" ><tag k="id" v="2307"/><tag k="amenity" v="toilets"/><tag k="municipali" v="Steffisburg"/><tag k="name" v="Bushaltestelle Kirche Steffisburg"/><tag k="toilets_po" v="seated"/><tag k="wc_guide_i" v="2307"/><tag k="Cluster_ID" v="7"/><tag k="xyz" v="1067_1325_11"/></node><node lat="46.730289" lon="7.668419"  id="-6"  changeset="false" ><tag k="id" v="2592"/><tag k="amenity" v="toilets"/><tag k="municipali" v="Oberhofen am Thunersee"/><tag k="name" v="L�ndte Oberhofen"/><tag k="toilets_po" v="seated"/><tag k="wc_guide_i" v="2592"/><tag k="Cluster_ID" v="7"/><tag k="xyz" v="1067_1325_11"/></node><node lat="46.759899" lon="7.629588"  id="-7"  changeset="false" ><tag k="id" v="2593"/><tag k="amenity" v="toilets"/><tag k="municipali" v="Thun"/><tag k="name" v="Rathhausplatz"/><tag k="toilets_po" v="seated"/><tag k="wc_guide_i" v="2593"/><tag k="Cluster_ID" v="7"/><tag k="xyz" v="1067_1325_11"/></node><node lat="46.719818" lon="7.697897"  id="-8"  changeset="false" ><tag k="id" v="2804"/><tag k="amenity" v="toilets"/><tag k="municipali" v="Aeschlen Ob Gunten"/><tag k="name" v="Bushaltestelle Aeschlen Dorf"/><tag k="toilets_po" v="seated"/><tag k="wc_guide_i" v="2804"/><tag k="Cluster_ID" v="7"/><tag k="xyz" v="1067_1325_11"/></node><node lat="46.725536" lon="7.6794"  id="-9"  changeset="false" ><tag k="id" v="2806"/><tag k="amenity" v="toilets"/><tag k="municipali" v="Oberhofen am Thunersee"/><tag k="name" v="L�ndte L�ngenschachen"/><tag k="toilets_po" v="seated"/><tag k="wc_guide_i" v="2806"/><tag k="Cluster_ID" v="7"/><tag k="xyz" v="1067_1325_11"/></node><node lat="46.736961" lon="7.718512"  id="-10"  changeset="false" ><tag k="id" v="2807"/><tag k="amenity" v="toilets"/><tag k="municipali" v="Schwanden"/><tag k="name" v="Schulhaus Schwanden"/><tag k="toilets_po" v="seated"/><tag k="wc_guide_i" v="2807"/><tag k="Cluster_ID" v="7"/><tag k="xyz" v="1067_1325_11"/></node><node lat="46.713768" lon="7.701845"  id="-11"  changeset="false" ><tag k="id" v="2931"/><tag k="amenity" v="toilets"/><tag k="municipali" v="Sigriswil"/><tag k="name" v="Schulhaus"/><tag k="toilets_po" v="seated"/><tag k="wc_guide_i" v="2931"/><tag k="Cluster_ID" v="7"/><tag k="xyz" v="1067_1325_11"/></node><node lat="46.7472" lon="7.636587"  id="-12"  changeset="false" ><tag k="id" v="2940"/><tag k="amenity" v="toilets"/><tag k="municipali" v="Thun"/><tag k="toilets_po" v="seated"/><tag k="wc_guide_i" v="2940"/><tag k="Cluster_ID" v="7"/><tag k="xyz" v="1067_1325_11"/></node><node lat="46.794292" lon="7.582781"  id="-13"  changeset="false" ><tag k="id" v="3430"/><tag k="amenity" v="toilets"/><tag k="municipali" v="Uttigen"/><tag k="name" v="Bahnhof Uttigen"/><tag k="toilets_po" v="seated"/><tag k="wc_guide_i" v="3430"/><tag k="Cluster_ID" v="7"/><tag k="xyz" v="1067_1325_11"/></node><node lat="46.724136" lon="7.691151"  id="-14"  changeset="false" ><tag k="id" v="3481"/><tag k="amenity" v="toilets"/><tag k="descriptio" v="Plumpsklo"/><tag k="municipali" v="Tschingel"/><tag k="name" v="Br�tliplatz R�tacker"/><tag k="toilets_po" v="seated"/><tag k="wc_guide_i" v="3481"/><tag k="Cluster_ID" v="7"/><tag k="xyz" v="1067_1325_11"/></node><node lat="46.704853" lon="7.733042"  id="-15"  changeset="false" ><tag k="id" v="3504"/><tag k="amenity" v="toilets"/><tag k="municipali" v="Merligen"/><tag k="name" v="Br�tliplatz Opeten"/><tag k="toilets_po" v="seated"/><tag k="wc_guide_i" v="3504"/><tag k="Cluster_ID" v="7"/><tag k="xyz" v="1067_1325_11"/></node><node lat="46.752785" lon="7.619072"  id="-16"  changeset="false" ><tag k="id" v="3520"/><tag k="amenity" v="toilets"/><tag k="municipali" v="Thun"/><tag k="name" v="Friedhof"/><tag k="toilets_po" v="seated"/><tag k="wc_guide_i" v="3520"/><tag k="Cluster_ID" v="7"/><tag k="xyz" v="1067_1325_11"/></node><node lat="46.724033" lon="7.709527"  id="-17"  changeset="false" ><tag k="id" v="3535"/><tag k="amenity" v="toilets"/><tag k="descriptio" v="Bushaltestelle"/><tag k="municipali" v="Tschingel"/><tag k="name" v="Dorf"/><tag k="toilets_po" v="seated"/><tag k="wc_guide_i" v="3535"/><tag k="Cluster_ID" v="7"/><tag k="xyz" v="1067_1325_11"/></node><node lat="46.735584" lon="7.65813"  id="-18"  changeset="false" ><tag k="id" v="3654"/><tag k="amenity" v="toilets"/><tag k="municipali" v="Hilterfingen"/><tag k="name" v="Tourismusb�ro Hilterfingen"/><tag k="toilets_po" v="seated"/><tag k="wc_guide_i" v="3654"/><tag k="Cluster_ID" v="7"/><tag k="xyz" v="1067_1325_11"/></node><node lat="46.78046" lon="7.606745"  id="-19"  changeset="false" ><tag k="id" v="3693"/><tag k="amenity" v="toilets"/><tag k="municipali" v="Heimberg"/><tag k="name" v="Coop Megastore heimberg"/><tag k="toilets_po" v="seated"/><tag k="wc_guide_i" v="3693"/><tag k="Cluster_ID" v="7"/><tag k="xyz" v="1067_1325_11"/></node><node lat="46.782166" lon="7.603827"  id="-20"  changeset="false" ><tag k="id" v="3703"/><tag k="amenity" v="toilets"/><tag k="municipali" v="Heimberg"/><tag k="name" v="spar heimberg"/><tag k="toilets_po" v="seated"/><tag k="wc_guide_i" v="3703"/><tag k="Cluster_ID" v="7"/><tag k="xyz" v="1067_1325_11"/></node><node lat="46.76215" lon="7.618318"  id="-21"  changeset="false" ><tag k="id" v="3961"/><tag k="amenity" v="toilets"/><tag k="municipali" v="Steffisburg"/><tag k="name" v="Uferweg"/><tag k="toilets_po" v="seated"/><tag k="wc_guide_i" v="3961"/><tag k="Cluster_ID" v="7"/><tag k="xyz" v="1067_1325_11"/></node><node lat="46.758205" lon="7.625097"  id="-22"  changeset="false" ><tag k="id" v="4039"/><tag k="amenity" v="toilets"/><tag k="municipali" v="Thun"/><tag k="name" v="ToiToi"/><tag k="toilets_po" v="seated"/><tag k="wc_guide_i" v="4039"/><tag k="Cluster_ID" v="7"/><tag k="xyz" v="1067_1325_11"/></node><node lat="46.725586" lon="7.620542"  id="-23"  changeset="false" ><tag k="id" v="4216"/><tag k="amenity" v="toilets"/><tag k="municipali" v="Thun"/><tag k="name" v="Bahnh�fli Gwatt"/><tag k="toilets_po" v="seated"/><tag k="wc_guide_i" v="4216"/><tag k="Cluster_ID" v="7"/><tag k="xyz" v="1067_1325_11"/></node><node lat="46.759998" lon="7.626608"  id="-24"  changeset="false" ><tag k="id" v="4310"/><tag k="amenity" v="toilets"/><tag k="municipali" v="Thun"/><tag k="toilets_po" v="seated"/><tag k="wc_guide_i" v="4310"/><tag k="Cluster_ID" v="7"/><tag k="xyz" v="1067_1325_11"/></node><node lat="46.696674" lon="7.665527"  id="-25"  changeset="false" ><tag k="id" v="16394"/><tag k="amenity" v="toilets"/><tag k="descriptio" v="�ber Br�cke unten am See"/><tag k="municipali" v="Spiez"/><tag k="name" v="BKW Kraftwerk"/><tag k="toilets_po" v="seated"/><tag k="wc_guide_i" v="16394"/><tag k="Cluster_ID" v="7"/><tag k="xyz" v="1067_1325_11"/></node><node lat="46.721272" lon="7.563177"  id="-26"  changeset="false" ><tag k="id" v="16412"/><tag k="amenity" v="toilets"/><tag k="municipali" v="H�fen"/><tag k="name" v="Neben Feuerwehrmagazin Mehrzweckhalle"/><tag k="toilets_po" v="seated"/><tag k="wc_guide_i" v="16412"/><tag k="Cluster_ID" v="7"/><tag k="xyz" v="1067_1325_11"/></node><node lat="46.737663" lon="7.63169"  id="-27"  changeset="false" ><tag k="id" v="18316"/><tag k="amenity" v="toilets"/><tag k="municipali" v="Thun"/><tag k="name" v="Strandbad"/><tag k="toilets_po" v="seated"/><tag k="wc_guide_i" v="18316"/><tag k="Cluster_ID" v="7"/><tag k="xyz" v="1067_1325_11"/></node><node lat="46.758862" lon="7.61648"  id="-28"  changeset="false" ><tag k="id" v="18483"/><tag k="amenity" v="toilets"/><tag k="municipali" v="Thun"/><tag k="name" v="Nette Toilette"/><tag k="toilets_po" v="seated"/><tag k="wc_guide_i" v="18483"/><tag k="Cluster_ID" v="7"/><tag k="xyz" v="1067_1325_11"/></node><node lat="46.760315" lon="7.628815"  id="-29"  changeset="false" ><tag k="id" v="18484"/><tag k="amenity" v="toilets"/><tag k="municipali" v="Thun"/><tag k="name" v="Nette Toilette"/><tag k="toilets_po" v="seated"/><tag k="wc_guide_i" v="18484"/><tag k="website" v="http://www.cortinalounge.ch/"/><tag k="Cluster_ID" v="7"/><tag k="xyz" v="1067_1325_11"/></node><node lat="46.758621" lon="7.629765"  id="-30"  changeset="false" ><tag k="id" v="18486"/><tag k="amenity" v="toilets"/><tag k="municipali" v="Thun"/><tag k="name" v="Nette Toilette"/><tag k="toilets_po" v="seated"/><tag k="wc_guide_i" v="18486"/><tag k="website" v="http://www.aesszimmer.ch/"/><tag k="Cluster_ID" v="7"/><tag k="xyz" v="1067_1325_11"/></node><node lat="46.759727" lon="7.63181"  id="-31"  changeset="false" ><tag k="id" v="18665"/><tag k="amenity" v="toilets"/><tag k="municipali" v="Thun"/><tag k="name" v="Nette Toilette"/><tag k="toilets_po" v="seated"/><tag k="wc_guide_i" v="18665"/><tag k="website" v="https://www.efg-thun.ch/ueber-uns/lios-cafe/"/><tag k="Cluster_ID" v="7"/><tag k="xyz" v="1067_1325_11"/></node><node lat="46.744259" lon="7.614279"  id="-32"  changeset="false" ><tag k="id" v="18871"/><tag k="amenity" v="toilets"/><tag k="descriptio" v="im 1. UG neben Migros-Info, via Rolltreppe oder Lift"/><tag k="municipali" v="Thun"/><tag k="name" v="Migros"/><tag k="toilets_po" v="seated"/><tag k="wc_guide_i" v="18871"/><tag k="Cluster_ID" v="7"/><tag k="xyz" v="1067_1325_11"/></node><node lat="46.711735" lon="7.707296"  id="-33"  changeset="false" ><tag k="id" v="19271"/><tag k="amenity" v="toilets"/><tag k="municipali" v="Sigriswil"/><tag k="name" v="Freibad"/><tag k="toilets_po" v="seated"/><tag k="wc_guide_i" v="19271"/><tag k="Cluster_ID" v="7"/><tag k="xyz" v="1067_1325_11"/></node><node lat="46.771156" lon="7.631219"  id="-34"  changeset="false" ><tag k="id" v="20621"/><tag k="amenity" v="toilets"/><tag k="municipali" v="Steffisburg"/><tag k="name" v="Bushaltestelle Ziegelei Richtung Dorf"/><tag k="toilets_po" v="seated"/><tag k="wc_guide_i" v="20621"/><tag k="Cluster_ID" v="7"/><tag k="xyz" v="1067_1325_11"/></node></osm>