<?xml version="1.0" encoding="UTF-8"?><osm version="0.6" generator="https://github.com/Rub21/geojson2osm"><node lat="47.559647" lon="8.87764"  id="-1"  changeset="false" ><tag k="id" v="1290"/><tag k="amenity" v="toilets"/><tag k="municipali" v="Frauenfeld"/><tag k="name" v="Kreuzung Sonnenhofstr./Burgerholzstr."/><tag k="toilets_po" v="seated"/><tag k="wc_guide_i" v="1290"/><tag k="Cluster_ID" v="40"/><tag k="xyz" v="1074_1332_11"/></node><node lat="47.552933" lon="8.834803"  id="-2"  changeset="false" ><tag k="id" v="1963"/><tag k="amenity" v="toilets"/><tag k="municipali" v="Gachnang"/><tag k="name" v="Rastplatz Kefikon - S�d"/><tag k="toilets_po" v="seated"/><tag k="wc_guide_i" v="1963"/><tag k="Cluster_ID" v="40"/><tag k="xyz" v="1074_1332_11"/></node><node lat="47.549618" lon="8.910427"  id="-3"  changeset="false" ><tag k="id" v="3593"/><tag k="amenity" v="toilets"/><tag k="municipali" v="Frauenfeld"/><tag k="name" v="Kantonsspital Frauenfeld"/><tag k="toilets_po" v="seated"/><tag k="wc_guide_i" v="3593"/><tag k="Cluster_ID" v="42"/><tag k="xyz" v="1074_1332_11"/></node><node lat="47.556229" lon="8.899262"  id="-4"  changeset="false" ><tag k="id" v="4372"/><tag k="amenity" v="toilets"/><tag k="municipali" v="Frauenfeld"/><tag k="name" v="Kantonsbibliothek"/><tag k="toilets_po" v="seated"/><tag k="wc_guide_i" v="4372"/><tag k="Cluster_ID" v="42"/><tag k="xyz" v="1074_1332_11"/></node><node lat="47.556942" lon="8.896442"  id="-5"  changeset="false" ><tag k="id" v="4591"/><tag k="amenity" v="toilets"/><tag k="municipali" v="Frauenfeld"/><tag k="name" v="Migros"/><tag k="toilets_po" v="seated"/><tag k="wc_guide_i" v="4591"/><tag k="Cluster_ID" v="42"/><tag k="xyz" v="1074_1332_11"/></node><node lat="47.559704" lon="8.915986"  id="-6"  changeset="false" ><tag k="id" v="16441"/><tag k="amenity" v="toilets"/><tag k="municipali" v="Frauenfeld"/><tag k="name" v="Pl�ttli Zoo"/><tag k="toilets_po" v="seated"/><tag k="wc_guide_i" v="16441"/><tag k="Cluster_ID" v="42"/><tag k="xyz" v="1074_1332_11"/></node><node lat="47.560371" lon="8.891181"  id="-7"  changeset="false" ><tag k="id" v="16549"/><tag k="amenity" v="toilets"/><tag k="municipali" v="Frauenfeld"/><tag k="name" v="Schaffhauserplatz"/><tag k="toilets_po" v="seated"/><tag k="wc_guide_i" v="16549"/><tag k="Cluster_ID" v="42"/><tag k="xyz" v="1074_1332_11"/></node><node lat="47.554325" lon="8.895747"  id="-8"  changeset="false" ><tag k="id" v="18374"/><tag k="amenity" v="toilets"/><tag k="municipali" v="Frauenfeld"/><tag k="name" v="Coop Schlosspark"/><tag k="toilets_po" v="seated"/><tag k="wc_guide_i" v="18374"/><tag k="Cluster_ID" v="42"/><tag k="xyz" v="1074_1332_11"/></node><node lat="47.564011" lon="8.88662"  id="-9"  changeset="false" ><tag k="id" v="20005"/><tag k="amenity" v="toilets"/><tag k="municipali" v="Frauenfeld"/><tag k="name" v="Kunsteisbahn"/><tag k="toilets_po" v="seated"/><tag k="wc_guide_i" v="20005"/><tag k="Cluster_ID" v="42"/><tag k="xyz" v="1074_1332_11"/></node><node lat="47.535381" lon="8.789451"  id="-10"  changeset="false" ><tag k="id" v="20130"/><tag k="amenity" v="toilets"/><tag k="municipali" v="Sulz"/><tag k="name" v="Bahnhof Sulz"/><tag k="toilets_po" v="seated"/><tag k="wc_guide_i" v="20130"/><tag k="Cluster_ID" v="40"/><tag k="xyz" v="1074_1332_11"/></node></osm>