<?xml version="1.0" encoding="UTF-8"?><osm version="0.6" generator="https://github.com/Rub21/geojson2osm"><node lat="47.188808" lon="8.396301"  id="-1"  changeset="false" ><tag k="id" v="1407"/><tag k="amenity" v="toilets"/><tag k="descriptio" v="Zwischen 2 Geb�uden"/><tag k="municipali" v="Sins"/><tag k="name" v="BP Tankstelle"/><tag k="toilets_po" v="seated"/><tag k="wc_guide_i" v="1407"/><tag k="Cluster_ID" v="37"/><tag k="xyz" v="1071_1329_11"/></node><node lat="47.210094" lon="8.366175"  id="-2"  changeset="false" ><tag k="id" v="1603"/><tag k="amenity" v="toilets"/><tag k="municipali" v="Auw"/><tag k="toilets_po" v="seated"/><tag k="wc_guide_i" v="1603"/><tag k="Cluster_ID" v="37"/><tag k="xyz" v="1071_1329_11"/></node><node lat="47.18169" lon="8.314247"  id="-3"  changeset="false" ><tag k="id" v="1623"/><tag k="amenity" v="toilets"/><tag k="municipali" v="Hohenrain"/><tag k="name" v="Kirche"/><tag k="toilets_po" v="seated"/><tag k="wc_guide_i" v="1623"/><tag k="Cluster_ID" v="37"/><tag k="xyz" v="1071_1329_11"/></node><node lat="47.174931" lon="8.42656"  id="-4"  changeset="false" ><tag k="id" v="1967"/><tag k="amenity" v="toilets"/><tag k="descriptio" v="Gleich neben dem Polizeiposten, UG Gemeindehause Zugang von Aussen"/><tag k="municipali" v="H�nenberg"/><tag k="name" v="Gemeindehaus"/><tag k="toilets_po" v="seated"/><tag k="wc_guide_i" v="1967"/><tag k="Cluster_ID" v="37"/><tag k="xyz" v="1071_1329_11"/></node><node lat="47.260529" lon="8.375124"  id="-5"  changeset="false" ><tag k="id" v="2551"/><tag k="amenity" v="toilets"/><tag k="municipali" v="Merenschwand"/><tag k="name" v="Friedhof"/><tag k="toilets_po" v="seated"/><tag k="wc_guide_i" v="2551"/><tag k="Cluster_ID" v="28"/><tag k="xyz" v="1071_1329_11"/></node><node lat="47.268818" lon="8.267705"  id="-6"  changeset="false" ><tag k="id" v="3842"/><tag k="amenity" v="toilets"/><tag k="municipali" v="Schongau"/><tag k="name" v="Kirche"/><tag k="toilets_po" v="seated"/><tag k="wc_guide_i" v="3842"/><tag k="Cluster_ID" v="28"/><tag k="xyz" v="1071_1329_11"/></node><node lat="47.195049" lon="8.295236"  id="-7"  changeset="false" ><tag k="id" v="4503"/><tag k="amenity" v="toilets"/><tag k="municipali" v="Hohenrain"/><tag k="toilets_po" v="seated"/><tag k="wc_guide_i" v="4503"/><tag k="Cluster_ID" v="28"/><tag k="xyz" v="1071_1329_11"/></node><node lat="47.225311" lon="8.264305"  id="-8"  changeset="false" ><tag k="id" v="16600"/><tag k="amenity" v="toilets"/><tag k="descriptio" v="Meistens geschlossen!"/><tag k="municipali" v="Hitzkirch"/><tag k="name" v="Kirche"/><tag k="toilets_po" v="seated"/><tag k="wc_guide_i" v="16600"/><tag k="Cluster_ID" v="28"/><tag k="xyz" v="1071_1329_11"/></node><node lat="47.246857" lon="8.365711"  id="-9"  changeset="false" ><tag k="id" v="16815"/><tag k="amenity" v="toilets"/><tag k="municipali" v="Benzenschwil"/><tag k="name" v="Bahnhof"/><tag k="toilets_po" v="seated"/><tag k="wc_guide_i" v="16815"/><tag k="Cluster_ID" v="28"/><tag k="xyz" v="1071_1329_11"/></node><node lat="47.167755" lon="8.290626"  id="-10"  changeset="false" ><tag k="id" v="18373"/><tag k="amenity" v="toilets"/><tag k="municipali" v="Hochdorf"/><tag k="name" v="Alten Feuerwehr Geb�ude"/><tag k="toilets_po" v="seated"/><tag k="wc_guide_i" v="18373"/><tag k="Cluster_ID" v="37"/><tag k="xyz" v="1071_1329_11"/></node><node lat="47.184978" lon="8.396858"  id="-11"  changeset="false" ><tag k="id" v="18455"/><tag k="amenity" v="toilets"/><tag k="municipali" v="Sins"/><tag k="name" v="Shell Tankstelle"/><tag k="toilets_po" v="seated"/><tag k="wc_guide_i" v="18455"/><tag k="Cluster_ID" v="37"/><tag k="xyz" v="1071_1329_11"/></node><node lat="47.194782" lon="8.394583"  id="-12"  changeset="false" ><tag k="id" v="19265"/><tag k="amenity" v="toilets"/><tag k="municipali" v="Sins"/><tag k="name" v="Friedhof"/><tag k="toilets_po" v="seated"/><tag k="wc_guide_i" v="19265"/><tag k="Cluster_ID" v="37"/><tag k="xyz" v="1071_1329_11"/></node><node lat="47.210014" lon="8.367762"  id="-13"  changeset="false" ><tag k="id" v="19470"/><tag k="amenity" v="toilets"/><tag k="municipali" v="Auw"/><tag k="name" v="Friedhof"/><tag k="toilets_po" v="seated"/><tag k="wc_guide_i" v="19470"/><tag k="Cluster_ID" v="37"/><tag k="xyz" v="1071_1329_11"/></node><node lat="47.264549" lon="8.401452"  id="-14"  changeset="false" ><tag k="id" v="19493"/><tag k="amenity" v="toilets"/><tag k="municipali" v="Obfelden"/><tag k="name" v="ToiToi, Permanent. Parkplatz"/><tag k="toilets_po" v="seated"/><tag k="wc_guide_i" v="19493"/><tag k="Cluster_ID" v="28"/><tag k="xyz" v="1071_1329_11"/></node></osm>