<?xml version="1.0" encoding="UTF-8"?><osm version="0.6" generator="https://github.com/Rub21/geojson2osm"><node lat="47.578728" lon="9.166632"  id="-1"  changeset="false" ><tag k="id" v="2902"/><tag k="amenity" v="toilets"/><tag k="municipali" v="Berg"/><tag k="name" v="Agrola Tankstelle"/><tag k="toilets_po" v="seated"/><tag k="wc_guide_i" v="2902"/><tag k="Cluster_ID" v="8"/><tag k="xyz" v="1076_1332_11"/></node><node lat="47.608654" lon="9.292332"  id="-2"  changeset="false" ><tag k="id" v="4685"/><tag k="amenity" v="toilets"/><tag k="descriptio" v="Beim Bahnhof 1.00 CHF"/><tag k="municipali" v="G�ttingen"/><tag k="name" v="Bahnhof"/><tag k="toilets_po" v="seated"/><tag k="wc_guide_i" v="4685"/><tag k="Cluster_ID" v="8"/><tag k="xyz" v="1076_1332_11"/></node><node lat="47.551666" lon="9.303673"  id="-3"  changeset="false" ><tag k="id" v="20737"/><tag k="amenity" v="toilets"/><tag k="municipali" v="Amriswil"/><tag k="name" v="Spielplatz im Park"/><tag k="toilets_po" v="seated"/><tag k="wc_guide_i" v="20737"/><tag k="Cluster_ID" v="8"/><tag k="xyz" v="1076_1332_11"/></node></osm>