<?xml version="1.0" encoding="UTF-8"?><osm version="0.6" generator="https://github.com/Rub21/geojson2osm"><node lat="46.555538" lon="7.901573"  id="-1"  changeset="false" ><tag k="id" v="16614"/><tag k="amenity" v="toilets"/><tag k="descriptio" v="w�hrend der Betriebszeit"/><tag k="municipali" v="Lauterbrunnen"/><tag k="name" v="Talstation Schilthornbahn"/><tag k="toilets_po" v="seated"/><tag k="wc_guide_i" v="16614"/><tag k="website" v="https://schilthorn.ch/de/Infos/Anreise"/><tag k="Cluster_ID" v="33"/><tag k="xyz" v="1068_1323_11"/></node><node lat="46.547474" lon="7.893495"  id="-2"  changeset="false" ><tag k="id" v="18517"/><tag k="amenity" v="toilets"/><tag k="municipali" v="Gimmelwald"/><tag k="name" v="Gimmelwald, Schilthornbahn"/><tag k="toilets_po" v="seated"/><tag k="wc_guide_i" v="18517"/><tag k="Cluster_ID" v="33"/><tag k="xyz" v="1068_1323_11"/></node><node lat="46.546059" lon="7.902367"  id="-3"  changeset="false" ><tag k="id" v="18518"/><tag k="amenity" v="toilets"/><tag k="municipali" v="Lauterbrunnen"/><tag k="name" v="Postautohaltestelle R�tti"/><tag k="toilets_po" v="seated"/><tag k="wc_guide_i" v="18518"/><tag k="Cluster_ID" v="33"/><tag k="xyz" v="1068_1323_11"/></node></osm>