<?xml version="1.0" encoding="UTF-8"?><osm version="0.6" generator="https://github.com/Rub21/geojson2osm"><node lat="47.034153" lon="8.356048"  id="-1"  changeset="false" ><tag k="id" v="709"/><tag k="amenity" v="toilets"/><tag k="municipali" v="Meggen"/><tag k="name" v="Scheune Meggenhorn"/><tag k="toilets_po" v="seated"/><tag k="wc_guide_i" v="709"/><tag k="Cluster_ID" v="37"/><tag k="xyz" v="1071_1327_11"/></node><node lat="47.032433" lon="8.434657"  id="-2"  changeset="false" ><tag k="id" v="737"/><tag k="amenity" v="toilets"/><tag k="municipali" v="Weggis"/><tag k="name" v="Dorfschulhaus"/><tag k="toilets_po" v="seated"/><tag k="wc_guide_i" v="737"/><tag k="Cluster_ID" v="37"/><tag k="xyz" v="1071_1327_11"/></node><node lat="47.035122" lon="8.280344"  id="-3"  changeset="false" ><tag k="id" v="1024"/><tag k="amenity" v="toilets"/><tag k="descriptio" v="Nur an besonderen Anl�ssen ge�ffnet, ansonsten melde man sich im Gemeindehaus."/><tag k="municipali" v="Kriens"/><tag k="name" v="Parkplatz Gemeindehaus"/><tag k="toilets_po" v="seated"/><tag k="wc_guide_i" v="1024"/><tag k="Cluster_ID" v="37"/><tag k="xyz" v="1071_1327_11"/></node><node lat="47.013329" lon="8.30281"  id="-4"  changeset="false" ><tag k="id" v="1356"/><tag k="amenity" v="toilets"/><tag k="municipali" v="Horw"/><tag k="name" v="Spielplatz"/><tag k="toilets_po" v="seated"/><tag k="wc_guide_i" v="1356"/><tag k="Cluster_ID" v="37"/><tag k="xyz" v="1071_1327_11"/></node><node lat="47.01981" lon="8.312769"  id="-5"  changeset="false" ><tag k="id" v="1357"/><tag k="amenity" v="toilets"/><tag k="municipali" v="Horw"/><tag k="name" v="Pfarrkirche"/><tag k="toilets_po" v="seated"/><tag k="wc_guide_i" v="1357"/><tag k="Cluster_ID" v="37"/><tag k="xyz" v="1071_1327_11"/></node><node lat="47.030827" lon="8.282252"  id="-6"  changeset="false" ><tag k="id" v="1627"/><tag k="amenity" v="toilets"/><tag k="municipali" v="Kriens"/><tag k="name" v="Friedhof"/><tag k="toilets_po" v="seated"/><tag k="wc_guide_i" v="1627"/><tag k="Cluster_ID" v="37"/><tag k="xyz" v="1071_1327_11"/></node><node lat="46.985023" lon="8.414111"  id="-7"  changeset="false" ><tag k="id" v="1798"/><tag k="amenity" v="toilets"/><tag k="municipali" v="Ennetb�rgen"/><tag k="name" v="Dorfplatz"/><tag k="toilets_po" v="seated"/><tag k="wc_guide_i" v="1798"/><tag k="Cluster_ID" v="37"/><tag k="xyz" v="1071_1327_11"/></node><node lat="46.95726" lon="8.365339"  id="-8"  changeset="false" ><tag k="id" v="1799"/><tag k="amenity" v="toilets"/><tag k="municipali" v="Stans"/><tag k="name" v="Dorfplatz"/><tag k="toilets_po" v="seated"/><tag k="wc_guide_i" v="1799"/><tag k="Cluster_ID" v="37"/><tag k="xyz" v="1071_1327_11"/></node><node lat="46.982983" lon="8.347088"  id="-9"  changeset="false" ><tag k="id" v="2254"/><tag k="amenity" v="toilets"/><tag k="descriptio" v="�ffnungszeiten wie das Museum"/><tag k="municipali" v="Stansstad"/><tag k="name" v="Festungsmuseum F�rigen"/><tag k="toilets_po" v="seated"/><tag k="wc_guide_i" v="2254"/><tag k="website" v="http://www.nidwaldner-museum.ch/festung-fuerigen"/><tag k="Cluster_ID" v="37"/><tag k="xyz" v="1071_1327_11"/></node><node lat="47.000275" lon="8.365574"  id="-10"  changeset="false" ><tag k="id" v="2447"/><tag k="amenity" v="toilets"/><tag k="municipali" v="Kehrsiten"/><tag k="name" v="Schiffsstation Kehrsiten"/><tag k="toilets_po" v="seated"/><tag k="wc_guide_i" v="2447"/><tag k="Cluster_ID" v="37"/><tag k="xyz" v="1071_1327_11"/></node><node lat="46.982018" lon="8.343429"  id="-11"  changeset="false" ><tag k="id" v="2448"/><tag k="amenity" v="toilets"/><tag k="municipali" v="Stansstad"/><tag k="name" v="General Guisan Quai"/><tag k="toilets_po" v="seated"/><tag k="wc_guide_i" v="2448"/><tag k="Cluster_ID" v="37"/><tag k="xyz" v="1071_1327_11"/></node><node lat="46.978611" lon="8.333871"  id="-12"  changeset="false" ><tag k="id" v="2449"/><tag k="amenity" v="toilets"/><tag k="municipali" v="Stansstad"/><tag k="name" v="Voliere"/><tag k="toilets_po" v="seated"/><tag k="wc_guide_i" v="2449"/><tag k="Cluster_ID" v="37"/><tag k="xyz" v="1071_1327_11"/></node><node lat="46.965103" lon="8.355188"  id="-13"  changeset="false" ><tag k="id" v="2737"/><tag k="amenity" v="toilets"/><tag k="municipali" v="Stans"/><tag k="name" v="L�nderpark"/><tag k="toilets_po" v="seated"/><tag k="wc_guide_i" v="2737"/><tag k="Cluster_ID" v="37"/><tag k="xyz" v="1071_1327_11"/></node><node lat="46.977764" lon="8.340361"  id="-14"  changeset="false" ><tag k="id" v="3113"/><tag k="amenity" v="toilets"/><tag k="descriptio" v="Zwischen Kirche und �kumenischem Kirchgemeindehaus"/><tag k="municipali" v="Stansstad"/><tag k="name" v="Kirche"/><tag k="toilets_po" v="seated"/><tag k="wc_guide_i" v="3113"/><tag k="Cluster_ID" v="37"/><tag k="xyz" v="1071_1327_11"/></node><node lat="46.964836" lon="8.38266"  id="-15"  changeset="false" ><tag k="id" v="3144"/><tag k="amenity" v="toilets"/><tag k="municipali" v="Stans"/><tag k="name" v="Tankstelle"/><tag k="toilets_po" v="seated"/><tag k="wc_guide_i" v="3144"/><tag k="Cluster_ID" v="37"/><tag k="xyz" v="1071_1327_11"/></node><node lat="46.979202" lon="8.33969"  id="-16"  changeset="false" ><tag k="id" v="3280"/><tag k="amenity" v="toilets"/><tag k="descriptio" v="Befindet sich im kleinen H�uschen auf dem Kinderspielplatz hinter dem Primarschulhaus"/><tag k="municipali" v="Stansstad"/><tag k="name" v="Kinderspielplatz"/><tag k="toilets_po" v="seated"/><tag k="wc_guide_i" v="3280"/><tag k="Cluster_ID" v="37"/><tag k="xyz" v="1071_1327_11"/></node><node lat="46.985104" lon="8.311503"  id="-17"  changeset="false" ><tag k="id" v="3554"/><tag k="amenity" v="toilets"/><tag k="municipali" v="Hergiswil"/><tag k="name" v="Beim Schulhaus Dorf"/><tag k="toilets_po" v="seated"/><tag k="wc_guide_i" v="3554"/><tag k="Cluster_ID" v="37"/><tag k="xyz" v="1071_1327_11"/></node><node lat="46.985813" lon="8.417861"  id="-18"  changeset="false" ><tag k="id" v="3725"/><tag k="amenity" v="toilets"/><tag k="municipali" v="Ennetb�rgen"/><tag k="name" v="Seepl�tzli"/><tag k="toilets_po" v="seated"/><tag k="wc_guide_i" v="3725"/><tag k="Cluster_ID" v="37"/><tag k="xyz" v="1071_1327_11"/></node><node lat="46.993252" lon="8.40026"  id="-19"  changeset="false" ><tag k="id" v="3726"/><tag k="amenity" v="toilets"/><tag k="municipali" v="Ennetb�rgen"/><tag k="name" v="Honegg"/><tag k="toilets_po" v="seated"/><tag k="wc_guide_i" v="3726"/><tag k="Cluster_ID" v="37"/><tag k="xyz" v="1071_1327_11"/></node><node lat="47.034653" lon="8.282688"  id="-20"  changeset="false" ><tag k="id" v="4067"/><tag k="amenity" v="toilets"/><tag k="descriptio" v="Park-WC"/><tag k="municipali" v="Kriens"/><tag k="name" v="Bellpark"/><tag k="toilets_po" v="seated"/><tag k="wc_guide_i" v="4067"/><tag k="Cluster_ID" v="37"/><tag k="xyz" v="1071_1327_11"/></node><node lat="47.033146" lon="8.291019"  id="-21"  changeset="false" ><tag k="id" v="4345"/><tag k="amenity" v="toilets"/><tag k="municipali" v="Kriens"/><tag k="name" v="Pfarrei"/><tag k="toilets_po" v="seated"/><tag k="wc_guide_i" v="4345"/><tag k="Cluster_ID" v="37"/><tag k="xyz" v="1071_1327_11"/></node><node lat="46.924232" lon="8.389822"  id="-22"  changeset="false" ><tag k="id" v="4500"/><tag k="amenity" v="toilets"/><tag k="municipali" v="Dallenwil"/><tag k="name" v="Sigristenhaus"/><tag k="toilets_po" v="seated"/><tag k="wc_guide_i" v="4500"/><tag k="Cluster_ID" v="35"/><tag k="xyz" v="1071_1327_11"/></node><node lat="46.963139" lon="8.42205"  id="-23"  changeset="false" ><tag k="id" v="16382"/><tag k="amenity" v="toilets"/><tag k="municipali" v="Buochs"/><tag k="name" v="Gedeckte Grillstelle im Wald"/><tag k="toilets_po" v="seated"/><tag k="wc_guide_i" v="16382"/><tag k="Cluster_ID" v="37"/><tag k="xyz" v="1071_1327_11"/></node><node lat="47.037247" lon="8.2928"  id="-24"  changeset="false" ><tag k="id" v="16796"/><tag k="amenity" v="toilets"/><tag k="municipali" v="Kriens"/><tag k="name" v="Coop Tankstelle"/><tag k="toilets_po" v="seated"/><tag k="wc_guide_i" v="16796"/><tag k="Cluster_ID" v="37"/><tag k="xyz" v="1071_1327_11"/></node><node lat="47.033909" lon="8.27353"  id="-25"  changeset="false" ><tag k="id" v="16872"/><tag k="amenity" v="toilets"/><tag k="municipali" v="Kriens"/><tag k="name" v="Schappe-Center"/><tag k="toilets_po" v="seated"/><tag k="wc_guide_i" v="16872"/><tag k="website" v="http://www.schappe.ch/"/><tag k="Cluster_ID" v="37"/><tag k="xyz" v="1071_1327_11"/></node><node lat="46.925152" lon="8.28903"  id="-26"  changeset="false" ><tag k="id" v="16884"/><tag k="amenity" v="toilets"/><tag k="municipali" v="Kerns"/><tag k="name" v="Erlebnisparcour Kernwald"/><tag k="toilets_po" v="seated"/><tag k="wc_guide_i" v="16884"/><tag k="Cluster_ID" v="35"/><tag k="xyz" v="1071_1327_11"/></node><node lat="47.012867" lon="8.320267"  id="-27"  changeset="false" ><tag k="id" v="18295"/><tag k="amenity" v="toilets"/><tag k="descriptio" v="Schmale T�r neben dem Haupteingang"/><tag k="municipali" v="Luzern"/><tag k="name" v="Berg Sion"/><tag k="toilets_po" v="seated"/><tag k="wc_guide_i" v="18295"/><tag k="Cluster_ID" v="37"/><tag k="xyz" v="1071_1327_11"/></node><node lat="47.036419" lon="8.303233"  id="-28"  changeset="false" ><tag k="id" v="18545"/><tag k="amenity" v="toilets"/><tag k="name" v="Haltestelle Almend/Messe"/><tag k="toilets_po" v="seated"/><tag k="wc_guide_i" v="18545"/><tag k="Cluster_ID" v="37"/><tag k="xyz" v="1071_1327_11"/></node><node lat="47.032185" lon="8.428719"  id="-29"  changeset="false" ><tag k="id" v="19148"/><tag k="amenity" v="toilets"/><tag k="municipali" v="Weggis"/><tag k="name" v="Gemeindehaus Seiteneingang"/><tag k="toilets_po" v="seated"/><tag k="wc_guide_i" v="19148"/><tag k="Cluster_ID" v="37"/><tag k="xyz" v="1071_1327_11"/></node><node lat="46.956039" lon="8.370049"  id="-30"  changeset="false" ><tag k="id" v="19719"/><tag k="amenity" v="toilets"/><tag k="municipali" v="6370 Stans"/><tag k="name" v="Kolegium Sportplatz"/><tag k="toilets_po" v="seated"/><tag k="wc_guide_i" v="19719"/><tag k="Cluster_ID" v="37"/><tag k="xyz" v="1071_1327_11"/></node><node lat="46.964542" lon="8.385435"  id="-31"  changeset="false" ><tag k="id" v="20073"/><tag k="amenity" v="toilets"/><tag k="municipali" v="Stans"/><tag k="name" v="Strassenverkehrsamt Nidwalden"/><tag k="toilets_po" v="seated"/><tag k="wc_guide_i" v="20073"/><tag k="Cluster_ID" v="37"/><tag k="xyz" v="1071_1327_11"/></node><node lat="46.98283" lon="8.312074"  id="-32"  changeset="false" ><tag k="id" v="20727"/><tag k="amenity" v="toilets"/><tag k="descriptio" v="Am See"/><tag k="municipali" v="Hergiswil"/><tag k="name" v="Glasipark"/><tag k="toilets_po" v="seated"/><tag k="wc_guide_i" v="20727"/><tag k="Cluster_ID" v="37"/><tag k="xyz" v="1071_1327_11"/></node><node lat="47.039783" lon="8.32335"  id="-33"  changeset="false" ><tag k="id" v="21054"/><tag k="amenity" v="toilets"/><tag k="descriptio" v="Neben Velobude"/><tag k="municipali" v="Luzern"/><tag k="name" v="Kirchgemeindehaus"/><tag k="toilets_po" v="seated"/><tag k="wc_guide_i" v="21054"/><tag k="Cluster_ID" v="37"/><tag k="xyz" v="1071_1327_11"/></node><node lat="47.024643" lon="8.298608"  id="-34"  changeset="false" ><tag k="id" v="21083"/><tag k="amenity" v="toilets"/><tag k="municipali" v="Kriens"/><tag k="name" v="Lumimart 2.OG"/><tag k="toilets_po" v="seated"/><tag k="wc_guide_i" v="21083"/><tag k="Cluster_ID" v="37"/><tag k="xyz" v="1071_1327_11"/></node></osm>