<?xml version="1.0" encoding="UTF-8"?><osm version="0.6" generator="https://github.com/Rub21/geojson2osm"><node lat="46.210228" lon="6.142377"  id="-1"  changeset="false" ><tag k="id" v="385"/><tag k="amenity" v="toilets"/><tag k="municipali" v="Genf"/><tag k="toilets_po" v="seated"/><tag k="wc_guide_i" v="385"/><tag k="Cluster_ID" v="45"/><tag k="xyz" v="1058_1321_11"/></node><node lat="46.227009" lon="6.081841"  id="-2"  changeset="false" ><tag k="id" v="2733"/><tag k="amenity" v="toilets"/><tag k="municipali" v="Meyrin"/><tag k="name" v="Jardin Alpin"/><tag k="toilets_po" v="seated"/><tag k="wc_guide_i" v="2733"/><tag k="Cluster_ID" v="45"/><tag k="xyz" v="1058_1321_11"/></node><node lat="46.22768" lon="6.147194"  id="-3"  changeset="false" ><tag k="id" v="3595"/><tag k="amenity" v="toilets"/><tag k="municipali" v="Pregny-Chamb�sy"/><tag k="name" v="Terre de Pregny - Conservatoire et Jardin Botanique"/><tag k="toilets_po" v="seated"/><tag k="wc_guide_i" v="3595"/><tag k="Cluster_ID" v="45"/><tag k="xyz" v="1058_1321_11"/></node><node lat="46.199451" lon="6.147968"  id="-4"  changeset="false" ><tag k="id" v="3598"/><tag k="amenity" v="toilets"/><tag k="municipali" v="Gen�ve"/><tag k="name" v="Treille"/><tag k="toilets_po" v="seated"/><tag k="wc_guide_i" v="3598"/><tag k="Cluster_ID" v="45"/><tag k="xyz" v="1058_1321_11"/></node><node lat="46.207985" lon="6.146175"  id="-5"  changeset="false" ><tag k="id" v="3904"/><tag k="amenity" v="toilets"/><tag k="municipali" v="Gen�ve"/><tag k="toilets_po" v="seated"/><tag k="wc_guide_i" v="3904"/><tag k="Cluster_ID" v="45"/><tag k="xyz" v="1058_1321_11"/></node><node lat="46.198837" lon="6.123977"  id="-6"  changeset="false" ><tag k="id" v="4087"/><tag k="amenity" v="toilets"/><tag k="municipali" v="Gen�ve"/><tag k="name" v="Parc Du Bois De La Batie"/><tag k="toilets_po" v="seated"/><tag k="wc_guide_i" v="4087"/><tag k="Cluster_ID" v="45"/><tag k="xyz" v="1058_1321_11"/></node><node lat="46.21999" lon="6.001711"  id="-7"  changeset="false" ><tag k="id" v="4106"/><tag k="amenity" v="toilets"/><tag k="municipali" v="Satigny"/><tag k="name" v="Rte de lAllondon"/><tag k="toilets_po" v="seated"/><tag k="wc_guide_i" v="4106"/><tag k="Cluster_ID" v="45"/><tag k="xyz" v="1058_1321_11"/></node><node lat="46.217464" lon="5.9939"  id="-8"  changeset="false" ><tag k="id" v="4107"/><tag k="amenity" v="toilets"/><tag k="municipali" v="Dardagny"/><tag k="toilets_po" v="seated"/><tag k="wc_guide_i" v="4107"/><tag k="Cluster_ID" v="45"/><tag k="xyz" v="1058_1321_11"/></node><node lat="46.251907" lon="6.105781"  id="-9"  changeset="false" ><tag k="id" v="4143"/><tag k="amenity" v="toilets"/><tag k="municipali" v="Ferney-Voltaire"/><tag k="name" v="Centre Commercial E. Leclerc"/><tag k="toilets_po" v="seated"/><tag k="wc_guide_i" v="4143"/><tag k="Cluster_ID" v="45"/><tag k="xyz" v="1058_1321_11"/></node><node lat="46.219082" lon="6.126935"  id="-10"  changeset="false" ><tag k="id" v="4293"/><tag k="amenity" v="toilets"/><tag k="municipali" v="Gen�ve"/><tag k="name" v="Parc de la Paix"/><tag k="toilets_po" v="seated"/><tag k="wc_guide_i" v="4293"/><tag k="Cluster_ID" v="45"/><tag k="xyz" v="1058_1321_11"/></node><node lat="46.237862" lon="6.141315"  id="-11"  changeset="false" ><tag k="id" v="4296"/><tag k="amenity" v="toilets"/><tag k="municipali" v="Pregny-Chamb�sy"/><tag k="name" v="Salle Polyvalente, Pregny"/><tag k="toilets_po" v="seated"/><tag k="wc_guide_i" v="4296"/><tag k="Cluster_ID" v="45"/><tag k="xyz" v="1058_1321_11"/></node><node lat="46.243336" lon="6.027991"  id="-12"  changeset="false" ><tag k="id" v="16373"/><tag k="amenity" v="toilets"/><tag k="municipali" v="Saint-Genis-Pouilly"/><tag k="toilets_po" v="seated"/><tag k="wc_guide_i" v="16373"/><tag k="Cluster_ID" v="45"/><tag k="xyz" v="1058_1321_11"/></node><node lat="46.209835" lon="6.147194"  id="-13"  changeset="false" ><tag k="id" v="16402"/><tag k="amenity" v="toilets"/><tag k="descriptio" v="WC Dorci�re temporaires"/><tag k="municipali" v="Genf"/><tag k="toilets_po" v="seated"/><tag k="wc_guide_i" v="16402"/><tag k="Cluster_ID" v="45"/><tag k="xyz" v="1058_1321_11"/></node><node lat="46.209671" lon="6.146037"  id="-14"  changeset="false" ><tag k="id" v="16528"/><tag k="amenity" v="toilets"/><tag k="municipali" v="Genf"/><tag k="name" v="Tamoil Tankstelle"/><tag k="toilets_po" v="seated"/><tag k="wc_guide_i" v="16528"/><tag k="Cluster_ID" v="45"/><tag k="xyz" v="1058_1321_11"/></node><node lat="46.215294" lon="6.111493"  id="-15"  changeset="false" ><tag k="id" v="18653"/><tag k="amenity" v="toilets"/><tag k="municipali" v="Ch�telaine"/><tag k="name" v="Park"/><tag k="toilets_po" v="seated"/><tag k="wc_guide_i" v="18653"/><tag k="Cluster_ID" v="45"/><tag k="xyz" v="1058_1321_11"/></node><node lat="46.224396" lon="6.10095"  id="-16"  changeset="false" ><tag k="id" v="18898"/><tag k="amenity" v="toilets"/><tag k="municipali" v="Cointrin"/><tag k="name" v="Office Building"/><tag k="toilets_po" v="seated"/><tag k="wc_guide_i" v="18898"/><tag k="Cluster_ID" v="45"/><tag k="xyz" v="1058_1321_11"/></node><node lat="46.199158" lon="6.143954"  id="-17"  changeset="false" ><tag k="id" v="19417"/><tag k="amenity" v="toilets"/><tag k="municipali" v="Gen�ve"/><tag k="toilets_po" v="seated"/><tag k="wc_guide_i" v="19417"/><tag k="Cluster_ID" v="45"/><tag k="xyz" v="1058_1321_11"/></node><node lat="46.208366" lon="6.118279"  id="-18"  changeset="false" ><tag k="id" v="19564"/><tag k="amenity" v="toilets"/><tag k="municipali" v="Gen�ve"/><tag k="name" v="Parc Hentsch"/><tag k="toilets_po" v="seated"/><tag k="wc_guide_i" v="19564"/><tag k="Cluster_ID" v="45"/><tag k="xyz" v="1058_1321_11"/></node><node lat="46.2309" lon="6.149682"  id="-19"  changeset="false" ><tag k="id" v="19760"/><tag k="amenity" v="toilets"/><tag k="municipali" v="Chamb�sy"/><tag k="name" v="Repausoir"/><tag k="toilets_po" v="seated"/><tag k="wc_guide_i" v="19760"/><tag k="Cluster_ID" v="45"/><tag k="xyz" v="1058_1321_11"/></node><node lat="46.195339" lon="6.139507"  id="-20"  changeset="false" ><tag k="id" v="19991"/><tag k="amenity" v="toilets"/><tag k="municipali" v="Gen�ve"/><tag k="name" v="Parc Baud Bovy / rue Patru"/><tag k="toilets_po" v="seated"/><tag k="wc_guide_i" v="19991"/><tag k="Cluster_ID" v="45"/><tag k="xyz" v="1058_1321_11"/></node></osm>