<?xml version="1.0" encoding="UTF-8"?><osm version="0.6" generator="https://github.com/Rub21/geojson2osm"><node lat="47.494202" lon="7.593409"  id="-1"  changeset="false" ><tag k="id" v="272"/><tag k="amenity" v="toilets"/><tag k="municipali" v="Reinach"/><tag k="name" v="Friedhof"/><tag k="toilets_po" v="seated"/><tag k="wc_guide_i" v="272"/><tag k="Cluster_ID" v="41"/><tag k="xyz" v="1067_1331_11"/></node><node lat="47.494297" lon="7.619169"  id="-2"  changeset="false" ><tag k="id" v="475"/><tag k="amenity" v="toilets"/><tag k="municipali" v="Arlesheim"/><tag k="toilets_po" v="seated"/><tag k="wc_guide_i" v="475"/><tag k="Cluster_ID" v="41"/><tag k="xyz" v="1067_1331_11"/></node><node lat="47.492451" lon="7.590823"  id="-3"  changeset="false" ><tag k="id" v="477"/><tag k="amenity" v="toilets"/><tag k="municipali" v="Reinach BL"/><tag k="toilets_po" v="seated"/><tag k="wc_guide_i" v="477"/><tag k="Cluster_ID" v="41"/><tag k="xyz" v="1067_1331_11"/></node><node lat="47.490238" lon="7.584847"  id="-4"  changeset="false" ><tag k="id" v="478"/><tag k="amenity" v="toilets"/><tag k="municipali" v="Reinach BL"/><tag k="toilets_po" v="seated"/><tag k="wc_guide_i" v="478"/><tag k="Cluster_ID" v="41"/><tag k="xyz" v="1067_1331_11"/></node><node lat="47.484818" lon="7.733276"  id="-5"  changeset="false" ><tag k="id" v="560"/><tag k="amenity" v="toilets"/><tag k="descriptio" v="Ziemlich alt"/><tag k="municipali" v="Liestal"/><tag k="toilets_po" v="seated"/><tag k="wc_guide_i" v="560"/><tag k="Cluster_ID" v="41"/><tag k="xyz" v="1067_1331_11"/></node><node lat="47.484409" lon="7.731028"  id="-6"  changeset="false" ><tag k="id" v="1154"/><tag k="amenity" v="toilets"/><tag k="municipali" v="Liestal"/><tag k="name" v="Bahnhof"/><tag k="toilets_po" v="seated"/><tag k="wc_guide_i" v="1154"/><tag k="Cluster_ID" v="41"/><tag k="xyz" v="1067_1331_11"/></node><node lat="47.488503" lon="7.61101"  id="-7"  changeset="false" ><tag k="id" v="1649"/><tag k="amenity" v="toilets"/><tag k="descriptio" v="Oft geschlossen."/><tag k="municipali" v="Dornach"/><tag k="name" v="Bahnhof"/><tag k="toilets_po" v="seated"/><tag k="wc_guide_i" v="1649"/><tag k="Cluster_ID" v="41"/><tag k="xyz" v="1067_1331_11"/></node><node lat="47.501316" lon="7.719462"  id="-8"  changeset="false" ><tag k="id" v="1936"/><tag k="amenity" v="toilets"/><tag k="descriptio" v="mit Parkplatz"/><tag k="municipali" v="Frenkendorf"/><tag k="name" v="Bahnhof"/><tag k="toilets_po" v="seated"/><tag k="wc_guide_i" v="1936"/><tag k="Cluster_ID" v="41"/><tag k="xyz" v="1067_1331_11"/></node><node lat="47.469467" lon="7.59691"  id="-9"  changeset="false" ><tag k="id" v="2124"/><tag k="amenity" v="toilets"/><tag k="municipali" v="Aesch"/><tag k="name" v="Tramschlaufe"/><tag k="toilets_po" v="seated"/><tag k="wc_guide_i" v="2124"/><tag k="Cluster_ID" v="41"/><tag k="xyz" v="1067_1331_11"/></node><node lat="47.50227" lon="7.596796"  id="-10"  changeset="false" ><tag k="id" v="3444"/><tag k="amenity" v="toilets"/><tag k="municipali" v="Reinach"/><tag k="name" v="Mischeli Zentrum"/><tag k="toilets_po" v="seated"/><tag k="wc_guide_i" v="3444"/><tag k="Cluster_ID" v="41"/><tag k="xyz" v="1067_1331_11"/></node><node lat="47.513447" lon="7.61325"  id="-11"  changeset="false" ><tag k="id" v="4332"/><tag k="amenity" v="toilets"/><tag k="municipali" v="M�nchenstein"/><tag k="name" v="Sportplatz"/><tag k="toilets_po" v="seated"/><tag k="wc_guide_i" v="4332"/><tag k="Cluster_ID" v="41"/><tag k="xyz" v="1067_1331_11"/></node><node lat="47.478649" lon="7.617064"  id="-12"  changeset="false" ><tag k="id" v="16773"/><tag k="amenity" v="toilets"/><tag k="municipali" v="Dornach"/><tag k="name" v="Gemeindeverwaltung"/><tag k="toilets_po" v="seated"/><tag k="wc_guide_i" v="16773"/><tag k="Cluster_ID" v="41"/><tag k="xyz" v="1067_1331_11"/></node><node lat="47.512993" lon="7.559206"  id="-13"  changeset="false" ><tag k="id" v="18132"/><tag k="amenity" v="toilets"/><tag k="municipali" v="Oberwil (BL)"/><tag k="toilets_po" v="seated"/><tag k="wc_guide_i" v="18132"/><tag k="Cluster_ID" v="41"/><tag k="xyz" v="1067_1331_11"/></node><node lat="47.474918" lon="7.616229"  id="-14"  changeset="false" ><tag k="id" v="20179"/><tag k="amenity" v="toilets"/><tag k="municipali" v="Dornach"/><tag k="name" v="Sportplatz"/><tag k="toilets_po" v="seated"/><tag k="wc_guide_i" v="20179"/><tag k="Cluster_ID" v="41"/><tag k="xyz" v="1067_1331_11"/></node><node lat="47.446243" lon="7.695185"  id="-15"  changeset="false" ><tag k="id" v="20290"/><tag k="amenity" v="toilets"/><tag k="descriptio" v="meist zu B�rozeiten begehbar"/><tag k="municipali" v="Lupsingen"/><tag k="name" v="Gemeindezentrum"/><tag k="toilets_po" v="seated"/><tag k="wc_guide_i" v="20290"/><tag k="website" v="https://www.lupsingen.ch/"/><tag k="Cluster_ID" v="41"/><tag k="xyz" v="1067_1331_11"/></node></osm>