<?xml version="1.0" encoding="UTF-8"?><osm version="0.6" generator="https://github.com/Rub21/geojson2osm"><node lat="47.102699" lon="6.829192"  id="-1"  changeset="false" ><tag k="id" v="1402"/><tag k="amenity" v="toilets"/><tag k="municipali" v="La Chaux-de-Fonds"/><tag k="name" v="Wc Public"/><tag k="toilets_po" v="seated"/><tag k="wc_guide_i" v="1402"/><tag k="Cluster_ID" v="23"/><tag k="xyz" v="1062_1328_11"/></node><node lat="47.065063" lon="6.749125"  id="-2"  changeset="false" ><tag k="id" v="2233"/><tag k="amenity" v="toilets"/><tag k="municipali" v="Le Locle"/><tag k="name" v="Beim Uhrenmuseum"/><tag k="toilets_po" v="seated"/><tag k="wc_guide_i" v="2233"/><tag k="Cluster_ID" v="23"/><tag k="xyz" v="1062_1328_11"/></node><node lat="47.106712" lon="6.836715"  id="-3"  changeset="false" ><tag k="id" v="4006"/><tag k="amenity" v="toilets"/><tag k="municipali" v="La Chaux-de-Fonds"/><tag k="name" v="Place Des Forains"/><tag k="toilets_po" v="seated"/><tag k="wc_guide_i" v="4006"/><tag k="Cluster_ID" v="23"/><tag k="xyz" v="1062_1328_11"/></node><node lat="47.098942" lon="6.824913"  id="-4"  changeset="false" ><tag k="id" v="4055"/><tag k="amenity" v="toilets"/><tag k="municipali" v="La Chaux-de-Fonds"/><tag k="name" v="Chaux-de-Fonds, gare"/><tag k="toilets_po" v="seated"/><tag k="wc_guide_i" v="4055"/><tag k="Cluster_ID" v="23"/><tag k="xyz" v="1062_1328_11"/></node><node lat="47.096607" lon="6.82925"  id="-5"  changeset="false" ><tag k="id" v="4593"/><tag k="amenity" v="toilets"/><tag k="municipali" v="La Chaux-de-Fonds"/><tag k="name" v="Reuse"/><tag k="toilets_po" v="seated"/><tag k="wc_guide_i" v="4593"/><tag k="Cluster_ID" v="23"/><tag k="xyz" v="1062_1328_11"/></node><node lat="47.100937" lon="6.830375"  id="-6"  changeset="false" ><tag k="id" v="18313"/><tag k="amenity" v="toilets"/><tag k="municipali" v="La Chaux-de-Fonds"/><tag k="name" v="Parc des Mus�es"/><tag k="toilets_po" v="seated"/><tag k="wc_guide_i" v="18313"/><tag k="Cluster_ID" v="23"/><tag k="xyz" v="1062_1328_11"/></node><node lat="47.05035" lon="6.738233"  id="-7"  changeset="false" ><tag k="id" v="18339"/><tag k="amenity" v="toilets"/><tag k="municipali" v="Le Locle"/><tag k="toilets_po" v="seated"/><tag k="wc_guide_i" v="18339"/><tag k="Cluster_ID" v="23"/><tag k="xyz" v="1062_1328_11"/></node><node lat="47.056183" lon="6.747448"  id="-8"  changeset="false" ><tag k="id" v="19537"/><tag k="amenity" v="toilets"/><tag k="municipali" v="Le Locle"/><tag k="name" v="Centre Commercial"/><tag k="toilets_po" v="seated"/><tag k="wc_guide_i" v="19537"/><tag k="Cluster_ID" v="23"/><tag k="xyz" v="1062_1328_11"/></node><node lat="47.051788" lon="6.761178"  id="-9"  changeset="false" ><tag k="id" v="20002"/><tag k="amenity" v="toilets"/><tag k="municipali" v="Le Locle"/><tag k="name" v="Camping Le Locle"/><tag k="toilets_po" v="seated"/><tag k="wc_guide_i" v="20002"/><tag k="Cluster_ID" v="23"/><tag k="xyz" v="1062_1328_11"/></node></osm>