<?xml version="1.0" encoding="UTF-8"?><osm version="0.6" generator="https://github.com/Rub21/geojson2osm"><node lat="46.82069" lon="7.341979"  id="-1"  changeset="false" ><tag k="id" v="1518"/><tag k="amenity" v="toilets"/><tag k="municipali" v="Schwarzenburg"/><tag k="name" v="Feuerwehrmagazin"/><tag k="toilets_po" v="seated"/><tag k="wc_guide_i" v="1518"/><tag k="Cluster_ID" v="0"/><tag k="xyz" v="1065_1326_11"/></node><node lat="46.82708" lon="7.299986"  id="-2"  changeset="false" ><tag k="id" v="2842"/><tag k="amenity" v="toilets"/><tag k="municipali" v="Heitenried"/><tag k="name" v="Heitenried"/><tag k="toilets_po" v="seated"/><tag k="wc_guide_i" v="2842"/><tag k="Cluster_ID" v="4"/><tag k="xyz" v="1065_1326_11"/></node><node lat="46.85664" lon="7.249324"  id="-3"  changeset="false" ><tag k="id" v="3559"/><tag k="amenity" v="toilets"/><tag k="municipali" v="Schmitten"/><tag k="toilets_po" v="seated"/><tag k="wc_guide_i" v="3559"/><tag k="Cluster_ID" v="4"/><tag k="xyz" v="1065_1326_11"/></node><node lat="46.855507" lon="7.248937"  id="-4"  changeset="false" ><tag k="id" v="3685"/><tag k="amenity" v="toilets"/><tag k="municipali" v="Schmitten"/><tag k="toilets_po" v="seated"/><tag k="wc_guide_i" v="3685"/><tag k="Cluster_ID" v="4"/><tag k="xyz" v="1065_1326_11"/></node><node lat="46.874634" lon="7.27623"  id="-5"  changeset="false" ><tag k="id" v="18287"/><tag k="amenity" v="toilets"/><tag k="municipali" v="W�nnewil-Flamatt"/><tag k="name" v="Gemeindehaus"/><tag k="toilets_po" v="seated"/><tag k="wc_guide_i" v="18287"/><tag k="Cluster_ID" v="4"/><tag k="xyz" v="1065_1326_11"/></node><node lat="46.822224" lon="7.260542"  id="-6"  changeset="false" ><tag k="id" v="18565"/><tag k="amenity" v="toilets"/><tag k="municipali" v="Sankt Antoni"/><tag k="name" v="Gemeindehaus/ Bushaltestelle"/><tag k="toilets_po" v="seated"/><tag k="wc_guide_i" v="18565"/><tag k="Cluster_ID" v="4"/><tag k="xyz" v="1065_1326_11"/></node><node lat="46.821815" lon="7.260491"  id="-7"  changeset="false" ><tag k="id" v="18753"/><tag k="amenity" v="toilets"/><tag k="municipali" v="Sankt Antoni"/><tag k="name" v="Nette Toilette"/><tag k="toilets_po" v="seated"/><tag k="wc_guide_i" v="18753"/><tag k="Cluster_ID" v="4"/><tag k="xyz" v="1065_1326_11"/></node><node lat="46.893448" lon="7.302041"  id="-8"  changeset="false" ><tag k="id" v="18992"/><tag k="amenity" v="toilets"/><tag k="municipali" v="Neuenegg"/><tag k="name" v="Gemeinde"/><tag k="toilets_po" v="seated"/><tag k="wc_guide_i" v="18992"/><tag k="Cluster_ID" v="4"/><tag k="xyz" v="1065_1326_11"/></node><node lat="46.894585" lon="7.3025"  id="-9"  changeset="false" ><tag k="id" v="20681"/><tag k="amenity" v="toilets"/><tag k="municipali" v="Neuenegg"/><tag k="toilets_po" v="seated"/><tag k="wc_guide_i" v="20681"/><tag k="Cluster_ID" v="4"/><tag k="xyz" v="1065_1326_11"/></node></osm>