<?xml version="1.0" encoding="UTF-8"?><osm version="0.6" generator="https://github.com/Rub21/geojson2osm"><node lat="47.304577" lon="8.198397"  id="-1"  changeset="false" ><tag k="id" v="1053"/><tag k="amenity" v="toilets"/><tag k="descriptio" v="Im Freibad Boniswil. Nur f�r Badibenutzer."/><tag k="municipali" v="Boniswil"/><tag k="name" v="Baditoilette"/><tag k="toilets_po" v="seated"/><tag k="wc_guide_i" v="1053"/><tag k="Cluster_ID" v="46"/><tag k="xyz" v="1070_1330_11"/></node><node lat="47.391232" lon="8.169622"  id="-2"  changeset="false" ><tag k="id" v="1676"/><tag k="amenity" v="toilets"/><tag k="descriptio" v="Unterf�hrung"/><tag k="municipali" v="Lenzburg"/><tag k="name" v="Bahnhof"/><tag k="toilets_po" v="seated"/><tag k="wc_guide_i" v="1676"/><tag k="Cluster_ID" v="28"/><tag k="xyz" v="1070_1330_11"/></node><node lat="47.380951" lon="8.162756"  id="-3"  changeset="false" ><tag k="id" v="2930"/><tag k="amenity" v="toilets"/><tag k="descriptio" v="Ref. Kirche Staufen (auf Staufberg)"/><tag k="municipali" v="Staufen"/><tag k="toilets_po" v="seated"/><tag k="wc_guide_i" v="2930"/><tag k="Cluster_ID" v="28"/><tag k="xyz" v="1070_1330_11"/></node><node lat="47.313705" lon="8.252162"  id="-4"  changeset="false" ><tag k="id" v="3347"/><tag k="amenity" v="toilets"/><tag k="municipali" v="Sarmenstorf"/><tag k="name" v="Friedhof"/><tag k="toilets_po" v="seated"/><tag k="wc_guide_i" v="3347"/><tag k="Cluster_ID" v="28"/><tag k="xyz" v="1070_1330_11"/></node><node lat="47.384186" lon="8.120281"  id="-5"  changeset="false" ><tag k="id" v="16861"/><tag k="amenity" v="toilets"/><tag k="municipali" v="Hunzenschwil"/><tag k="name" v="Friedhof"/><tag k="toilets_po" v="seated"/><tag k="wc_guide_i" v="16861"/><tag k="Cluster_ID" v="28"/><tag k="xyz" v="1070_1330_11"/></node><node lat="47.319077" lon="8.204142"  id="-6"  changeset="false" ><tag k="id" v="18251"/><tag k="amenity" v="toilets"/><tag k="municipali" v="Seengen"/><tag k="name" v="Frauenbad"/><tag k="toilets_po" v="seated"/><tag k="wc_guide_i" v="18251"/><tag k="Cluster_ID" v="28"/><tag k="xyz" v="1070_1330_11"/></node><node lat="47.308784" lon="8.247532"  id="-7"  changeset="false" ><tag k="id" v="18361"/><tag k="amenity" v="toilets"/><tag k="municipali" v="Sarmenstorf"/><tag k="toilets_po" v="seated"/><tag k="wc_guide_i" v="18361"/><tag k="Cluster_ID" v="28"/><tag k="xyz" v="1070_1330_11"/></node><node lat="47.346397" lon="8.158812"  id="-8"  changeset="false" ><tag k="id" v="18407"/><tag k="amenity" v="toilets"/><tag k="descriptio" v="Schl�ssel Bei Kebap Laden"/><tag k="municipali" v="Seon"/><tag k="name" v="Bahnhof Schl�ssel Kebap"/><tag k="toilets_po" v="seated"/><tag k="wc_guide_i" v="18407"/><tag k="Cluster_ID" v="28"/><tag k="xyz" v="1070_1330_11"/></node><node lat="47.355042" lon="8.101167"  id="-9"  changeset="false" ><tag k="id" v="18673"/><tag k="amenity" v="toilets"/><tag k="municipali" v="Gr�nichen"/><tag k="name" v="Friedhof"/><tag k="toilets_po" v="seated"/><tag k="wc_guide_i" v="18673"/><tag k="Cluster_ID" v="28"/><tag k="xyz" v="1070_1330_11"/></node><node lat="47.367062" lon="8.229959"  id="-10"  changeset="false" ><tag k="id" v="18684"/><tag k="amenity" v="toilets"/><tag k="municipali" v="Dintikon"/><tag k="toilets_po" v="seated"/><tag k="wc_guide_i" v="18684"/><tag k="Cluster_ID" v="28"/><tag k="xyz" v="1070_1330_11"/></node><node lat="47.362331" lon="8.230416"  id="-11"  changeset="false" ><tag k="id" v="18756"/><tag k="amenity" v="toilets"/><tag k="municipali" v="Dintikon"/><tag k="name" v="Friedhof dintikon"/><tag k="toilets_po" v="seated"/><tag k="wc_guide_i" v="18756"/><tag k="Cluster_ID" v="28"/><tag k="xyz" v="1070_1330_11"/></node><node lat="47.345394" lon="8.243577"  id="-12"  changeset="false" ><tag k="id" v="19023"/><tag k="amenity" v="toilets"/><tag k="descriptio" v="Friedhof"/><tag k="municipali" v="Villmergen"/><tag k="toilets_po" v="seated"/><tag k="wc_guide_i" v="19023"/><tag k="Cluster_ID" v="28"/><tag k="xyz" v="1070_1330_11"/></node><node lat="47.352814" lon="8.253885"  id="-13"  changeset="false" ><tag k="id" v="19110"/><tag k="amenity" v="toilets"/><tag k="municipali" v="Villmergen"/><tag k="name" v="Tankstelle"/><tag k="toilets_po" v="seated"/><tag k="wc_guide_i" v="19110"/><tag k="Cluster_ID" v="28"/><tag k="xyz" v="1070_1330_11"/></node><node lat="47.320126" lon="8.212335"  id="-14"  changeset="false" ><tag k="id" v="19412"/><tag k="amenity" v="toilets"/><tag k="municipali" v="Seengen"/><tag k="toilets_po" v="urinal"/><tag k="wc_guide_i" v="19412"/><tag k="Cluster_ID" v="28"/><tag k="xyz" v="1070_1330_11"/></node><node lat="47.347015" lon="8.24495"  id="-15"  changeset="false" ><tag k="id" v="20137"/><tag k="amenity" v="toilets"/><tag k="municipali" v="Villmergen"/><tag k="name" v="Dorfplatz"/><tag k="toilets_po" v="seated"/><tag k="wc_guide_i" v="20137"/><tag k="Cluster_ID" v="28"/><tag k="xyz" v="1070_1330_11"/></node><node lat="47.291473" lon="8.197807"  id="-16"  changeset="false" ><tag k="id" v="20215"/><tag k="amenity" v="toilets"/><tag k="municipali" v="Birrwil"/><tag k="name" v="Friedhof"/><tag k="toilets_po" v="seated"/><tag k="wc_guide_i" v="20215"/><tag k="Cluster_ID" v="28"/><tag k="xyz" v="1070_1330_11"/></node><node lat="47.383457" lon="8.179049"  id="-17"  changeset="false" ><tag k="id" v="20444"/><tag k="amenity" v="toilets"/><tag k="municipali" v="Lenzburg"/><tag k="name" v="Friedhof"/><tag k="toilets_po" v="seated"/><tag k="wc_guide_i" v="20444"/><tag k="Cluster_ID" v="28"/><tag k="xyz" v="1070_1330_11"/></node><node lat="47.32132" lon="8.197033"  id="-18"  changeset="false" ><tag k="id" v="20472"/><tag k="amenity" v="toilets"/><tag k="descriptio" v="Mobile Toilette"/><tag k="municipali" v="Seengen"/><tag k="name" v="Badi Naturschutzgebiet Ried"/><tag k="toilets_po" v="seated"/><tag k="wc_guide_i" v="20472"/><tag k="Cluster_ID" v="28"/><tag k="xyz" v="1070_1330_11"/></node><node lat="47.314236" lon="8.212694"  id="-19"  changeset="false" ><tag k="id" v="20475"/><tag k="amenity" v="toilets"/><tag k="descriptio" v="Mobile Toilette"/><tag k="municipali" v="Seengen"/><tag k="name" v="Badeplatz"/><tag k="toilets_po" v="seated"/><tag k="wc_guide_i" v="20475"/><tag k="Cluster_ID" v="28"/><tag k="xyz" v="1070_1330_11"/></node><node lat="47.361549" lon="8.098829"  id="-20"  changeset="false" ><tag k="id" v="21100"/><tag k="amenity" v="toilets"/><tag k="municipali" v="Gr�nichen"/><tag k="name" v="Bahnhof Gr�nichen"/><tag k="toilets_po" v="seated"/><tag k="wc_guide_i" v="21100"/><tag k="Cluster_ID" v="28"/><tag k="xyz" v="1070_1330_11"/></node></osm>