<?xml version="1.0" encoding="UTF-8"?><osm version="0.6" generator="https://github.com/Rub21/geojson2osm"><node lat="46.836468" lon="9.451288"  id="-1"  changeset="false" ><tag k="id" v="1270"/><tag k="amenity" v="toilets"/><tag k="municipali" v="Domat/Ems"/><tag k="name" v="Sentupada"/><tag k="toilets_po" v="seated"/><tag k="wc_guide_i" v="1270"/><tag k="Cluster_ID" v="48"/><tag k="xyz" v="1077_1326_11"/></node><node lat="46.807579" lon="9.399018"  id="-2"  changeset="false" ><tag k="id" v="2904"/><tag k="amenity" v="toilets"/><tag k="municipali" v="Bonaduz"/><tag k="name" v="Tankstelle"/><tag k="toilets_po" v="seated"/><tag k="wc_guide_i" v="2904"/><tag k="Cluster_ID" v="48"/><tag k="xyz" v="1077_1326_11"/></node><node lat="46.828106" lon="9.361602"  id="-3"  changeset="false" ><tag k="id" v="3568"/><tag k="amenity" v="toilets"/><tag k="descriptio" v="Im Untergeschoss"/><tag k="municipali" v="Trin"/><tag k="name" v="Gemeindeverwaltung Trin"/><tag k="toilets_po" v="seated"/><tag k="wc_guide_i" v="3568"/><tag k="Cluster_ID" v="10"/><tag k="xyz" v="1077_1326_11"/></node><node lat="46.833076" lon="9.319443"  id="-4"  changeset="false" ><tag k="id" v="4051"/><tag k="amenity" v="toilets"/><tag k="municipali" v="Flims/Trin"/><tag k="name" v="Crestasee Garderobe"/><tag k="toilets_po" v="seated"/><tag k="wc_guide_i" v="4051"/><tag k="Cluster_ID" v="10"/><tag k="xyz" v="1077_1326_11"/></node><node lat="46.816673" lon="9.359441"  id="-5"  changeset="false" ><tag k="id" v="20726"/><tag k="amenity" v="toilets"/><tag k="municipali" v="Trin"/><tag k="name" v="Im Stationsgeb�ude"/><tag k="toilets_po" v="seated"/><tag k="wc_guide_i" v="20726"/><tag k="Cluster_ID" v="10"/><tag k="xyz" v="1077_1326_11"/></node></osm>