<?xml version="1.0" encoding="UTF-8"?><osm version="0.6" generator="https://github.com/Rub21/geojson2osm"><node lat="46.685009" lon="7.848487"  id="-1"  changeset="false" ><tag k="id" v="306"/><tag k="amenity" v="toilets"/><tag k="municipali" v="Interlaken"/><tag k="name" v="postplatz"/><tag k="toilets_po" v="seated"/><tag k="wc_guide_i" v="306"/><tag k="Cluster_ID" v="33"/><tag k="xyz" v="1068_1325_11"/></node><node lat="46.687721" lon="7.861791"  id="-2"  changeset="false" ><tag k="id" v="309"/><tag k="amenity" v="toilets"/><tag k="municipali" v="Interlaken"/><tag k="name" v="Englischer Garten"/><tag k="toilets_po" v="seated"/><tag k="wc_guide_i" v="309"/><tag k="Cluster_ID" v="33"/><tag k="xyz" v="1068_1325_11"/></node><node lat="46.687485" lon="7.859634"  id="-3"  changeset="false" ><tag k="id" v="1548"/><tag k="amenity" v="toilets"/><tag k="municipali" v="Interlaken"/><tag k="toilets_po" v="seated"/><tag k="wc_guide_i" v="1548"/><tag k="Cluster_ID" v="33"/><tag k="xyz" v="1068_1325_11"/></node><node lat="46.691292" lon="7.833932"  id="-4"  changeset="false" ><tag k="id" v="2554"/><tag k="amenity" v="toilets"/><tag k="municipali" v="Unterseen"/><tag k="name" v="Lombach Br�cke"/><tag k="toilets_po" v="seated"/><tag k="wc_guide_i" v="2554"/><tag k="Cluster_ID" v="33"/><tag k="xyz" v="1068_1325_11"/></node><node lat="46.69453" lon="7.741831"  id="-5"  changeset="false" ><tag k="id" v="3494"/><tag k="amenity" v="toilets"/><tag k="municipali" v="Merligen"/><tag k="name" v="S�ge"/><tag k="toilets_po" v="seated"/><tag k="wc_guide_i" v="3494"/><tag k="Cluster_ID" v="7"/><tag k="xyz" v="1068_1325_11"/></node><node lat="46.688641" lon="7.897212"  id="-6"  changeset="false" ><tag k="id" v="4522"/><tag k="amenity" v="toilets"/><tag k="municipali" v="B�nigen"/><tag k="name" v="B�nigen"/><tag k="toilets_po" v="seated"/><tag k="wc_guide_i" v="4522"/><tag k="Cluster_ID" v="33"/><tag k="xyz" v="1068_1325_11"/></node><node lat="46.685658" lon="7.791624"  id="-7"  changeset="false" ><tag k="id" v="16393"/><tag k="amenity" v="toilets"/><tag k="municipali" v="Beatenberg"/><tag k="name" v="Beatush�hlen-Sundlauenen"/><tag k="toilets_po" v="seated"/><tag k="wc_guide_i" v="16393"/><tag k="Cluster_ID" v="33"/><tag k="xyz" v="1068_1325_11"/></node><node lat="46.689816" lon="7.869274"  id="-8"  changeset="false" ><tag k="id" v="16537"/><tag k="amenity" v="toilets"/><tag k="municipali" v="Interlaken"/><tag k="toilets_po" v="seated"/><tag k="wc_guide_i" v="16537"/><tag k="Cluster_ID" v="33"/><tag k="xyz" v="1068_1325_11"/></node><node lat="46.787453" lon="7.739618"  id="-9"  changeset="false" ><tag k="id" v="18444"/><tag k="amenity" v="toilets"/><tag k="municipali" v="Eriz"/><tag k="name" v="Neben Garage rote T�r"/><tag k="toilets_po" v="seated"/><tag k="wc_guide_i" v="18444"/><tag k="Cluster_ID" v="7"/><tag k="xyz" v="1068_1325_11"/></node><node lat="46.694054" lon="7.879068"  id="-10"  changeset="false" ><tag k="id" v="20719"/><tag k="amenity" v="toilets"/><tag k="municipali" v="Goldswil"/><tag k="toilets_po" v="seated"/><tag k="wc_guide_i" v="20719"/><tag k="Cluster_ID" v="33"/><tag k="xyz" v="1068_1325_11"/></node><node lat="46.69632" lon="7.876563"  id="-11"  changeset="false" ><tag k="id" v="20960"/><tag k="amenity" v="toilets"/><tag k="municipali" v="Goldswil"/><tag k="toilets_po" v="seated"/><tag k="wc_guide_i" v="20960"/><tag k="Cluster_ID" v="33"/><tag k="xyz" v="1068_1325_11"/></node></osm>