<?xml version="1.0" encoding="UTF-8"?><osm version="0.6" generator="https://github.com/Rub21/geojson2osm"><node lat="47.275341" lon="7.901241"  id="-1"  changeset="false" ><tag k="id" v="1305"/><tag k="amenity" v="toilets"/><tag k="municipali" v="Vordemwald"/><tag k="name" v="Gemeindeplatz"/><tag k="toilets_po" v="seated"/><tag k="wc_guide_i" v="1305"/><tag k="Cluster_ID" v="46"/><tag k="xyz" v="1068_1329_11"/></node><node lat="47.268967" lon="7.799302"  id="-2"  changeset="false" ><tag k="id" v="1517"/><tag k="amenity" v="toilets"/><tag k="municipali" v="Wolfwil"/><tag k="name" v="Friedhof"/><tag k="toilets_po" v="seated"/><tag k="wc_guide_i" v="1517"/><tag k="Cluster_ID" v="46"/><tag k="xyz" v="1068_1329_11"/></node><node lat="47.210907" lon="7.79032"  id="-3"  changeset="false" ><tag k="id" v="1648"/><tag k="amenity" v="toilets"/><tag k="municipali" v="Langenthal"/><tag k="toilets_po" v="seated"/><tag k="wc_guide_i" v="1648"/><tag k="Cluster_ID" v="46"/><tag k="xyz" v="1068_1329_11"/></node><node lat="47.211559" lon="7.798576"  id="-4"  changeset="false" ><tag k="id" v="1657"/><tag k="amenity" v="toilets"/><tag k="municipali" v="Langenthal"/><tag k="name" v="Hirschpark"/><tag k="toilets_po" v="seated"/><tag k="wc_guide_i" v="1657"/><tag k="Cluster_ID" v="46"/><tag k="xyz" v="1068_1329_11"/></node><node lat="47.23917" lon="7.822282"  id="-5"  changeset="false" ><tag k="id" v="2546"/><tag k="amenity" v="toilets"/><tag k="municipali" v="Roggwil"/><tag k="toilets_po" v="seated"/><tag k="wc_guide_i" v="2546"/><tag k="Cluster_ID" v="46"/><tag k="xyz" v="1068_1329_11"/></node><node lat="47.217209" lon="7.768793"  id="-6"  changeset="false" ><tag k="id" v="3730"/><tag k="amenity" v="toilets"/><tag k="municipali" v="Langenthal"/><tag k="name" v="Coop Tankstelle"/><tag k="toilets_po" v="seated"/><tag k="wc_guide_i" v="3730"/><tag k="Cluster_ID" v="46"/><tag k="xyz" v="1068_1329_11"/></node><node lat="47.232189" lon="7.840015"  id="-7"  changeset="false" ><tag k="id" v="18399"/><tag k="amenity" v="toilets"/><tag k="descriptio" v="Nachts Geschlossen"/><tag k="municipali" v="St. Urban"/><tag k="name" v="Kirche"/><tag k="toilets_po" v="seated"/><tag k="wc_guide_i" v="18399"/><tag k="Cluster_ID" v="46"/><tag k="xyz" v="1068_1329_11"/></node><node lat="47.207775" lon="7.787089"  id="-8"  changeset="false" ><tag k="id" v="18404"/><tag k="amenity" v="toilets"/><tag k="municipali" v="Langenthal"/><tag k="name" v="Spielplatz Rumiweg"/><tag k="toilets_po" v="seated"/><tag k="wc_guide_i" v="18404"/><tag k="Cluster_ID" v="46"/><tag k="xyz" v="1068_1329_11"/></node><node lat="47.212013" lon="7.792736"  id="-9"  changeset="false" ><tag k="id" v="18405"/><tag k="amenity" v="toilets"/><tag k="municipali" v="Langenthal"/><tag k="name" v="Friedhof, Krematorium"/><tag k="toilets_po" v="seated"/><tag k="wc_guide_i" v="18405"/><tag k="Cluster_ID" v="46"/><tag k="xyz" v="1068_1329_11"/></node><node lat="47.20615" lon="7.783501"  id="-10"  changeset="false" ><tag k="id" v="18406"/><tag k="amenity" v="toilets"/><tag k="municipali" v="Langenthal"/><tag k="name" v="Abzweigung Ringstrasse Lotzwilstrasse"/><tag k="toilets_po" v="seated"/><tag k="wc_guide_i" v="18406"/><tag k="Cluster_ID" v="46"/><tag k="xyz" v="1068_1329_11"/></node><node lat="47.219524" lon="7.784379"  id="-11"  changeset="false" ><tag k="id" v="18457"/><tag k="amenity" v="toilets"/><tag k="municipali" v="Langenthal"/><tag k="name" v="Aarwangerstrasse"/><tag k="toilets_po" v="seated"/><tag k="wc_guide_i" v="18457"/><tag k="Cluster_ID" v="46"/><tag k="xyz" v="1068_1329_11"/></node><node lat="47.229012" lon="7.898693"  id="-12"  changeset="false" ><tag k="id" v="18940"/><tag k="amenity" v="toilets"/><tag k="descriptio" v="vis � vis Kirche und Gemeindeverwaltung"/><tag k="municipali" v="Pfaffnau"/><tag k="toilets_po" v="seated"/><tag k="wc_guide_i" v="18940"/><tag k="Cluster_ID" v="46"/><tag k="xyz" v="1068_1329_11"/></node><node lat="47.210102" lon="7.78544"  id="-13"  changeset="false" ><tag k="id" v="19161"/><tag k="amenity" v="toilets"/><tag k="descriptio" v="�ffentliche Musikschule Und Bibliothek"/><tag k="municipali" v="Langenthal"/><tag k="name" v="Thurnstrasse"/><tag k="toilets_po" v="seated"/><tag k="wc_guide_i" v="19161"/><tag k="Cluster_ID" v="46"/><tag k="xyz" v="1068_1329_11"/></node></osm>