<?xml version="1.0" encoding="UTF-8"?><osm version="0.6" generator="https://github.com/Rub21/geojson2osm"><node lat="46.321266" lon="7.993584"  id="-1"  changeset="false" ><tag k="id" v="2240"/><tag k="amenity" v="toilets"/><tag k="municipali" v="Brig-Glis"/><tag k="name" v="Autoverlad Brig"/><tag k="toilets_po" v="seated"/><tag k="wc_guide_i" v="2240"/><tag k="Cluster_ID" v="9"/><tag k="xyz" v="1069_1322_11"/></node><node lat="46.386253" lon="8.058029"  id="-2"  changeset="false" ><tag k="id" v="3546"/><tag k="amenity" v="toilets"/><tag k="municipali" v="Betten"/><tag k="name" v="Bahnstation Bettmeralp"/><tag k="toilets_po" v="seated"/><tag k="wc_guide_i" v="3546"/><tag k="Cluster_ID" v="21"/><tag k="xyz" v="1069_1322_11"/></node><node lat="46.356964" lon="8.045991"  id="-3"  changeset="false" ><tag k="id" v="19658"/><tag k="amenity" v="toilets"/><tag k="municipali" v="M�rel"/><tag k="name" v="Talstation M�rel Gondelbahn"/><tag k="toilets_po" v="seated"/><tag k="wc_guide_i" v="19658"/><tag k="Cluster_ID" v="9"/><tag k="xyz" v="1069_1322_11"/></node></osm>