<?xml version="1.0" encoding="UTF-8"?><osm version="0.6" generator="https://github.com/Rub21/geojson2osm"><node lat="46.922623" lon="6.63508"  id="-1"  changeset="false" ><tag k="id" v="4397"/><tag k="amenity" v="toilets"/><tag k="municipali" v="Couvet"/><tag k="name" v="Gare"/><tag k="toilets_po" v="seated"/><tag k="wc_guide_i" v="4397"/><tag k="Cluster_ID" v="27"/><tag k="xyz" v="1061_1327_11"/></node><node lat="46.928616" lon="6.639734"  id="-2"  changeset="false" ><tag k="id" v="4398"/><tag k="amenity" v="toilets"/><tag k="municipali" v="Couvet"/><tag k="name" v="Centre sportif"/><tag k="toilets_po" v="seated"/><tag k="wc_guide_i" v="4398"/><tag k="website" v="http://www.centresportif-vdt.ch/"/><tag k="Cluster_ID" v="27"/><tag k="xyz" v="1061_1327_11"/></node><node lat="46.97123" lon="6.58781"  id="-3"  changeset="false" ><tag k="id" v="20470"/><tag k="amenity" v="toilets"/><tag k="municipali" v="La Br�vine"/><tag k="name" v="Camping La Br�vine"/><tag k="toilets_po" v="seated"/><tag k="wc_guide_i" v="20470"/><tag k="Cluster_ID" v="27"/><tag k="xyz" v="1061_1327_11"/></node></osm>