<?xml version="1.0" encoding="UTF-8"?><osm version="0.6" generator="https://github.com/Rub21/geojson2osm"><node lat="46.712296" lon="9.445066"  id="-1"  changeset="false" ><tag k="id" v="4181"/><tag k="amenity" v="toilets"/><tag k="municipali" v="Thusis"/><tag k="name" v="Rastst�tte Viamala"/><tag k="toilets_po" v="seated"/><tag k="wc_guide_i" v="4181"/><tag k="Cluster_ID" v="22"/><tag k="xyz" v="1077_1325_11"/></node><node lat="46.76046" lon="9.443239"  id="-2"  changeset="false" ><tag k="id" v="4688"/><tag k="amenity" v="toilets"/><tag k="municipali" v="Tomils"/><tag k="name" v="Post"/><tag k="toilets_po" v="seated"/><tag k="wc_guide_i" v="4688"/><tag k="Cluster_ID" v="22"/><tag k="xyz" v="1077_1325_11"/></node><node lat="46.792647" lon="9.337602"  id="-3"  changeset="false" ><tag k="id" v="18707"/><tag k="amenity" v="toilets"/><tag k="municipali" v="Versam"/><tag k="name" v="Pfrundhaus Kirchweg"/><tag k="toilets_po" v="seated"/><tag k="wc_guide_i" v="18707"/><tag k="Cluster_ID" v="10"/><tag k="xyz" v="1077_1325_11"/></node><node lat="46.794643" lon="9.433989"  id="-4"  changeset="false" ><tag k="id" v="18842"/><tag k="amenity" v="toilets"/><tag k="municipali" v="Feldis"/><tag k="toilets_po" v="seated"/><tag k="wc_guide_i" v="18842"/><tag k="Cluster_ID" v="22"/><tag k="xyz" v="1077_1325_11"/></node><node lat="46.768978" lon="9.425868"  id="-5"  changeset="false" ><tag k="id" v="21130"/><tag k="amenity" v="toilets"/><tag k="municipali" v="Rothenbrunnen"/><tag k="name" v="Im Gemeindehaus"/><tag k="toilets_po" v="seated"/><tag k="wc_guide_i" v="21130"/><tag k="Cluster_ID" v="22"/><tag k="xyz" v="1077_1325_11"/></node></osm>