<?xml version="1.0" encoding="UTF-8"?><osm version="0.6" generator="https://github.com/Rub21/geojson2osm"><node lat="47.051842" lon="8.300503"  id="-1"  changeset="false" ><tag k="id" v="394"/><tag k="amenity" v="toilets"/><tag k="municipali" v="Luzern"/><tag k="toilets_po" v="seated"/><tag k="wc_guide_i" v="394"/><tag k="Cluster_ID" v="37"/><tag k="xyz" v="1071_1328_11"/></node><node lat="47.062275" lon="8.30809"  id="-2"  changeset="false" ><tag k="id" v="401"/><tag k="amenity" v="toilets"/><tag k="municipali" v="Luzern"/><tag k="name" v="beim Schulhaus Maihof"/><tag k="toilets_po" v="seated"/><tag k="wc_guide_i" v="401"/><tag k="Cluster_ID" v="37"/><tag k="xyz" v="1071_1328_11"/></node><node lat="47.054291" lon="8.389993"  id="-3"  changeset="false" ><tag k="id" v="712"/><tag k="amenity" v="toilets"/><tag k="municipali" v="Meggen"/><tag k="name" v="Magdalenenkirche / Friedhofhalle"/><tag k="toilets_po" v="seated"/><tag k="wc_guide_i" v="712"/><tag k="Cluster_ID" v="37"/><tag k="xyz" v="1071_1328_11"/></node><node lat="47.123089" lon="8.354158"  id="-4"  changeset="false" ><tag k="id" v="1118"/><tag k="amenity" v="toilets"/><tag k="municipali" v="Inwil"/><tag k="name" v="Schulhaus"/><tag k="toilets_po" v="seated"/><tag k="wc_guide_i" v="1118"/><tag k="Cluster_ID" v="37"/><tag k="xyz" v="1071_1328_11"/></node><node lat="47.147873" lon="8.39287"  id="-5"  changeset="false" ><tag k="id" v="1268"/><tag k="amenity" v="toilets"/><tag k="municipali" v="Dietwil"/><tag k="name" v="Kirche Dietwil"/><tag k="toilets_po" v="seated"/><tag k="wc_guide_i" v="1268"/><tag k="Cluster_ID" v="37"/><tag k="xyz" v="1071_1328_11"/></node><node lat="47.118824" lon="8.374293"  id="-6"  changeset="false" ><tag k="id" v="1282"/><tag k="amenity" v="toilets"/><tag k="municipali" v="Root"/><tag k="name" v="Rastst�tte"/><tag k="toilets_po" v="seated"/><tag k="wc_guide_i" v="1282"/><tag k="Cluster_ID" v="37"/><tag k="xyz" v="1071_1328_11"/></node><node lat="47.086491" lon="8.29442"  id="-7"  changeset="false" ><tag k="id" v="1506"/><tag k="amenity" v="toilets"/><tag k="descriptio" v="Rechts neben der Tennishalle"/><tag k="municipali" v="Emmen"/><tag k="name" v="Tennisclub"/><tag k="toilets_po" v="seated"/><tag k="wc_guide_i" v="1506"/><tag k="Cluster_ID" v="37"/><tag k="xyz" v="1071_1328_11"/></node><node lat="47.093643" lon="8.272581"  id="-8"  changeset="false" ><tag k="id" v="1616"/><tag k="amenity" v="toilets"/><tag k="descriptio" v="Immer offen"/><tag k="municipali" v="Rothenburg"/><tag k="name" v="Kirche Rothenburg"/><tag k="toilets_po" v="seated"/><tag k="wc_guide_i" v="1616"/><tag k="Cluster_ID" v="37"/><tag k="xyz" v="1071_1328_11"/></node><node lat="47.078728" lon="8.430355"  id="-9"  changeset="false" ><tag k="id" v="1690"/><tag k="amenity" v="toilets"/><tag k="descriptio" v="es geht die Treppe runter"/><tag k="municipali" v="K�ssnacht SZ"/><tag k="name" v="bei Astridkapelle"/><tag k="toilets_po" v="seated"/><tag k="wc_guide_i" v="1690"/><tag k="Cluster_ID" v="37"/><tag k="xyz" v="1071_1328_11"/></node><node lat="47.081299" lon="8.340093"  id="-10"  changeset="false" ><tag k="id" v="1691"/><tag k="amenity" v="toilets"/><tag k="municipali" v="Ebikon"/><tag k="name" v="Kirche"/><tag k="toilets_po" v="seated"/><tag k="wc_guide_i" v="1691"/><tag k="Cluster_ID" v="37"/><tag k="xyz" v="1071_1328_11"/></node><node lat="47.076271" lon="8.333066"  id="-11"  changeset="false" ><tag k="id" v="1969"/><tag k="amenity" v="toilets"/><tag k="descriptio" v="Mit Spielplatz"/><tag k="municipali" v="Ebikon"/><tag k="name" v="Parkanlage Schmiedhof"/><tag k="toilets_po" v="seated"/><tag k="wc_guide_i" v="1969"/><tag k="Cluster_ID" v="37"/><tag k="xyz" v="1071_1328_11"/></node><node lat="47.095222" lon="8.349953"  id="-12"  changeset="false" ><tag k="id" v="2308"/><tag k="amenity" v="toilets"/><tag k="descriptio" v="Tiefgarage"/><tag k="municipali" v="Buchrain"/><tag k="name" v="Einkaufszentrum"/><tag k="toilets_po" v="seated"/><tag k="wc_guide_i" v="2308"/><tag k="Cluster_ID" v="37"/><tag k="xyz" v="1071_1328_11"/></node><node lat="47.152523" lon="8.319869"  id="-13"  changeset="false" ><tag k="id" v="3253"/><tag k="amenity" v="toilets"/><tag k="municipali" v="Ballwil"/><tag k="name" v="Bei Kirche"/><tag k="toilets_po" v="seated"/><tag k="wc_guide_i" v="3253"/><tag k="Cluster_ID" v="37"/><tag k="xyz" v="1071_1328_11"/></node><node lat="47.064358" lon="8.408409"  id="-14"  changeset="false" ><tag k="id" v="3687"/><tag k="amenity" v="toilets"/><tag k="descriptio" v="Bei sch�nem Wetter"/><tag k="municipali" v="Merlischachen"/><tag k="name" v="Badi Lounge"/><tag k="toilets_po" v="seated"/><tag k="wc_guide_i" v="3687"/><tag k="Cluster_ID" v="37"/><tag k="xyz" v="1071_1328_11"/></node><node lat="47.1478" lon="8.433898"  id="-15"  changeset="false" ><tag k="id" v="4198"/><tag k="amenity" v="toilets"/><tag k="descriptio" v="schl�sselanfrage in der tankstelle"/><tag k="municipali" v="rotkreuz"/><tag k="name" v="coop tankstelle"/><tag k="toilets_po" v="seated"/><tag k="wc_guide_i" v="4198"/><tag k="Cluster_ID" v="37"/><tag k="xyz" v="1071_1328_11"/></node><node lat="47.046837" lon="8.373536"  id="-16"  changeset="false" ><tag k="id" v="4223"/><tag k="amenity" v="toilets"/><tag k="municipali" v="Meggen"/><tag k="name" v="Gemeindeverwaltung"/><tag k="toilets_po" v="seated"/><tag k="wc_guide_i" v="4223"/><tag k="Cluster_ID" v="37"/><tag k="xyz" v="1071_1328_11"/></node><node lat="47.067257" lon="8.31483"  id="-17"  changeset="false" ><tag k="id" v="16718"/><tag k="amenity" v="toilets"/><tag k="descriptio" v="Ebenerdig, Gratis ,"/><tag k="municipali" v="Luzern"/><tag k="name" v="Bushaltestelle Maihof"/><tag k="toilets_po" v="seated"/><tag k="wc_guide_i" v="16718"/><tag k="Cluster_ID" v="37"/><tag k="xyz" v="1071_1328_11"/></node><node lat="47.133785" lon="8.329742"  id="-18"  changeset="false" ><tag k="id" v="16858"/><tag k="amenity" v="toilets"/><tag k="descriptio" v="Toilettenh�uschen"/><tag k="municipali" v="Ballwil"/><tag k="name" v="Hiltigweiher"/><tag k="toilets_po" v="seated"/><tag k="wc_guide_i" v="16858"/><tag k="Cluster_ID" v="37"/><tag k="xyz" v="1071_1328_11"/></node><node lat="47.073917" lon="8.393507"  id="-19"  changeset="false" ><tag k="id" v="18229"/><tag k="amenity" v="toilets"/><tag k="municipali" v="Adligenswil"/><tag k="name" v="Wagenmoos"/><tag k="toilets_po" v="seated"/><tag k="wc_guide_i" v="18229"/><tag k="Cluster_ID" v="37"/><tag k="xyz" v="1071_1328_11"/></node><node lat="47.045876" lon="8.309693"  id="-20"  changeset="false" ><tag k="id" v="18497"/><tag k="amenity" v="toilets"/><tag k="municipali" v="Luzern"/><tag k="name" v="Nette Toilette"/><tag k="toilets_po" v="seated"/><tag k="wc_guide_i" v="18497"/><tag k="website" v="http://www.barcapitol.ch/"/><tag k="Cluster_ID" v="37"/><tag k="xyz" v="1071_1328_11"/></node><node lat="47.051003" lon="8.302603"  id="-21"  changeset="false" ><tag k="id" v="18500"/><tag k="amenity" v="toilets"/><tag k="municipali" v="Luzern"/><tag k="name" v="Nette Toilette"/><tag k="toilets_po" v="seated"/><tag k="wc_guide_i" v="18500"/><tag k="website" v="https://www.ammos.ch"/><tag k="Cluster_ID" v="37"/><tag k="xyz" v="1071_1328_11"/></node><node lat="47.053654" lon="8.307673"  id="-22"  changeset="false" ><tag k="id" v="18506"/><tag k="amenity" v="toilets"/><tag k="municipali" v="Luzern"/><tag k="name" v="Nette Toilette"/><tag k="toilets_po" v="seated"/><tag k="wc_guide_i" v="18506"/><tag k="website" v="https://www.hotel-falken.ch"/><tag k="Cluster_ID" v="37"/><tag k="xyz" v="1071_1328_11"/></node><node lat="47.055206" lon="8.312595"  id="-23"  changeset="false" ><tag k="id" v="18508"/><tag k="amenity" v="toilets"/><tag k="municipali" v="Luzern"/><tag k="name" v="Nette Toilette"/><tag k="toilets_po" v="seated"/><tag k="wc_guide_i" v="18508"/><tag k="website" v="https://www.rebstock-luzern.ch"/><tag k="Cluster_ID" v="37"/><tag k="xyz" v="1071_1328_11"/></node><node lat="47.050873" lon="8.302732"  id="-24"  changeset="false" ><tag k="id" v="18510"/><tag k="amenity" v="toilets"/><tag k="municipali" v="Luzern"/><tag k="name" v="Nette Toilette"/><tag k="toilets_po" v="seated"/><tag k="wc_guide_i" v="18510"/><tag k="website" v="http://www.nixinderlaterne.ch/"/><tag k="Cluster_ID" v="37"/><tag k="xyz" v="1071_1328_11"/></node><node lat="47.079811" lon="8.413992"  id="-25"  changeset="false" ><tag k="id" v="18519"/><tag k="amenity" v="toilets"/><tag k="descriptio" v="F�r Frauen"/><tag k="municipali" v="K�ssnacht (SZ)"/><tag k="name" v="Waldh�tte"/><tag k="toilets_po" v="seated"/><tag k="wc_guide_i" v="18519"/><tag k="Cluster_ID" v="37"/><tag k="xyz" v="1071_1328_11"/></node><node lat="47.091022" lon="8.401541"  id="-26"  changeset="false" ><tag k="id" v="18546"/><tag k="amenity" v="toilets"/><tag k="municipali" v="Udligenswil"/><tag k="name" v="Gemeindehaus"/><tag k="toilets_po" v="seated"/><tag k="wc_guide_i" v="18546"/><tag k="Cluster_ID" v="37"/><tag k="xyz" v="1071_1328_11"/></node><node lat="47.12207" lon="8.349483"  id="-27"  changeset="false" ><tag k="id" v="18688"/><tag k="amenity" v="toilets"/><tag k="municipali" v="Inwil"/><tag k="name" v="Friedhof"/><tag k="toilets_po" v="seated"/><tag k="wc_guide_i" v="18688"/><tag k="Cluster_ID" v="37"/><tag k="xyz" v="1071_1328_11"/></node><node lat="47.071022" lon="8.286136"  id="-28"  changeset="false" ><tag k="id" v="19113"/><tag k="amenity" v="toilets"/><tag k="municipali" v="Emmen"/><tag k="name" v="Kath. Kirche St. Maria"/><tag k="toilets_po" v="seated"/><tag k="wc_guide_i" v="19113"/><tag k="Cluster_ID" v="37"/><tag k="xyz" v="1071_1328_11"/></node><node lat="47.070679" lon="8.282396"  id="-29"  changeset="false" ><tag k="id" v="19665"/><tag k="amenity" v="toilets"/><tag k="municipali" v="Emmenbr�cke"/><tag k="name" v="Avec Emmenbr�cke Bahnhof"/><tag k="toilets_po" v="seated"/><tag k="wc_guide_i" v="19665"/><tag k="Cluster_ID" v="37"/><tag k="xyz" v="1071_1328_11"/></node><node lat="47.100723" lon="8.262289"  id="-30"  changeset="false" ><tag k="id" v="19813"/><tag k="amenity" v="toilets"/><tag k="municipali" v="Rothenburg"/><tag k="name" v="Rosengartenstrasse, Rothenburg"/><tag k="toilets_po" v="seated"/><tag k="wc_guide_i" v="19813"/><tag k="Cluster_ID" v="37"/><tag k="xyz" v="1071_1328_11"/></node><node lat="47.121235" lon="8.325112"  id="-31"  changeset="false" ><tag k="id" v="19936"/><tag k="amenity" v="toilets"/><tag k="descriptio" v="Schl�ssel bei Kiosk verlangen"/><tag k="municipali" v="Eschenbach LU"/><tag k="name" v="Kiosk bei Opel-Garage"/><tag k="toilets_po" v="seated"/><tag k="wc_guide_i" v="19936"/><tag k="Cluster_ID" v="37"/><tag k="xyz" v="1071_1328_11"/></node><node lat="47.070164" lon="8.365029"  id="-32"  changeset="false" ><tag k="id" v="20156"/><tag k="amenity" v="toilets"/><tag k="descriptio" v="Beim Engang Friedhof"/><tag k="municipali" v="Adligenswil"/><tag k="name" v="Friedhof Adligenswil"/><tag k="toilets_po" v="seated"/><tag k="wc_guide_i" v="20156"/><tag k="Cluster_ID" v="37"/><tag k="xyz" v="1071_1328_11"/></node><node lat="47.056751" lon="8.311871"  id="-33"  changeset="false" ><tag k="id" v="20417"/><tag k="amenity" v="toilets"/><tag k="municipali" v="Luzern"/><tag k="name" v="Nette Toilette"/><tag k="toilets_po" v="seated"/><tag k="wc_guide_i" v="20417"/><tag k="website" v="https://all.accor.com/hotel/8549"/><tag k="Cluster_ID" v="37"/><tag k="xyz" v="1071_1328_11"/></node><node lat="47.055454" lon="8.311122"  id="-34"  changeset="false" ><tag k="id" v="20418"/><tag k="amenity" v="toilets"/><tag k="municipali" v="Luzern"/><tag k="name" v="Nette Toilette"/><tag k="toilets_po" v="seated"/><tag k="wc_guide_i" v="20418"/><tag k="website" v="https://california-luzern.ch/"/><tag k="Cluster_ID" v="37"/><tag k="xyz" v="1071_1328_11"/></node><node lat="47.082428" lon="8.30767"  id="-35"  changeset="false" ><tag k="id" v="20626"/><tag k="amenity" v="toilets"/><tag k="municipali" v="Emmen"/><tag k="name" v="Tankstelle"/><tag k="toilets_po" v="seated"/><tag k="wc_guide_i" v="20626"/><tag k="Cluster_ID" v="37"/><tag k="xyz" v="1071_1328_11"/></node><node lat="47.045898" lon="8.302893"  id="-36"  changeset="false" ><tag k="id" v="20852"/><tag k="amenity" v="toilets"/><tag k="descriptio" v="Nach Schl�ssel fragen"/><tag k="municipali" v="Luzern"/><tag k="name" v="Ludothek"/><tag k="toilets_po" v="seated"/><tag k="wc_guide_i" v="20852"/><tag k="website" v="https://www.ludothek-luzern.ch/"/><tag k="Cluster_ID" v="37"/><tag k="xyz" v="1071_1328_11"/></node><node lat="47.052357" lon="8.304884"  id="-37"  changeset="false" ><tag k="id" v="20860"/><tag k="amenity" v="toilets"/><tag k="municipali" v="Luzern"/><tag k="name" v="Nette Toilette"/><tag k="toilets_po" v="seated"/><tag k="wc_guide_i" v="20860"/><tag k="website" v="http://www.ristorantelafenice.ch/"/><tag k="Cluster_ID" v="37"/><tag k="xyz" v="1071_1328_11"/></node><node lat="47.046551" lon="8.306915"  id="-38"  changeset="false" ><tag k="id" v="20862"/><tag k="amenity" v="toilets"/><tag k="municipali" v="Luzern"/><tag k="name" v="Nette Toilette"/><tag k="toilets_po" v="seated"/><tag k="wc_guide_i" v="20862"/><tag k="website" v="https://www.barbes.ch/"/><tag k="Cluster_ID" v="37"/><tag k="xyz" v="1071_1328_11"/></node><node lat="47.052891" lon="8.305093"  id="-39"  changeset="false" ><tag k="id" v="20863"/><tag k="amenity" v="toilets"/><tag k="municipali" v="Luzern"/><tag k="name" v="Nette Toilette"/><tag k="toilets_po" v="seated"/><tag k="wc_guide_i" v="20863"/><tag k="website" v="https://www.icilio-antipasti.ch/"/><tag k="Cluster_ID" v="37"/><tag k="xyz" v="1071_1328_11"/></node></osm>