<?xml version="1.0" encoding="UTF-8"?><osm version="0.6" generator="https://github.com/Rub21/geojson2osm"><node lat="46.672031" lon="7.7068"  id="-1"  changeset="false" ><tag k="id" v="1538"/><tag k="amenity" v="toilets"/><tag k="descriptio" v="mit Duschm�glichkeit"/><tag k="municipali" v="Faulensee"/><tag k="name" v="Seebad"/><tag k="toilets_po" v="seated"/><tag k="wc_guide_i" v="1538"/><tag k="Cluster_ID" v="7"/><tag k="xyz" v="1067_1324_11"/></node><node lat="46.589344" lon="7.723228"  id="-2"  changeset="false" ><tag k="id" v="2054"/><tag k="amenity" v="toilets"/><tag k="municipali" v="Reichenbach im Kandertal"/><tag k="name" v="Kiental"/><tag k="toilets_po" v="seated"/><tag k="wc_guide_i" v="2054"/><tag k="Cluster_ID" v="33"/><tag k="xyz" v="1067_1324_11"/></node><node lat="46.644997" lon="7.724569"  id="-3"  changeset="false" ><tag k="id" v="2675"/><tag k="amenity" v="toilets"/><tag k="municipali" v="3703 Aeschiried"/><tag k="name" v="Bus Haltestelle Aeschiried"/><tag k="toilets_po" v="seated"/><tag k="wc_guide_i" v="2675"/><tag k="Cluster_ID" v="33"/><tag k="xyz" v="1067_1324_11"/></node><node lat="46.659996" lon="7.579311"  id="-4"  changeset="false" ><tag k="id" v="3512"/><tag k="amenity" v="toilets"/><tag k="municipali" v="Diemtigen"/><tag k="name" v="Bahnhof"/><tag k="toilets_po" v="seated"/><tag k="wc_guide_i" v="3512"/><tag k="Cluster_ID" v="7"/><tag k="xyz" v="1067_1324_11"/></node><node lat="46.658333" lon="7.72076"  id="-5"  changeset="false" ><tag k="id" v="3549"/><tag k="amenity" v="toilets"/><tag k="municipali" v="Krattigen"/><tag k="name" v="Kirche Krattigen"/><tag k="toilets_po" v="seated"/><tag k="wc_guide_i" v="3549"/><tag k="Cluster_ID" v="7"/><tag k="xyz" v="1067_1324_11"/></node><node lat="46.625607" lon="7.689929"  id="-6"  changeset="false" ><tag k="id" v="4075"/><tag k="amenity" v="toilets"/><tag k="descriptio" v="gratis"/><tag k="municipali" v="Reichenbach im Kandertal"/><tag k="name" v="Beim bahnhof"/><tag k="toilets_po" v="seated"/><tag k="wc_guide_i" v="4075"/><tag k="Cluster_ID" v="7"/><tag k="xyz" v="1067_1324_11"/></node><node lat="46.627865" lon="7.693448"  id="-7"  changeset="false" ><tag k="id" v="20517"/><tag k="amenity" v="toilets"/><tag k="municipali" v="3713 Reichenbach i.K"/><tag k="name" v="Friedhof"/><tag k="toilets_po" v="seated"/><tag k="wc_guide_i" v="20517"/><tag k="Cluster_ID" v="7"/><tag k="xyz" v="1067_1324_11"/></node></osm>