<?xml version="1.0" encoding="UTF-8"?><osm version="0.6" generator="https://github.com/Rub21/geojson2osm"><node lat="47.039074" lon="7.632306"  id="-1"  changeset="false" ><tag k="id" v="1849"/><tag k="amenity" v="toilets"/><tag k="municipali" v="Burgdorf"/><tag k="name" v="Sportplatz Emme Oberburg"/><tag k="toilets_po" v="seated"/><tag k="wc_guide_i" v="1849"/><tag k="Cluster_ID" v="34"/><tag k="xyz" v="1067_1327_11"/></node><node lat="47.037357" lon="7.623007"  id="-2"  changeset="false" ><tag k="id" v="2984"/><tag k="amenity" v="toilets"/><tag k="descriptio" v="Geheizt"/><tag k="municipali" v="Oberburg"/><tag k="name" v="Werkhof Oberburg"/><tag k="toilets_po" v="seated"/><tag k="wc_guide_i" v="2984"/><tag k="Cluster_ID" v="34"/><tag k="xyz" v="1067_1327_11"/></node><node lat="47.039688" lon="7.629187"  id="-3"  changeset="false" ><tag k="id" v="3617"/><tag k="amenity" v="toilets"/><tag k="descriptio" v="Schloss defekt"/><tag k="municipali" v="Burgdorf"/><tag k="name" v="Bahnhof Oberburg"/><tag k="toilets_po" v="seated"/><tag k="wc_guide_i" v="3617"/><tag k="Cluster_ID" v="34"/><tag k="xyz" v="1067_1327_11"/></node><node lat="47.008762" lon="7.569033"  id="-4"  changeset="false" ><tag k="id" v="3969"/><tag k="amenity" v="toilets"/><tag k="descriptio" v="freistehendes WC-H�uschen �ber Kiesweg zu erreichen"/><tag k="municipali" v="Krauchthal"/><tag k="name" v="Kirche"/><tag k="toilets_po" v="seated"/><tag k="wc_guide_i" v="3969"/><tag k="Cluster_ID" v="34"/><tag k="xyz" v="1067_1327_11"/></node><node lat="47.008987" lon="7.724105"  id="-5"  changeset="false" ><tag k="id" v="4665"/><tag k="amenity" v="toilets"/><tag k="descriptio" v="Inkl. Pissoir"/><tag k="municipali" v="L�tzelfl�h"/><tag k="toilets_po" v="seated"/><tag k="wc_guide_i" v="4665"/><tag k="Cluster_ID" v="34"/><tag k="xyz" v="1067_1327_11"/></node><node lat="47.03973" lon="7.621985"  id="-6"  changeset="false" ><tag k="id" v="20026"/><tag k="amenity" v="toilets"/><tag k="descriptio" v="Rollstuhl Zugang"/><tag k="municipali" v="Oberburg"/><tag k="name" v="Kirchgemeinde"/><tag k="toilets_po" v="seated"/><tag k="wc_guide_i" v="20026"/><tag k="Cluster_ID" v="34"/><tag k="xyz" v="1067_1327_11"/></node><node lat="46.994267" lon="7.656745"  id="-7"  changeset="false" ><tag k="id" v="20165"/><tag k="amenity" v="toilets"/><tag k="municipali" v="Hasle bei Burgdorf"/><tag k="name" v="Bahnhof Schaffhausen i. E."/><tag k="toilets_po" v="seated"/><tag k="wc_guide_i" v="20165"/><tag k="Cluster_ID" v="34"/><tag k="xyz" v="1067_1327_11"/></node></osm>