<?xml version="1.0" encoding="UTF-8"?><osm version="0.6" generator="https://github.com/Rub21/geojson2osm"><node lat="47.37159" lon="9.198303"  id="-1"  changeset="false" ><tag k="id" v="1023"/><tag k="amenity" v="toilets"/><tag k="descriptio" v="Direkt neben dem Eingang zur Unterf�hrung, geschlossen, Schl�ssel im Kiosk Hexenh�sli hinterlegt"/><tag k="municipali" v="Degersheim"/><tag k="name" v="Bahnhof"/><tag k="toilets_po" v="seated"/><tag k="wc_guide_i" v="1023"/><tag k="Cluster_ID" v="3"/><tag k="xyz" v="1076_1330_11"/></node><node lat="47.385811" lon="9.281355"  id="-2"  changeset="false" ><tag k="id" v="1203"/><tag k="amenity" v="toilets"/><tag k="municipali" v="Herisau"/><tag k="name" v="Gutenberg-Zentrum Untergeschoss"/><tag k="toilets_po" v="seated"/><tag k="wc_guide_i" v="1203"/><tag k="Cluster_ID" v="29"/><tag k="xyz" v="1076_1330_11"/></node><node lat="47.384514" lon="9.274263"  id="-3"  changeset="false" ><tag k="id" v="1304"/><tag k="amenity" v="toilets"/><tag k="municipali" v="Herisau"/><tag k="name" v="M�hlekreisel"/><tag k="toilets_po" v="seated"/><tag k="wc_guide_i" v="1304"/><tag k="Cluster_ID" v="29"/><tag k="xyz" v="1076_1330_11"/></node><node lat="47.39135" lon="9.28628"  id="-4"  changeset="false" ><tag k="id" v="1468"/><tag k="amenity" v="toilets"/><tag k="municipali" v="Herisau"/><tag k="name" v="Friedhofkapelle"/><tag k="toilets_po" v="seated"/><tag k="wc_guide_i" v="1468"/><tag k="Cluster_ID" v="29"/><tag k="xyz" v="1076_1330_11"/></node><node lat="47.390259" lon="9.277375"  id="-5"  changeset="false" ><tag k="id" v="2452"/><tag k="amenity" v="toilets"/><tag k="municipali" v="Herisau"/><tag k="name" v="Bahnhof"/><tag k="toilets_po" v="seated"/><tag k="wc_guide_i" v="2452"/><tag k="Cluster_ID" v="29"/><tag k="xyz" v="1076_1330_11"/></node><node lat="47.357662" lon="9.286008"  id="-6"  changeset="false" ><tag k="id" v="4249"/><tag k="amenity" v="toilets"/><tag k="municipali" v="Waldstatt"/><tag k="name" v="Bahnhof Waldstatt"/><tag k="toilets_po" v="seated"/><tag k="wc_guide_i" v="4249"/><tag k="Cluster_ID" v="29"/><tag k="xyz" v="1076_1330_11"/></node><node lat="47.357716" lon="9.286383"  id="-7"  changeset="false" ><tag k="id" v="4254"/><tag k="amenity" v="toilets"/><tag k="municipali" v="Waldstatt"/><tag k="name" v="Bahnhof"/><tag k="toilets_po" v="seated"/><tag k="wc_guide_i" v="4254"/><tag k="Cluster_ID" v="29"/><tag k="xyz" v="1076_1330_11"/></node><node lat="47.390057" lon="9.289831"  id="-8"  changeset="false" ><tag k="id" v="16632"/><tag k="amenity" v="toilets"/><tag k="municipali" v="Herisau"/><tag k="name" v="Sportzentrum Herisau"/><tag k="toilets_po" v="seated"/><tag k="wc_guide_i" v="16632"/><tag k="Cluster_ID" v="29"/><tag k="xyz" v="1076_1330_11"/></node><node lat="47.351917" lon="9.249502"  id="-9"  changeset="false" ><tag k="id" v="18271"/><tag k="amenity" v="toilets"/><tag k="municipali" v="Schwellbrunn"/><tag k="name" v="Gemeindeverwaltung"/><tag k="toilets_po" v="seated"/><tag k="wc_guide_i" v="18271"/><tag k="Cluster_ID" v="29"/><tag k="xyz" v="1076_1330_11"/></node><node lat="47.379688" lon="9.278761"  id="-10"  changeset="false" ><tag k="id" v="18703"/><tag k="amenity" v="toilets"/><tag k="municipali" v="Herisau"/><tag k="name" v="Bushaltestelle"/><tag k="toilets_po" v="seated"/><tag k="wc_guide_i" v="18703"/><tag k="Cluster_ID" v="29"/><tag k="xyz" v="1076_1330_11"/></node></osm>