<?xml version="1.0" encoding="UTF-8"?><osm version="0.6" generator="https://github.com/Rub21/geojson2osm"><node lat="46.707539" lon="9.169327"  id="-1"  changeset="false" ><tag k="id" v="2351"/><tag k="amenity" v="toilets"/><tag k="municipali" v="Degen"/><tag k="name" v="Casa Da Scola"/><tag k="toilets_po" v="seated"/><tag k="wc_guide_i" v="2351"/><tag k="Cluster_ID" v="10"/><tag k="xyz" v="1076_1325_11"/></node><node lat="46.791534" lon="9.274908"  id="-2"  changeset="false" ><tag k="id" v="18708"/><tag k="amenity" v="toilets"/><tag k="municipali" v="Safiental"/><tag k="name" v="Bahnhof Valendas-Sagogn"/><tag k="toilets_po" v="seated"/><tag k="wc_guide_i" v="18708"/><tag k="Cluster_ID" v="10"/><tag k="xyz" v="1076_1325_11"/></node><node lat="46.773911" lon="9.209983"  id="-3"  changeset="false" ><tag k="id" v="18709"/><tag k="amenity" v="toilets"/><tag k="municipali" v="Ilanz"/><tag k="name" v="Mundaun-Center"/><tag k="toilets_po" v="seated"/><tag k="wc_guide_i" v="18709"/><tag k="Cluster_ID" v="10"/><tag k="xyz" v="1076_1325_11"/></node><node lat="46.775074" lon="9.207773"  id="-4"  changeset="false" ><tag k="id" v="18710"/><tag k="amenity" v="toilets"/><tag k="descriptio" v="W�hrend Bahnbetrieb"/><tag k="municipali" v="Ilanz"/><tag k="name" v="Bahnhof Ilanz"/><tag k="toilets_po" v="seated"/><tag k="wc_guide_i" v="18710"/><tag k="Cluster_ID" v="10"/><tag k="xyz" v="1076_1325_11"/></node><node lat="46.716843" lon="9.17204"  id="-5"  changeset="false" ><tag k="id" v="18712"/><tag k="amenity" v="toilets"/><tag k="municipali" v="Vella"/><tag k="name" v="Vella Dorfzentrum (Spielplatz)"/><tag k="toilets_po" v="seated"/><tag k="wc_guide_i" v="18712"/><tag k="Cluster_ID" v="10"/><tag k="xyz" v="1076_1325_11"/></node><node lat="46.773975" lon="9.207064"  id="-6"  changeset="false" ><tag k="id" v="19159"/><tag k="amenity" v="toilets"/><tag k="municipali" v="Ilanz"/><tag k="name" v="Coop Einkaufscenter"/><tag k="toilets_po" v="seated"/><tag k="wc_guide_i" v="19159"/><tag k="Cluster_ID" v="10"/><tag k="xyz" v="1076_1325_11"/></node></osm>