<?xml version="1.0" encoding="UTF-8"?><osm version="0.6" generator="https://github.com/Rub21/geojson2osm"><node lat="46.709061" lon="6.570422"  id="-1"  changeset="false" ><tag k="id" v="2985"/><tag k="amenity" v="toilets"/><tag k="descriptio" v="Toilettes communales publiques"/><tag k="municipali" v="Chavornay"/><tag k="name" v="Toilettes du Parc"/><tag k="toilets_po" v="seated"/><tag k="wc_guide_i" v="2985"/><tag k="Cluster_ID" v="27"/><tag k="xyz" v="1061_1325_11"/></node><node lat="46.710049" lon="6.568156"  id="-2"  changeset="false" ><tag k="id" v="4610"/><tag k="amenity" v="toilets"/><tag k="municipali" v="Chavornay"/><tag k="name" v="Gare De Chavornay"/><tag k="toilets_po" v="seated"/><tag k="wc_guide_i" v="4610"/><tag k="Cluster_ID" v="36"/><tag k="xyz" v="1061_1325_11"/></node><node lat="46.784302" lon="6.653425"  id="-3"  changeset="false" ><tag k="id" v="19937"/><tag k="amenity" v="toilets"/><tag k="descriptio" v="Avec douche ext�rieur"/><tag k="municipali" v="Yverdon-les-Bains"/><tag k="name" v="Plage d'Yverdon-Les-Bains"/><tag k="toilets_po" v="seated"/><tag k="wc_guide_i" v="19937"/><tag k="Cluster_ID" v="27"/><tag k="xyz" v="1061_1325_11"/></node><node lat="46.732643" lon="6.510543"  id="-4"  changeset="false" ><tag k="id" v="20272"/><tag k="amenity" v="toilets"/><tag k="municipali" v="Montcherand"/><tag k="name" v="Sous l'Eglise"/><tag k="toilets_po" v="seated"/><tag k="wc_guide_i" v="20272"/><tag k="Cluster_ID" v="36"/><tag k="xyz" v="1061_1325_11"/></node></osm>