<?xml version="1.0" encoding="UTF-8"?><osm version="0.6" generator="https://github.com/Rub21/geojson2osm"><node lat="47.548843" lon="7.779708"  id="-1"  changeset="false" ><tag k="id" v="1291"/><tag k="amenity" v="toilets"/><tag k="municipali" v="Rheinfelden"/><tag k="name" v="Friedhof"/><tag k="toilets_po" v="urinal"/><tag k="wc_guide_i" v="1291"/><tag k="Cluster_ID" v="41"/><tag k="xyz" v="1068_1332_11"/></node><node lat="47.552231" lon="7.790422"  id="-2"  changeset="false" ><tag k="id" v="1379"/><tag k="amenity" v="toilets"/><tag k="municipali" v="Rheinfelden"/><tag k="toilets_po" v="seated"/><tag k="wc_guide_i" v="1379"/><tag k="Cluster_ID" v="41"/><tag k="xyz" v="1068_1332_11"/></node><node lat="47.551666" lon="7.792717"  id="-3"  changeset="false" ><tag k="id" v="1933"/><tag k="amenity" v="toilets"/><tag k="municipali" v="Rheinfelden"/><tag k="toilets_po" v="seated"/><tag k="wc_guide_i" v="1933"/><tag k="Cluster_ID" v="41"/><tag k="xyz" v="1068_1332_11"/></node><node lat="47.555302" lon="7.793255"  id="-4"  changeset="false" ><tag k="id" v="1934"/><tag k="amenity" v="toilets"/><tag k="municipali" v="Rheinfelden"/><tag k="name" v="Rathaus"/><tag k="toilets_po" v="seated"/><tag k="wc_guide_i" v="1934"/><tag k="Cluster_ID" v="41"/><tag k="xyz" v="1068_1332_11"/></node><node lat="47.571243" lon="7.844131"  id="-5"  changeset="false" ><tag k="id" v="2862"/><tag k="amenity" v="toilets"/><tag k="municipali" v="M�hlin"/><tag k="name" v="Fussballplatz Schule Steinli/Storebode"/><tag k="toilets_po" v="seated"/><tag k="wc_guide_i" v="2862"/><tag k="Cluster_ID" v="41"/><tag k="xyz" v="1068_1332_11"/></node><node lat="47.563816" lon="7.828102"  id="-6"  changeset="false" ><tag k="id" v="3171"/><tag k="amenity" v="toilets"/><tag k="descriptio" v="Schl�ssel muss an der Kasse verlangt werden."/><tag k="municipali" v="Rheinfelden"/><tag k="name" v="Tankstelle Landi"/><tag k="toilets_po" v="seated"/><tag k="wc_guide_i" v="3171"/><tag k="Cluster_ID" v="41"/><tag k="xyz" v="1068_1332_11"/></node><node lat="47.551189" lon="7.791993"  id="-7"  changeset="false" ><tag k="id" v="3517"/><tag k="amenity" v="toilets"/><tag k="municipali" v="Rheinfelden"/><tag k="name" v="Bahnhof SBB Rheinfelden"/><tag k="toilets_po" v="seated"/><tag k="wc_guide_i" v="3517"/><tag k="Cluster_ID" v="41"/><tag k="xyz" v="1068_1332_11"/></node><node lat="47.554306" lon="7.790623"  id="-8"  changeset="false" ><tag k="id" v="3835"/><tag k="amenity" v="toilets"/><tag k="municipali" v="Rheinfelden"/><tag k="name" v="Parkhaus"/><tag k="toilets_po" v="seated"/><tag k="wc_guide_i" v="3835"/><tag k="Cluster_ID" v="41"/><tag k="xyz" v="1068_1332_11"/></node><node lat="47.527447" lon="7.81276"  id="-9"  changeset="false" ><tag k="id" v="3863"/><tag k="amenity" v="toilets"/><tag k="municipali" v="Magden"/><tag k="toilets_po" v="seated"/><tag k="wc_guide_i" v="3863"/><tag k="Cluster_ID" v="41"/><tag k="xyz" v="1068_1332_11"/></node><node lat="47.551857" lon="7.803365"  id="-10"  changeset="false" ><tag k="id" v="18095"/><tag k="amenity" v="toilets"/><tag k="municipali" v="Rheinfelden"/><tag k="name" v="Tankstelle Coop"/><tag k="toilets_po" v="seated"/><tag k="wc_guide_i" v="18095"/><tag k="Cluster_ID" v="41"/><tag k="xyz" v="1068_1332_11"/></node><node lat="47.558872" lon="7.78633"  id="-11"  changeset="false" ><tag k="id" v="20329"/><tag k="amenity" v="toilets"/><tag k="descriptio" v="Obergeschoss, Lift"/><tag k="municipali" v="Rheinfelden (Baden)"/><tag k="name" v="Nette Toilette"/><tag k="toilets_po" v="seated"/><tag k="wc_guide_i" v="20329"/><tag k="Cluster_ID" v="41"/><tag k="xyz" v="1068_1332_11"/></node><node lat="47.556892" lon="7.781539"  id="-12"  changeset="false" ><tag k="id" v="20330"/><tag k="amenity" v="toilets"/><tag k="descriptio" v="In DM, Schl�ssel an Kasse verlangen"/><tag k="municipali" v="Rheinfelden (Baden)"/><tag k="name" v="DM Drogerie"/><tag k="toilets_po" v="seated"/><tag k="wc_guide_i" v="20330"/><tag k="Cluster_ID" v="41"/><tag k="xyz" v="1068_1332_11"/></node><node lat="47.531082" lon="7.810965"  id="-13"  changeset="false" ><tag k="id" v="20582"/><tag k="amenity" v="toilets"/><tag k="municipali" v="Magden"/><tag k="name" v="Friedhof"/><tag k="toilets_po" v="seated"/><tag k="wc_guide_i" v="20582"/><tag k="Cluster_ID" v="41"/><tag k="xyz" v="1068_1332_11"/></node></osm>