<?xml version="1.0" encoding="UTF-8"?><osm version="0.6" generator="https://github.com/Rub21/geojson2osm"><node lat="47.041836" lon="9.431763"  id="-1"  changeset="false" ><tag k="id" v="1251"/><tag k="amenity" v="toilets"/><tag k="descriptio" v="1. OG"/><tag k="municipali" v="Mels"/><tag k="name" v="Pizol Park"/><tag k="toilets_po" v="seated"/><tag k="wc_guide_i" v="1251"/><tag k="Cluster_ID" v="2"/><tag k="xyz" v="1077_1328_11"/></node><node lat="47.041908" lon="9.43202"  id="-2"  changeset="false" ><tag k="id" v="1331"/><tag k="amenity" v="toilets"/><tag k="descriptio" v="Im 1.OG"/><tag k="municipali" v="Mels"/><tag k="name" v="Pizolpark (Migros)"/><tag k="toilets_po" v="seated"/><tag k="wc_guide_i" v="1331"/><tag k="Cluster_ID" v="2"/><tag k="xyz" v="1077_1328_11"/></node><node lat="47.041462" lon="9.48316"  id="-3"  changeset="false" ><tag k="id" v="2116"/><tag k="amenity" v="toilets"/><tag k="descriptio" v="Toi Toi"/><tag k="municipali" v="Aartals"/><tag k="name" v="Am Rhein Damm"/><tag k="toilets_po" v="seated"/><tag k="wc_guide_i" v="2116"/><tag k="Cluster_ID" v="2"/><tag k="xyz" v="1077_1328_11"/></node><node lat="47.074978" lon="9.486458"  id="-4"  changeset="false" ><tag k="id" v="2335"/><tag k="amenity" v="toilets"/><tag k="municipali" v="Tr�bbach"/><tag k="name" v="Migrol Tankstelle"/><tag k="toilets_po" v="seated"/><tag k="wc_guide_i" v="2335"/><tag k="Cluster_ID" v="2"/><tag k="xyz" v="1077_1328_11"/></node><node lat="47.046455" lon="9.421722"  id="-5"  changeset="false" ><tag k="id" v="18044"/><tag k="amenity" v="toilets"/><tag k="descriptio" v="Vorplatz rechts vor der Kirche"/><tag k="municipali" v="Mels"/><tag k="name" v="Kirchplatz"/><tag k="toilets_po" v="seated"/><tag k="wc_guide_i" v="18044"/><tag k="Cluster_ID" v="2"/><tag k="xyz" v="1077_1328_11"/></node><node lat="47.091782" lon="9.342395"  id="-6"  changeset="false" ><tag k="id" v="18698"/><tag k="amenity" v="toilets"/><tag k="municipali" v="Flums"/><tag k="name" v="Postplatz"/><tag k="toilets_po" v="seated"/><tag k="wc_guide_i" v="18698"/><tag k="Cluster_ID" v="2"/><tag k="xyz" v="1077_1328_11"/></node><node lat="47.046543" lon="9.42167"  id="-7"  changeset="false" ><tag k="id" v="20467"/><tag k="amenity" v="toilets"/><tag k="municipali" v="Mels"/><tag k="name" v="Vorplatz rechts vom Kircheneingang"/><tag k="toilets_po" v="seated"/><tag k="wc_guide_i" v="20467"/><tag k="Cluster_ID" v="2"/><tag k="xyz" v="1077_1328_11"/></node></osm>