<?xml version="1.0" encoding="UTF-8"?><osm version="0.6" generator="https://github.com/Rub21/geojson2osm"><node lat="47.31081" lon="7.897357"  id="-1"  changeset="false" ><tag k="id" v="949"/><tag k="amenity" v="toilets"/><tag k="municipali" v="Rothrist"/><tag k="toilets_po" v="seated"/><tag k="wc_guide_i" v="949"/><tag k="website" v="https://www.moebel-hubacher.ch/restaurant-moebel-hubacher"/><tag k="Cluster_ID" v="46"/><tag k="xyz" v="1068_1330_11"/></node><node lat="47.318054" lon="7.803512"  id="-2"  changeset="false" ><tag k="id" v="951"/><tag k="amenity" v="toilets"/><tag k="municipali" v="Egerkingen"/><tag k="name" v="Einkaufszentrum G�upark Coop"/><tag k="toilets_po" v="seated"/><tag k="wc_guide_i" v="951"/><tag k="Cluster_ID" v="46"/><tag k="xyz" v="1068_1330_11"/></node><node lat="47.316658" lon="7.803383"  id="-3"  changeset="false" ><tag k="id" v="952"/><tag k="amenity" v="toilets"/><tag k="municipali" v="Egerkingen"/><tag k="toilets_po" v="seated"/><tag k="wc_guide_i" v="952"/><tag k="Cluster_ID" v="46"/><tag k="xyz" v="1068_1330_11"/></node><node lat="47.317757" lon="7.802396"  id="-4"  changeset="false" ><tag k="id" v="1198"/><tag k="amenity" v="toilets"/><tag k="descriptio" v="Im EG und OG"/><tag k="municipali" v="Egerkingen"/><tag k="name" v="G�u Park"/><tag k="toilets_po" v="seated"/><tag k="wc_guide_i" v="1198"/><tag k="Cluster_ID" v="46"/><tag k="xyz" v="1068_1330_11"/></node><node lat="47.35128" lon="7.892604"  id="-5"  changeset="false" ><tag k="id" v="1398"/><tag k="amenity" v="toilets"/><tag k="descriptio" v="Ist meistens geschlossen"/><tag k="municipali" v="Olten"/><tag k="name" v="Bushaltestelle"/><tag k="toilets_po" v="seated"/><tag k="wc_guide_i" v="1398"/><tag k="Cluster_ID" v="46"/><tag k="xyz" v="1068_1330_11"/></node><node lat="47.350025" lon="7.901831"  id="-6"  changeset="false" ><tag k="id" v="1756"/><tag k="amenity" v="toilets"/><tag k="municipali" v="Olten"/><tag k="name" v="Munzingerplatz"/><tag k="toilets_po" v="urinal"/><tag k="wc_guide_i" v="1756"/><tag k="Cluster_ID" v="46"/><tag k="xyz" v="1068_1330_11"/></node><node lat="47.354553" lon="7.901917"  id="-7"  changeset="false" ><tag k="id" v="1958"/><tag k="amenity" v="toilets"/><tag k="municipali" v="Olten"/><tag k="name" v="Stadtpark"/><tag k="toilets_po" v="seated"/><tag k="wc_guide_i" v="1958"/><tag k="Cluster_ID" v="46"/><tag k="xyz" v="1068_1330_11"/></node><node lat="47.341148" lon="7.767291"  id="-8"  changeset="false" ><tag k="id" v="2033"/><tag k="amenity" v="toilets"/><tag k="municipali" v="Holderbank"/><tag k="name" v="Solarbobbahn"/><tag k="toilets_po" v="seated"/><tag k="wc_guide_i" v="2033"/><tag k="Cluster_ID" v="46"/><tag k="xyz" v="1068_1330_11"/></node><node lat="47.283306" lon="7.754384"  id="-9"  changeset="false" ><tag k="id" v="2306"/><tag k="amenity" v="toilets"/><tag k="descriptio" v="an Hauptstrasse liegend"/><tag k="municipali" v="Kestenholz"/><tag k="name" v="Pfarreiheim"/><tag k="toilets_po" v="seated"/><tag k="wc_guide_i" v="2306"/><tag k="Cluster_ID" v="46"/><tag k="xyz" v="1068_1330_11"/></node><node lat="47.320606" lon="7.898848"  id="-10"  changeset="false" ><tag k="id" v="2676"/><tag k="amenity" v="toilets"/><tag k="descriptio" v="beim Lifteingang zur Kirche"/><tag k="municipali" v="Aarburg"/><tag k="name" v="St�dtchen"/><tag k="toilets_po" v="seated"/><tag k="wc_guide_i" v="2676"/><tag k="Cluster_ID" v="46"/><tag k="xyz" v="1068_1330_11"/></node><node lat="47.312553" lon="7.766768"  id="-11"  changeset="false" ><tag k="id" v="3406"/><tag k="amenity" v="toilets"/><tag k="municipali" v="Oberbuchsiten"/><tag k="name" v="Friedhof"/><tag k="toilets_po" v="seated"/><tag k="wc_guide_i" v="3406"/><tag k="Cluster_ID" v="46"/><tag k="xyz" v="1068_1330_11"/></node><node lat="47.392217" lon="7.856261"  id="-12"  changeset="false" ><tag k="id" v="4481"/><tag k="amenity" v="toilets"/><tag k="municipali" v="L�ufelfingen"/><tag k="name" v="Bahnhof L�utelfingen"/><tag k="toilets_po" v="seated"/><tag k="wc_guide_i" v="4481"/><tag k="Cluster_ID" v="46"/><tag k="xyz" v="1068_1330_11"/></node><node lat="47.30563" lon="7.889086"  id="-13"  changeset="false" ><tag k="id" v="4521"/><tag k="amenity" v="toilets"/><tag k="municipali" v="Rothrist"/><tag k="name" v="Coop Unterf�hrung"/><tag k="toilets_po" v="seated"/><tag k="wc_guide_i" v="4521"/><tag k="Cluster_ID" v="46"/><tag k="xyz" v="1068_1330_11"/></node><node lat="47.309322" lon="7.818796"  id="-14"  changeset="false" ><tag k="id" v="4629"/><tag k="amenity" v="toilets"/><tag k="municipali" v="H�rkingen"/><tag k="name" v="altes gemeindehaus h�rkingen"/><tag k="toilets_po" v="seated"/><tag k="wc_guide_i" v="4629"/><tag k="Cluster_ID" v="46"/><tag k="xyz" v="1068_1330_11"/></node><node lat="47.306141" lon="7.880312"  id="-15"  changeset="false" ><tag k="id" v="16500"/><tag k="amenity" v="toilets"/><tag k="municipali" v="Rothrist"/><tag k="name" v="Bahnhof Rothrist"/><tag k="toilets_po" v="seated"/><tag k="wc_guide_i" v="16500"/><tag k="Cluster_ID" v="46"/><tag k="xyz" v="1068_1330_11"/></node><node lat="47.335629" lon="7.827713"  id="-16"  changeset="false" ><tag k="id" v="19117"/><tag k="amenity" v="toilets"/><tag k="municipali" v="H�gendorf"/><tag k="name" v="Rastplatz Eggberg"/><tag k="toilets_po" v="seated"/><tag k="wc_guide_i" v="19117"/><tag k="Cluster_ID" v="46"/><tag k="xyz" v="1068_1330_11"/></node><node lat="47.302361" lon="7.795471"  id="-17"  changeset="false" ><tag k="id" v="19193"/><tag k="amenity" v="toilets"/><tag k="descriptio" v="Beschr�nkte �ffnungszeiten"/><tag k="municipali" v="Neuendorf"/><tag k="name" v="Friedhof"/><tag k="toilets_po" v="seated"/><tag k="wc_guide_i" v="19193"/><tag k="Cluster_ID" v="46"/><tag k="xyz" v="1068_1330_11"/></node><node lat="47.381725" lon="7.74711"  id="-18"  changeset="false" ><tag k="id" v="19343"/><tag k="amenity" v="toilets"/><tag k="municipali" v="Waldenburg"/><tag k="toilets_po" v="seated"/><tag k="wc_guide_i" v="19343"/><tag k="Cluster_ID" v="46"/><tag k="xyz" v="1068_1330_11"/></node><node lat="47.385601" lon="7.749101"  id="-19"  changeset="false" ><tag k="id" v="19344"/><tag k="amenity" v="toilets"/><tag k="municipali" v="Waldenburg"/><tag k="name" v="Friedhof"/><tag k="toilets_po" v="seated"/><tag k="wc_guide_i" v="19344"/><tag k="Cluster_ID" v="46"/><tag k="xyz" v="1068_1330_11"/></node><node lat="47.305695" lon="7.889055"  id="-20"  changeset="false" ><tag k="id" v="20423"/><tag k="amenity" v="toilets"/><tag k="municipali" v="Rothrist"/><tag k="name" v="Unterf�hrung Coop / Post"/><tag k="toilets_po" v="seated"/><tag k="wc_guide_i" v="20423"/><tag k="Cluster_ID" v="46"/><tag k="xyz" v="1068_1330_11"/></node></osm>