<?xml version="1.0" encoding="UTF-8"?><osm version="0.6" generator="https://github.com/Rub21/geojson2osm"><node lat="47.486729" lon="8.20889"  id="-1"  changeset="false" ><tag k="id" v="802"/><tag k="amenity" v="toilets"/><tag k="municipali" v="Brugg"/><tag k="toilets_po" v="seated"/><tag k="wc_guide_i" v="802"/><tag k="Cluster_ID" v="28"/><tag k="xyz" v="1070_1331_11"/></node><node lat="47.491978" lon="8.252965"  id="-2"  changeset="false" ><tag k="id" v="1130"/><tag k="amenity" v="toilets"/><tag k="municipali" v="Turgi"/><tag k="name" v="Bahnhof"/><tag k="toilets_po" v="seated"/><tag k="wc_guide_i" v="1130"/><tag k="Cluster_ID" v="28"/><tag k="xyz" v="1070_1331_11"/></node><node lat="47.416279" lon="8.168176"  id="-3"  changeset="false" ><tag k="id" v="1208"/><tag k="amenity" v="toilets"/><tag k="municipali" v="Wildegg"/><tag k="name" v="Bahnhof"/><tag k="toilets_po" v="seated"/><tag k="wc_guide_i" v="1208"/><tag k="Cluster_ID" v="28"/><tag k="xyz" v="1070_1331_11"/></node><node lat="47.420776" lon="8.170701"  id="-4"  changeset="false" ><tag k="id" v="1212"/><tag k="amenity" v="toilets"/><tag k="municipali" v="M�riken-Wildegg"/><tag k="name" v="Schloss"/><tag k="toilets_po" v="seated"/><tag k="wc_guide_i" v="1212"/><tag k="Cluster_ID" v="28"/><tag k="xyz" v="1070_1331_11"/></node><node lat="47.486324" lon="8.206691"  id="-5"  changeset="false" ><tag k="id" v="1299"/><tag k="amenity" v="toilets"/><tag k="descriptio" v="Eine kleine Stufe, Eingang zu eng f�r Rollstuhl"/><tag k="municipali" v="Brugg"/><tag k="toilets_po" v="seated"/><tag k="wc_guide_i" v="1299"/><tag k="Cluster_ID" v="28"/><tag k="xyz" v="1070_1331_11"/></node><node lat="47.481621" lon="8.209737"  id="-6"  changeset="false" ><tag k="id" v="1582"/><tag k="amenity" v="toilets"/><tag k="municipali" v="Windisch"/><tag k="name" v="Bahnhof"/><tag k="toilets_po" v="seated"/><tag k="wc_guide_i" v="1582"/><tag k="Cluster_ID" v="28"/><tag k="xyz" v="1070_1331_11"/></node><node lat="47.483097" lon="8.20168"  id="-7"  changeset="false" ><tag k="id" v="1587"/><tag k="amenity" v="toilets"/><tag k="municipali" v="Brugg"/><tag k="name" v="Spielplatz Sch�negg"/><tag k="toilets_po" v="seated"/><tag k="wc_guide_i" v="1587"/><tag k="Cluster_ID" v="28"/><tag k="xyz" v="1070_1331_11"/></node><node lat="47.437321" lon="8.216538"  id="-8"  changeset="false" ><tag k="id" v="2798"/><tag k="amenity" v="toilets"/><tag k="municipali" v="Birr"/><tag k="name" v="Bahnhof WC"/><tag k="toilets_po" v="seated"/><tag k="wc_guide_i" v="2798"/><tag k="Cluster_ID" v="28"/><tag k="xyz" v="1070_1331_11"/></node><node lat="47.403236" lon="8.127158"  id="-9"  changeset="false" ><tag k="id" v="3202"/><tag k="amenity" v="toilets"/><tag k="descriptio" v="Kostenpflichtig 1.- M�nzautomat"/><tag k="municipali" v="Rupperswil"/><tag k="name" v="Bahnhof"/><tag k="toilets_po" v="seated"/><tag k="wc_guide_i" v="3202"/><tag k="Cluster_ID" v="28"/><tag k="xyz" v="1070_1331_11"/></node><node lat="47.414906" lon="8.163003"  id="-10"  changeset="false" ><tag k="id" v="3203"/><tag k="amenity" v="toilets"/><tag k="municipali" v="M�riken-Wildegg"/><tag k="name" v="Bahnhof"/><tag k="toilets_po" v="seated"/><tag k="wc_guide_i" v="3203"/><tag k="Cluster_ID" v="28"/><tag k="xyz" v="1070_1331_11"/></node><node lat="47.484112" lon="8.23796"  id="-11"  changeset="false" ><tag k="id" v="4455"/><tag k="amenity" v="toilets"/><tag k="municipali" v="Gebenstorf"/><tag k="name" v="Friedhof Gebenstorf"/><tag k="toilets_po" v="seated"/><tag k="wc_guide_i" v="4455"/><tag k="Cluster_ID" v="28"/><tag k="xyz" v="1070_1331_11"/></node><node lat="47.416092" lon="8.182574"  id="-12"  changeset="false" ><tag k="id" v="16748"/><tag k="amenity" v="toilets"/><tag k="municipali" v="M�riken-Wildegg"/><tag k="toilets_po" v="seated"/><tag k="wc_guide_i" v="16748"/><tag k="Cluster_ID" v="28"/><tag k="xyz" v="1070_1331_11"/></node><node lat="47.412563" lon="8.159852"  id="-13"  changeset="false" ><tag k="id" v="19126"/><tag k="amenity" v="toilets"/><tag k="municipali" v="M�riken-Wildegg"/><tag k="name" v="Waschanlage"/><tag k="toilets_po" v="seated"/><tag k="wc_guide_i" v="19126"/><tag k="Cluster_ID" v="28"/><tag k="xyz" v="1070_1331_11"/></node><node lat="47.433079" lon="8.198575"  id="-14"  changeset="false" ><tag k="id" v="19313"/><tag k="amenity" v="toilets"/><tag k="municipali" v="5242 Birr"/><tag k="name" v="Gemeindehaus Birr"/><tag k="toilets_po" v="seated"/><tag k="wc_guide_i" v="19313"/><tag k="Cluster_ID" v="28"/><tag k="xyz" v="1070_1331_11"/></node><node lat="47.449627" lon="8.214631"  id="-15"  changeset="false" ><tag k="id" v="19572"/><tag k="amenity" v="toilets"/><tag k="municipali" v="Lupfig"/><tag k="name" v="COOP Lupfig"/><tag k="toilets_po" v="seated"/><tag k="wc_guide_i" v="19572"/><tag k="Cluster_ID" v="28"/><tag k="xyz" v="1070_1331_11"/></node><node lat="47.481693" lon="8.208374"  id="-16"  changeset="false" ><tag k="id" v="19974"/><tag k="amenity" v="toilets"/><tag k="descriptio" v="Gem�ss Neumarkt 2"/><tag k="municipali" v="Brugg AG"/><tag k="name" v="Neumarkt 2"/><tag k="toilets_po" v="seated"/><tag k="wc_guide_i" v="19974"/><tag k="Cluster_ID" v="28"/><tag k="xyz" v="1070_1331_11"/></node><node lat="47.410168" lon="8.223219"  id="-17"  changeset="false" ><tag k="id" v="20199"/><tag k="amenity" v="toilets"/><tag k="municipali" v="5506 M�genwil"/><tag k="name" v="Gewerbepark M�genwil"/><tag k="toilets_po" v="seated"/><tag k="wc_guide_i" v="20199"/><tag k="Cluster_ID" v="28"/><tag k="xyz" v="1070_1331_11"/></node><node lat="47.480473" lon="8.22538"  id="-18"  changeset="false" ><tag k="id" v="20801"/><tag k="amenity" v="toilets"/><tag k="descriptio" v="Vermutlich nur w�hrend der Badesaison ge�ffnet."/><tag k="municipali" v="Gebenstorf"/><tag k="name" v="Reussb�dli"/><tag k="toilets_po" v="seated"/><tag k="wc_guide_i" v="20801"/><tag k="Cluster_ID" v="28"/><tag k="xyz" v="1070_1331_11"/></node></osm>