<?xml version="1.0" encoding="UTF-8"?><osm version="0.6" generator="https://github.com/Rub21/geojson2osm"><node lat="47.465164" lon="8.760266"  id="-1"  changeset="false" ><tag k="id" v="529"/><tag k="amenity" v="toilets"/><tag k="municipali" v="Winterthur / Sennhof"/><tag k="name" v="Stationsgeb�ude / G�terschuppen"/><tag k="toilets_po" v="seated"/><tag k="wc_guide_i" v="529"/><tag k="Cluster_ID" v="40"/><tag k="xyz" v="1073_1331_11"/></node><node lat="47.500504" lon="8.724239"  id="-2"  changeset="false" ><tag k="id" v="530"/><tag k="amenity" v="toilets"/><tag k="municipali" v="Winterthur"/><tag k="name" v="Bahnhofareal, freistehendes H�uschen"/><tag k="toilets_po" v="seated"/><tag k="wc_guide_i" v="530"/><tag k="Cluster_ID" v="40"/><tag k="xyz" v="1073_1331_11"/></node><node lat="47.506447" lon="8.681098"  id="-3"  changeset="false" ><tag k="id" v="531"/><tag k="amenity" v="toilets"/><tag k="municipali" v="Winterthur"/><tag k="name" v="Bahnareal Nebengeb�ude"/><tag k="toilets_po" v="seated"/><tag k="wc_guide_i" v="531"/><tag k="Cluster_ID" v="40"/><tag k="xyz" v="1073_1331_11"/></node><node lat="47.445534" lon="8.631646"  id="-4"  changeset="false" ><tag k="id" v="1204"/><tag k="amenity" v="toilets"/><tag k="municipali" v="Bassersdorf"/><tag k="name" v="bahnhof"/><tag k="toilets_po" v="seated"/><tag k="wc_guide_i" v="1204"/><tag k="Cluster_ID" v="40"/><tag k="xyz" v="1073_1331_11"/></node><node lat="47.432156" lon="8.619225"  id="-5"  changeset="false" ><tag k="id" v="1221"/><tag k="amenity" v="toilets"/><tag k="descriptio" v="Nicht mit dem Auto zu erreichen!"/><tag k="municipali" v="Dietlikon"/><tag k="name" v="WC bei den Familieng�rten"/><tag k="toilets_po" v="seated"/><tag k="wc_guide_i" v="1221"/><tag k="Cluster_ID" v="40"/><tag k="xyz" v="1073_1331_11"/></node><node lat="47.422955" lon="8.654096"  id="-6"  changeset="false" ><tag k="id" v="1430"/><tag k="amenity" v="toilets"/><tag k="municipali" v="Bassersdorf"/><tag k="name" v="Autobahnrastst�tte"/><tag k="toilets_po" v="seated"/><tag k="wc_guide_i" v="1430"/><tag k="Cluster_ID" v="40"/><tag k="xyz" v="1073_1331_11"/></node><node lat="47.438755" lon="8.626153"  id="-7"  changeset="false" ><tag k="id" v="1990"/><tag k="amenity" v="toilets"/><tag k="municipali" v="Bassersdorf"/><tag k="name" v="Shop im Bahnhof"/><tag k="toilets_po" v="seated"/><tag k="wc_guide_i" v="1990"/><tag k="Cluster_ID" v="40"/><tag k="xyz" v="1073_1331_11"/></node><node lat="47.513985" lon="8.697138"  id="-8"  changeset="false" ><tag k="id" v="2050"/><tag k="amenity" v="toilets"/><tag k="municipali" v="Winterthur W�lflingen"/><tag k="name" v="Friedhof W�lflingen"/><tag k="toilets_po" v="seated"/><tag k="wc_guide_i" v="2050"/><tag k="Cluster_ID" v="40"/><tag k="xyz" v="1073_1331_11"/></node><node lat="47.425575" lon="8.693432"  id="-9"  changeset="false" ><tag k="id" v="3243"/><tag k="amenity" v="toilets"/><tag k="municipali" v="Illnau-Effretikon"/><tag k="name" v="Friedhof Effretikon"/><tag k="toilets_po" v="seated"/><tag k="wc_guide_i" v="3243"/><tag k="Cluster_ID" v="40"/><tag k="xyz" v="1073_1331_11"/></node><node lat="47.473026" lon="8.675905"  id="-10"  changeset="false" ><tag k="id" v="3244"/><tag k="amenity" v="toilets"/><tag k="descriptio" v="Zum Teil geschlossen"/><tag k="municipali" v="Br�tten"/><tag k="name" v="Br�tten Gemeinde"/><tag k="toilets_po" v="seated"/><tag k="wc_guide_i" v="3244"/><tag k="Cluster_ID" v="40"/><tag k="xyz" v="1073_1331_11"/></node><node lat="47.458645" lon="8.774149"  id="-11"  changeset="false" ><tag k="id" v="3246"/><tag k="amenity" v="toilets"/><tag k="municipali" v="Bahnhof"/><tag k="name" v="Bahnhof Kollbrunn"/><tag k="toilets_po" v="seated"/><tag k="wc_guide_i" v="3246"/><tag k="Cluster_ID" v="40"/><tag k="xyz" v="1073_1331_11"/></node><node lat="47.409519" lon="8.722236"  id="-12"  changeset="false" ><tag k="id" v="4331"/><tag k="amenity" v="toilets"/><tag k="municipali" v="Illnau-Effretikon"/><tag k="name" v="Bahnhof Illnau"/><tag k="toilets_po" v="seated"/><tag k="wc_guide_i" v="4331"/><tag k="Cluster_ID" v="40"/><tag k="xyz" v="1073_1331_11"/></node><node lat="47.516163" lon="8.646373"  id="-13"  changeset="false" ><tag k="id" v="4549"/><tag k="amenity" v="toilets"/><tag k="descriptio" v="Kiosk Schl�ssel verlangen"/><tag k="municipali" v="Pfungen"/><tag k="name" v="Bahnhof"/><tag k="toilets_po" v="seated"/><tag k="wc_guide_i" v="4549"/><tag k="Cluster_ID" v="40"/><tag k="xyz" v="1073_1331_11"/></node><node lat="47.499634" lon="8.723459"  id="-14"  changeset="false" ><tag k="id" v="16877"/><tag k="amenity" v="toilets"/><tag k="municipali" v="Winterthur"/><tag k="name" v="Im Coop oberste Etage"/><tag k="toilets_po" v="seated"/><tag k="wc_guide_i" v="16877"/><tag k="Cluster_ID" v="40"/><tag k="xyz" v="1073_1331_11"/></node><node lat="47.459915" lon="8.660526"  id="-15"  changeset="false" ><tag k="id" v="19930"/><tag k="amenity" v="toilets"/><tag k="municipali" v="Breiti"/><tag k="toilets_po" v="seated"/><tag k="wc_guide_i" v="19930"/><tag k="Cluster_ID" v="40"/><tag k="xyz" v="1073_1331_11"/></node><node lat="47.504711" lon="8.762521"  id="-16"  changeset="false" ><tag k="id" v="21044"/><tag k="amenity" v="toilets"/><tag k="municipali" v="Winterthur"/><tag k="name" v="Eulachpark"/><tag k="toilets_po" v="seated"/><tag k="wc_guide_i" v="21044"/><tag k="Cluster_ID" v="40"/><tag k="xyz" v="1073_1331_11"/></node></osm>