<?xml version="1.0" encoding="UTF-8"?><osm version="0.6" generator="https://github.com/Rub21/geojson2osm"><node lat="47.471302" lon="7.791581"  id="-1"  changeset="false" ><tag k="id" v="1574"/><tag k="amenity" v="toilets"/><tag k="municipali" v="Itingen"/><tag k="toilets_po" v="urinal"/><tag k="wc_guide_i" v="1574"/><tag k="Cluster_ID" v="41"/><tag k="xyz" v="1068_1331_11"/></node><node lat="47.462696" lon="7.812072"  id="-2"  changeset="false" ><tag k="id" v="1607"/><tag k="amenity" v="toilets"/><tag k="municipali" v="Sissach"/><tag k="name" v="Bahnhof Sissach"/><tag k="toilets_po" v="seated"/><tag k="wc_guide_i" v="1607"/><tag k="Cluster_ID" v="41"/><tag k="xyz" v="1068_1331_11"/></node><node lat="47.505314" lon="7.866414"  id="-3"  changeset="false" ><tag k="id" v="3959"/><tag k="amenity" v="toilets"/><tag k="municipali" v="Buus"/><tag k="name" v="Friedhof Buus"/><tag k="toilets_po" v="seated"/><tag k="wc_guide_i" v="3959"/><tag k="Cluster_ID" v="41"/><tag k="xyz" v="1068_1331_11"/></node><node lat="47.466728" lon="7.807169"  id="-4"  changeset="false" ><tag k="id" v="4326"/><tag k="amenity" v="toilets"/><tag k="municipali" v="Sissach"/><tag k="name" v="Friedhof"/><tag k="toilets_po" v="seated"/><tag k="wc_guide_i" v="4326"/><tag k="Cluster_ID" v="41"/><tag k="xyz" v="1068_1331_11"/></node><node lat="47.453674" lon="7.736982"  id="-5"  changeset="false" ><tag k="id" v="16399"/><tag k="amenity" v="toilets"/><tag k="municipali" v="Bubendorf"/><tag k="name" v="Coop Supermarkt 1. Stock"/><tag k="toilets_po" v="seated"/><tag k="wc_guide_i" v="16399"/><tag k="Cluster_ID" v="41"/><tag k="xyz" v="1068_1331_11"/></node><node lat="47.483364" lon="7.738808"  id="-6"  changeset="false" ><tag k="id" v="16487"/><tag k="amenity" v="toilets"/><tag k="municipali" v="Liestal"/><tag k="name" v="Friedhof"/><tag k="toilets_po" v="seated"/><tag k="wc_guide_i" v="16487"/><tag k="Cluster_ID" v="41"/><tag k="xyz" v="1068_1331_11"/></node><node lat="47.425903" lon="7.899104"  id="-7"  changeset="false" ><tag k="id" v="18465"/><tag k="amenity" v="toilets"/><tag k="descriptio" v="F�r Kirchg�nger und Besucher des Friedhofs"/><tag k="municipali" v="Kilchberg (BL)"/><tag k="name" v="Friedhof"/><tag k="toilets_po" v="seated"/><tag k="wc_guide_i" v="18465"/><tag k="Cluster_ID" v="41"/><tag k="xyz" v="1068_1331_11"/></node><node lat="47.399521" lon="7.749186"  id="-8"  changeset="false" ><tag k="id" v="19102"/><tag k="amenity" v="toilets"/><tag k="municipali" v="Oberdorf (BL)"/><tag k="name" v="Friedhof"/><tag k="toilets_po" v="seated"/><tag k="wc_guide_i" v="19102"/><tag k="Cluster_ID" v="46"/><tag k="xyz" v="1068_1331_11"/></node><node lat="47.445839" lon="7.88764"  id="-9"  changeset="false" ><tag k="id" v="20078"/><tag k="amenity" v="toilets"/><tag k="municipali" v="Tecknau"/><tag k="name" v="Bahnhof"/><tag k="toilets_po" v="seated"/><tag k="wc_guide_i" v="20078"/><tag k="Cluster_ID" v="41"/><tag k="xyz" v="1068_1331_11"/></node><node lat="47.422291" lon="7.770419"  id="-10"  changeset="false" ><tag k="id" v="20489"/><tag k="amenity" v="toilets"/><tag k="municipali" v="H�lstein"/><tag k="name" v="Kirche"/><tag k="toilets_po" v="seated"/><tag k="wc_guide_i" v="20489"/><tag k="Cluster_ID" v="41"/><tag k="xyz" v="1068_1331_11"/></node><node lat="47.442474" lon="7.761056"  id="-11"  changeset="false" ><tag k="id" v="20702"/><tag k="amenity" v="toilets"/><tag k="municipali" v="H�lstein"/><tag k="name" v="Station Lampenberg (BLT)"/><tag k="toilets_po" v="seated"/><tag k="wc_guide_i" v="20702"/><tag k="Cluster_ID" v="41"/><tag k="xyz" v="1068_1331_11"/></node><node lat="47.42588" lon="7.899092"  id="-12"  changeset="false" ><tag k="id" v="20825"/><tag k="amenity" v="toilets"/><tag k="municipali" v="Oltingen"/><tag k="name" v="Friedhof"/><tag k="toilets_po" v="seated"/><tag k="wc_guide_i" v="20825"/><tag k="Cluster_ID" v="41"/><tag k="xyz" v="1068_1331_11"/></node></osm>