<?xml version="1.0" encoding="UTF-8"?><osm version="0.6" generator="https://github.com/Rub21/geojson2osm"><node lat="47.312134" lon="7.91212"  id="-1"  changeset="false" ><tag k="id" v="950"/><tag k="amenity" v="toilets"/><tag k="municipali" v="Oftringen"/><tag k="name" v="Perry Center"/><tag k="toilets_po" v="seated"/><tag k="wc_guide_i" v="950"/><tag k="Cluster_ID" v="46"/><tag k="xyz" v="1069_1330_11"/></node><node lat="47.305317" lon="8.050178"  id="-2"  changeset="false" ><tag k="id" v="1197"/><tag k="amenity" v="toilets"/><tag k="descriptio" v="kleine Abstufung (1,2 Tritte)"/><tag k="municipali" v="Sch�ftland"/><tag k="name" v="Gegen�ber WSB Bahnhof"/><tag k="toilets_po" v="seated"/><tag k="wc_guide_i" v="1197"/><tag k="Cluster_ID" v="46"/><tag k="xyz" v="1069_1330_11"/></node><node lat="47.305321" lon="8.050169"  id="-3"  changeset="false" ><tag k="id" v="1471"/><tag k="amenity" v="toilets"/><tag k="descriptio" v="WC nicht auf neustem Stand! Mit Kleiner Heizung im Winter."/><tag k="municipali" v="Sch�ftland"/><tag k="name" v="WSB Bahnhof"/><tag k="toilets_po" v="seated"/><tag k="wc_guide_i" v="1471"/><tag k="Cluster_ID" v="46"/><tag k="xyz" v="1069_1330_11"/></node><node lat="47.38147" lon="8.081131"  id="-4"  changeset="false" ><tag k="id" v="1629"/><tag k="amenity" v="toilets"/><tag k="municipali" v="Suhr"/><tag k="toilets_po" v="seated"/><tag k="wc_guide_i" v="1629"/><tag k="Cluster_ID" v="28"/><tag k="xyz" v="1069_1330_11"/></node><node lat="47.350368" lon="7.943405"  id="-5"  changeset="false" ><tag k="id" v="1912"/><tag k="amenity" v="toilets"/><tag k="descriptio" v="Im Friedhofgel�nde"/><tag k="municipali" v="Dulliken"/><tag k="name" v="Friedhof"/><tag k="toilets_po" v="seated"/><tag k="wc_guide_i" v="1912"/><tag k="Cluster_ID" v="46"/><tag k="xyz" v="1069_1330_11"/></node><node lat="47.312149" lon="7.9217"  id="-6"  changeset="false" ><tag k="id" v="2614"/><tag k="amenity" v="toilets"/><tag k="descriptio" v="WC im UG/Tiefgarage Eingang zu L�den"/><tag k="municipali" v="Oftringen"/><tag k="name" v="Migros"/><tag k="toilets_po" v="seated"/><tag k="wc_guide_i" v="2614"/><tag k="Cluster_ID" v="46"/><tag k="xyz" v="1069_1330_11"/></node><node lat="47.284939" lon="8.005099"  id="-7"  changeset="false" ><tag k="id" v="2974"/><tag k="amenity" v="toilets"/><tag k="descriptio" v="Immer offen"/><tag k="municipali" v="Bottenwil"/><tag k="name" v="Gemeinde"/><tag k="toilets_po" v="seated"/><tag k="wc_guide_i" v="2974"/><tag k="Cluster_ID" v="46"/><tag k="xyz" v="1069_1330_11"/></node><node lat="47.329735" lon="8.030019"  id="-8"  changeset="false" ><tag k="id" v="3025"/><tag k="amenity" v="toilets"/><tag k="municipali" v="K�lliken"/><tag k="name" v="Autobahn Rastst�tte"/><tag k="toilets_po" v="seated"/><tag k="wc_guide_i" v="3025"/><tag k="Cluster_ID" v="46"/><tag k="xyz" v="1069_1330_11"/></node><node lat="47.38147" lon="8.081131"  id="-9"  changeset="false" ><tag k="id" v="3143"/><tag k="amenity" v="toilets"/><tag k="descriptio" v="Nur in der Bad-Saison zug�nglich."/><tag k="municipali" v="Suhr"/><tag k="name" v="Schwimmbad"/><tag k="toilets_po" v="seated"/><tag k="wc_guide_i" v="3143"/><tag k="Cluster_ID" v="28"/><tag k="xyz" v="1069_1330_11"/></node><node lat="47.283199" lon="8.004669"  id="-10"  changeset="false" ><tag k="id" v="3837"/><tag k="amenity" v="toilets"/><tag k="municipali" v="Bottenwil"/><tag k="name" v="Friedhof"/><tag k="toilets_po" v="seated"/><tag k="wc_guide_i" v="3837"/><tag k="Cluster_ID" v="46"/><tag k="xyz" v="1069_1330_11"/></node><node lat="47.371513" lon="8.082247"  id="-11"  changeset="false" ><tag k="id" v="4052"/><tag k="amenity" v="toilets"/><tag k="descriptio" v="Von der Gemeinde Suhr gef�hrt, im neuen Bahnhofgeb�ude"/><tag k="municipali" v="Suhr"/><tag k="name" v="Bahnhof Suhr"/><tag k="toilets_po" v="seated"/><tag k="wc_guide_i" v="4052"/><tag k="Cluster_ID" v="28"/><tag k="xyz" v="1069_1330_11"/></node><node lat="47.324013" lon="8.022339"  id="-12"  changeset="false" ><tag k="id" v="4167"/><tag k="amenity" v="toilets"/><tag k="descriptio" v="Autobahnrastst�tte! Auch von der Hauptstrasse erreichbar."/><tag k="municipali" v="K�lliken"/><tag k="toilets_po" v="seated"/><tag k="wc_guide_i" v="4167"/><tag k="Cluster_ID" v="46"/><tag k="xyz" v="1069_1330_11"/></node><node lat="47.336391" lon="8.025896"  id="-13"  changeset="false" ><tag k="id" v="4609"/><tag k="amenity" v="toilets"/><tag k="municipali" v="K�lliken"/><tag k="name" v="Friedhof K�lliken"/><tag k="toilets_po" v="seated"/><tag k="wc_guide_i" v="4609"/><tag k="Cluster_ID" v="46"/><tag k="xyz" v="1069_1330_11"/></node><node lat="47.398228" lon="8.059048"  id="-14"  changeset="false" ><tag k="id" v="4695"/><tag k="amenity" v="toilets"/><tag k="municipali" v="Aarau"/><tag k="name" v="Einkaufszentrum Telli"/><tag k="toilets_po" v="seated"/><tag k="wc_guide_i" v="4695"/><tag k="Cluster_ID" v="28"/><tag k="xyz" v="1069_1330_11"/></node><node lat="47.354507" lon="7.98545"  id="-15"  changeset="false" ><tag k="id" v="16571"/><tag k="amenity" v="toilets"/><tag k="municipali" v="D�niken"/><tag k="name" v="Grundstrasse 6"/><tag k="toilets_po" v="seated"/><tag k="wc_guide_i" v="16571"/><tag k="Cluster_ID" v="46"/><tag k="xyz" v="1069_1330_11"/></node><node lat="47.391556" lon="8.045975"  id="-16"  changeset="false" ><tag k="id" v="16713"/><tag k="amenity" v="toilets"/><tag k="municipali" v="Aarau"/><tag k="toilets_po" v="seated"/><tag k="wc_guide_i" v="16713"/><tag k="Cluster_ID" v="28"/><tag k="xyz" v="1069_1330_11"/></node><node lat="47.373844" lon="8.075093"  id="-17"  changeset="false" ><tag k="id" v="16886"/><tag k="amenity" v="toilets"/><tag k="municipali" v="Aarau"/><tag k="name" v="Friedhof"/><tag k="toilets_po" v="seated"/><tag k="wc_guide_i" v="16886"/><tag k="Cluster_ID" v="28"/><tag k="xyz" v="1069_1330_11"/></node><node lat="47.349407" lon="7.921715"  id="-18"  changeset="false" ><tag k="id" v="18358"/><tag k="amenity" v="toilets"/><tag k="municipali" v="Olten"/><tag k="toilets_po" v="seated"/><tag k="wc_guide_i" v="18358"/><tag k="Cluster_ID" v="46"/><tag k="xyz" v="1069_1330_11"/></node><node lat="47.393646" lon="8.043517"  id="-19"  changeset="false" ><tag k="id" v="19292"/><tag k="amenity" v="toilets"/><tag k="municipali" v="Aarau"/><tag k="name" v="Nette Toilette"/><tag k="toilets_po" v="seated"/><tag k="wc_guide_i" v="19292"/><tag k="website" v="https://www.heartbeat-aarau.ch/detail/restaurant-speck-aarau"/><tag k="Cluster_ID" v="28"/><tag k="xyz" v="1069_1330_11"/></node><node lat="47.39352" lon="8.044071"  id="-20"  changeset="false" ><tag k="id" v="19294"/><tag k="amenity" v="toilets"/><tag k="municipali" v="Aarau"/><tag k="name" v="Nette Toilette"/><tag k="toilets_po" v="seated"/><tag k="wc_guide_i" v="19294"/><tag k="website" v="https://www.bindella.ch/de/spaghetti-factory-salmen.html"/><tag k="Cluster_ID" v="28"/><tag k="xyz" v="1069_1330_11"/></node><node lat="47.39241" lon="8.044602"  id="-21"  changeset="false" ><tag k="id" v="19295"/><tag k="amenity" v="toilets"/><tag k="municipali" v="Aarau"/><tag k="name" v="Nette Toilette"/><tag k="toilets_po" v="seated"/><tag k="wc_guide_i" v="19295"/><tag k="Cluster_ID" v="28"/><tag k="xyz" v="1069_1330_11"/></node><node lat="47.389267" lon="8.046779"  id="-22"  changeset="false" ><tag k="id" v="19296"/><tag k="amenity" v="toilets"/><tag k="municipali" v="Aarau"/><tag k="name" v="Nette Toilette"/><tag k="toilets_po" v="seated"/><tag k="wc_guide_i" v="19296"/><tag k="Cluster_ID" v="28"/><tag k="xyz" v="1069_1330_11"/></node><node lat="47.392773" lon="8.043892"  id="-23"  changeset="false" ><tag k="id" v="19297"/><tag k="amenity" v="toilets"/><tag k="municipali" v="Aarau"/><tag k="name" v="Nette Toilette"/><tag k="toilets_po" v="seated"/><tag k="wc_guide_i" v="19297"/><tag k="website" v="http://www.laterne-aarau.ch"/><tag k="Cluster_ID" v="28"/><tag k="xyz" v="1069_1330_11"/></node><node lat="47.365093" lon="7.952123"  id="-24"  changeset="false" ><tag k="id" v="19433"/><tag k="amenity" v="toilets"/><tag k="descriptio" v="WC beim Friedhof. Nicht immer offen."/><tag k="municipali" v="Oberg�sgen"/><tag k="toilets_po" v="seated"/><tag k="wc_guide_i" v="19433"/><tag k="Cluster_ID" v="46"/><tag k="xyz" v="1069_1330_11"/></node><node lat="47.389786" lon="8.069466"  id="-25"  changeset="false" ><tag k="id" v="19826"/><tag k="amenity" v="toilets"/><tag k="municipali" v="Buchs AG"/><tag k="name" v="Bahnhof Buchs"/><tag k="toilets_po" v="seated"/><tag k="wc_guide_i" v="19826"/><tag k="Cluster_ID" v="28"/><tag k="xyz" v="1069_1330_11"/></node><node lat="47.391312" lon="8.040903"  id="-26"  changeset="false" ><tag k="id" v="19981"/><tag k="amenity" v="toilets"/><tag k="municipali" v="Aarau"/><tag k="name" v="Nette Toilette"/><tag k="toilets_po" v="seated"/><tag k="wc_guide_i" v="19981"/><tag k="website" v="https://www.muerset.ch"/><tag k="Cluster_ID" v="28"/><tag k="xyz" v="1069_1330_11"/></node><node lat="47.392918" lon="8.046956"  id="-27"  changeset="false" ><tag k="id" v="19982"/><tag k="amenity" v="toilets"/><tag k="municipali" v="Aarau"/><tag k="name" v="Nette Toilette"/><tag k="toilets_po" v="seated"/><tag k="wc_guide_i" v="19982"/><tag k="website" v="https://www.kino-aarau.ch/"/><tag k="Cluster_ID" v="28"/><tag k="xyz" v="1069_1330_11"/></node><node lat="47.393963" lon="8.045113"  id="-28"  changeset="false" ><tag k="id" v="19983"/><tag k="amenity" v="toilets"/><tag k="municipali" v="Aarau"/><tag k="name" v="Nette Toilette"/><tag k="toilets_po" v="seated"/><tag k="wc_guide_i" v="19983"/><tag k="Cluster_ID" v="28"/><tag k="xyz" v="1069_1330_11"/></node><node lat="47.370743" lon="8.079533"  id="-29"  changeset="false" ><tag k="id" v="19992"/><tag k="amenity" v="toilets"/><tag k="municipali" v="Suhr"/><tag k="name" v="Pfister Center"/><tag k="toilets_po" v="seated"/><tag k="wc_guide_i" v="19992"/><tag k="Cluster_ID" v="28"/><tag k="xyz" v="1069_1330_11"/></node><node lat="47.317333" lon="7.982142"  id="-30"  changeset="false" ><tag k="id" v="20579"/><tag k="amenity" v="toilets"/><tag k="municipali" v="Safenwil"/><tag k="name" v="Friedhof"/><tag k="toilets_po" v="seated"/><tag k="wc_guide_i" v="20579"/><tag k="Cluster_ID" v="46"/><tag k="xyz" v="1069_1330_11"/></node><node lat="47.393761" lon="8.038844"  id="-31"  changeset="false" ><tag k="id" v="21099"/><tag k="amenity" v="toilets"/><tag k="municipali" v="Aarau"/><tag k="name" v="Nette Toilette"/><tag k="toilets_po" v="seated"/><tag k="wc_guide_i" v="21099"/><tag k="website" v="https://www.summertime-aarau.ch/"/><tag k="Cluster_ID" v="28"/><tag k="xyz" v="1069_1330_11"/></node></osm>