<?xml version="1.0" encoding="UTF-8"?><osm version="0.6" generator="https://github.com/Rub21/geojson2osm"><node lat="47.378361" lon="9.541311"  id="-1"  changeset="false" ><tag k="id" v="1144"/><tag k="amenity" v="toilets"/><tag k="municipali" v="Altst�tten"/><tag k="name" v="Bushaltestelle Rathaus"/><tag k="toilets_po" v="seated"/><tag k="wc_guide_i" v="1144"/><tag k="Cluster_ID" v="29"/><tag k="xyz" v="1078_1330_11"/></node><node lat="47.379101" lon="9.539046"  id="-2"  changeset="false" ><tag k="id" v="2243"/><tag k="amenity" v="toilets"/><tag k="municipali" v="Altst�tten"/><tag k="name" v="Parkplatz"/><tag k="toilets_po" v="seated"/><tag k="wc_guide_i" v="2243"/><tag k="Cluster_ID" v="29"/><tag k="xyz" v="1078_1330_11"/></node><node lat="47.384911" lon="9.654354"  id="-3"  changeset="false" ><tag k="id" v="2795"/><tag k="amenity" v="toilets"/><tag k="municipali" v="Diepoldsau"/><tag k="name" v="Friedhof"/><tag k="toilets_po" v="seated"/><tag k="wc_guide_i" v="2795"/><tag k="Cluster_ID" v="29"/><tag k="xyz" v="1078_1330_11"/></node><node lat="47.374214" lon="9.556534"  id="-4"  changeset="false" ><tag k="id" v="2932"/><tag k="amenity" v="toilets"/><tag k="municipali" v="Altst�tten"/><tag k="name" v="Bahnhof"/><tag k="toilets_po" v="seated"/><tag k="wc_guide_i" v="2932"/><tag k="Cluster_ID" v="29"/><tag k="xyz" v="1078_1330_11"/></node><node lat="47.366104" lon="9.619354"  id="-5"  changeset="false" ><tag k="id" v="4613"/><tag k="amenity" v="toilets"/><tag k="municipali" v="Schweiz"/><tag k="name" v="kriesern rastst�tte"/><tag k="toilets_po" v="seated"/><tag k="wc_guide_i" v="4613"/><tag k="Cluster_ID" v="29"/><tag k="xyz" v="1078_1330_11"/></node><node lat="47.384857" lon="9.657912"  id="-6"  changeset="false" ><tag k="id" v="21125"/><tag k="amenity" v="toilets"/><tag k="municipali" v="Diepoldsau"/><tag k="name" v="Kath. Friedhof Kirchenfeld"/><tag k="toilets_po" v="seated"/><tag k="wc_guide_i" v="21125"/><tag k="Cluster_ID" v="29"/><tag k="xyz" v="1078_1330_11"/></node><node lat="47.385311" lon="9.657219"  id="-7"  changeset="false" ><tag k="id" v="21126"/><tag k="amenity" v="toilets"/><tag k="municipali" v="Diepoldsau"/><tag k="name" v="Kath. Pfarreizentrum"/><tag k="toilets_po" v="seated"/><tag k="wc_guide_i" v="21126"/><tag k="Cluster_ID" v="29"/><tag k="xyz" v="1078_1330_11"/></node></osm>