<?xml version="1.0" encoding="UTF-8"?><osm version="0.6" generator="https://github.com/Rub21/geojson2osm"><node lat="47.139236" lon="9.522572"  id="-1"  changeset="false" ><tag k="id" v="1358"/><tag k="amenity" v="toilets"/><tag k="municipali" v="Vaduz"/><tag k="name" v="St�dtle"/><tag k="toilets_po" v="seated"/><tag k="wc_guide_i" v="1358"/><tag k="Cluster_ID" v="2"/><tag k="xyz" v="1078_1328_11"/></node><node lat="47.108501" lon="9.525447"  id="-2"  changeset="false" ><tag k="id" v="2580"/><tag k="amenity" v="toilets"/><tag k="municipali" v="Triesen"/><tag k="name" v="Sunnamarkt"/><tag k="toilets_po" v="seated"/><tag k="wc_guide_i" v="2580"/><tag k="Cluster_ID" v="2"/><tag k="xyz" v="1078_1328_11"/></node><node lat="47.111301" lon="9.552044"  id="-3"  changeset="false" ><tag k="id" v="2582"/><tag k="amenity" v="toilets"/><tag k="municipali" v="Triesenberg"/><tag k="name" v="Spielplatz Steinort"/><tag k="toilets_po" v="seated"/><tag k="wc_guide_i" v="2582"/><tag k="Cluster_ID" v="2"/><tag k="xyz" v="1078_1328_11"/></node><node lat="47.10328" lon="9.60799"  id="-4"  changeset="false" ><tag k="id" v="21157"/><tag k="amenity" v="toilets"/><tag k="municipali" v="Triesenberg"/><tag k="name" v="Beim Tourismusinfo"/><tag k="toilets_po" v="seated"/><tag k="wc_guide_i" v="21157"/><tag k="Cluster_ID" v="2"/><tag k="xyz" v="1078_1328_11"/></node></osm>