<?xml version="1.0" encoding="UTF-8"?><osm version="0.6" generator="https://github.com/Rub21/geojson2osm"><node lat="47.461029" lon="9.043465"  id="-1"  changeset="false" ><tag k="id" v="647"/><tag k="amenity" v="toilets"/><tag k="municipali" v="Wil SG"/><tag k="name" v="Unterf�hrung Gl�rnischstrasse"/><tag k="toilets_po" v="seated"/><tag k="wc_guide_i" v="647"/><tag k="Cluster_ID" v="3"/><tag k="xyz" v="1075_1331_11"/></node><node lat="47.464085" lon="9.042608"  id="-2"  changeset="false" ><tag k="id" v="648"/><tag k="amenity" v="toilets"/><tag k="municipali" v="Wil"/><tag k="name" v="Allee"/><tag k="toilets_po" v="seated"/><tag k="wc_guide_i" v="648"/><tag k="Cluster_ID" v="3"/><tag k="xyz" v="1075_1331_11"/></node><node lat="47.461987" lon="9.046726"  id="-3"  changeset="false" ><tag k="id" v="649"/><tag k="amenity" v="toilets"/><tag k="municipali" v="Wil SG"/><tag k="toilets_po" v="seated"/><tag k="wc_guide_i" v="649"/><tag k="Cluster_ID" v="3"/><tag k="xyz" v="1075_1331_11"/></node><node lat="47.46225" lon="9.000635"  id="-4"  changeset="false" ><tag k="id" v="1189"/><tag k="amenity" v="toilets"/><tag k="municipali" v="Sirnach"/><tag k="toilets_po" v="seated"/><tag k="wc_guide_i" v="1189"/><tag k="Cluster_ID" v="3"/><tag k="xyz" v="1075_1331_11"/></node><node lat="47.463028" lon="9.039313"  id="-5"  changeset="false" ><tag k="id" v="1214"/><tag k="amenity" v="toilets"/><tag k="municipali" v="Wil"/><tag k="name" v="Bahnhof"/><tag k="toilets_po" v="seated"/><tag k="wc_guide_i" v="1214"/><tag k="Cluster_ID" v="3"/><tag k="xyz" v="1075_1331_11"/></node><node lat="47.459362" lon="8.996041"  id="-6"  changeset="false" ><tag k="id" v="2219"/><tag k="amenity" v="toilets"/><tag k="municipali" v="Sirnach"/><tag k="name" v="Friedhof"/><tag k="toilets_po" v="seated"/><tag k="wc_guide_i" v="2219"/><tag k="Cluster_ID" v="3"/><tag k="xyz" v="1075_1331_11"/></node><node lat="47.466232" lon="9.045152"  id="-7"  changeset="false" ><tag k="id" v="3638"/><tag k="amenity" v="toilets"/><tag k="municipali" v="9500 Wil"/><tag k="name" v="Bleichenplatz"/><tag k="toilets_po" v="seated"/><tag k="wc_guide_i" v="3638"/><tag k="Cluster_ID" v="3"/><tag k="xyz" v="1075_1331_11"/></node><node lat="47.43845" lon="9.056425"  id="-8"  changeset="false" ><tag k="id" v="4155"/><tag k="amenity" v="toilets"/><tag k="municipali" v="Kirchberg/SG"/><tag k="name" v="Coop Tankstelle"/><tag k="toilets_po" v="seated"/><tag k="wc_guide_i" v="4155"/><tag k="Cluster_ID" v="3"/><tag k="xyz" v="1075_1331_11"/></node><node lat="47.471806" lon="9.024494"  id="-9"  changeset="false" ><tag k="id" v="4414"/><tag k="amenity" v="toilets"/><tag k="municipali" v="Bronschhofen"/><tag k="toilets_po" v="seated"/><tag k="wc_guide_i" v="4414"/><tag k="Cluster_ID" v="3"/><tag k="xyz" v="1075_1331_11"/></node><node lat="47.472839" lon="9.024381"  id="-10"  changeset="false" ><tag k="id" v="4484"/><tag k="amenity" v="toilets"/><tag k="municipali" v="Bronschhofen"/><tag k="name" v="Kapelle 3 Brunnen"/><tag k="toilets_po" v="seated"/><tag k="wc_guide_i" v="4484"/><tag k="Cluster_ID" v="3"/><tag k="xyz" v="1075_1331_11"/></node><node lat="47.44416" lon="9.053818"  id="-11"  changeset="false" ><tag k="id" v="16855"/><tag k="amenity" v="toilets"/><tag k="municipali" v="Rickenbach (TG)"/><tag k="toilets_po" v="seated"/><tag k="wc_guide_i" v="16855"/><tag k="Cluster_ID" v="3"/><tag k="xyz" v="1075_1331_11"/></node><node lat="47.459248" lon="9.037115"  id="-12"  changeset="false" ><tag k="id" v="20819"/><tag k="amenity" v="toilets"/><tag k="descriptio" v="ToiToi WC"/><tag k="municipali" v="Wil"/><tag k="name" v="Spielplatz Bergholz"/><tag k="toilets_po" v="seated"/><tag k="wc_guide_i" v="20819"/><tag k="Cluster_ID" v="3"/><tag k="xyz" v="1075_1331_11"/></node></osm>