<?xml version="1.0" encoding="UTF-8"?><osm version="0.6" generator="https://github.com/Rub21/geojson2osm"><node lat="46.914299" lon="7.93502"  id="-1"  changeset="false" ><tag k="id" v="1836"/><tag k="amenity" v="toilets"/><tag k="descriptio" v="Die Toilette ist auf der rechten Seite unterhalb des Hauses zug�nglich."/><tag k="municipali" v="Escholzmatt"/><tag k="name" v="Gemeindehaus"/><tag k="toilets_po" v="seated"/><tag k="wc_guide_i" v="1836"/><tag k="Cluster_ID" v="35"/><tag k="xyz" v="1069_1326_11"/></node><node lat="46.821705" lon="8.035126"  id="-2"  changeset="false" ><tag k="id" v="2239"/><tag k="amenity" v="toilets"/><tag k="municipali" v="S�renberg"/><tag k="name" v="Tourismusb�ro"/><tag k="toilets_po" v="seated"/><tag k="wc_guide_i" v="2239"/><tag k="Cluster_ID" v="33"/><tag k="xyz" v="1069_1326_11"/></node><node lat="46.884956" lon="8.015826"  id="-3"  changeset="false" ><tag k="id" v="19949"/><tag k="amenity" v="toilets"/><tag k="municipali" v="Fl�hli LU"/><tag k="name" v="Kirche"/><tag k="toilets_po" v="seated"/><tag k="wc_guide_i" v="19949"/><tag k="Cluster_ID" v="35"/><tag k="xyz" v="1069_1326_11"/></node></osm>