<?xml version="1.0" encoding="UTF-8"?><osm version="0.6" generator="https://github.com/Rub21/geojson2osm"><node lat="46.873173" lon="7.559978"  id="-1"  changeset="false" ><tag k="id" v="947"/><tag k="amenity" v="toilets"/><tag k="municipali" v="M�nsingen"/><tag k="name" v="Migros-Retaurant (Lift in OG)"/><tag k="toilets_po" v="seated"/><tag k="wc_guide_i" v="947"/><tag k="Cluster_ID" v="0"/><tag k="xyz" v="1067_1326_11"/></node><node lat="46.847652" lon="7.677194"  id="-2"  changeset="false" ><tag k="id" v="1945"/><tag k="amenity" v="toilets"/><tag k="municipali" v="Linden"/><tag k="name" v="Gemeindehaus"/><tag k="toilets_po" v="seated"/><tag k="wc_guide_i" v="1945"/><tag k="Cluster_ID" v="7"/><tag k="xyz" v="1067_1326_11"/></node><node lat="46.837688" lon="7.659367"  id="-3"  changeset="false" ><tag k="id" v="3490"/><tag k="amenity" v="toilets"/><tag k="descriptio" v="Bushaltestelle"/><tag k="municipali" v="Oberdiessbach"/><tag k="name" v="Dorf"/><tag k="toilets_po" v="seated"/><tag k="wc_guide_i" v="3490"/><tag k="Cluster_ID" v="7"/><tag k="xyz" v="1067_1326_11"/></node><node lat="46.904915" lon="7.635188"  id="-4"  changeset="false" ><tag k="id" v="4667"/><tag k="amenity" v="toilets"/><tag k="descriptio" v="Eintritt frei bei normalem und Behinderten-WC."/><tag k="municipali" v="Grossh�chstetten"/><tag k="name" v="Bahnhof Grossh�chstetten"/><tag k="toilets_po" v="seated"/><tag k="wc_guide_i" v="4667"/><tag k="Cluster_ID" v="0"/><tag k="xyz" v="1067_1326_11"/></node><node lat="46.844826" lon="7.578592"  id="-5"  changeset="false" ><tag k="id" v="16377"/><tag k="amenity" v="toilets"/><tag k="municipali" v="Wichtrach"/><tag k="name" v="Kirche"/><tag k="toilets_po" v="seated"/><tag k="wc_guide_i" v="16377"/><tag k="Cluster_ID" v="7"/><tag k="xyz" v="1067_1326_11"/></node><node lat="46.843502" lon="7.570501"  id="-6"  changeset="false" ><tag k="id" v="18362"/><tag k="amenity" v="toilets"/><tag k="descriptio" v="Toilette ist Abgeschlossen und wird nur bei Gemeindeanl�ssen ge�ffnet"/><tag k="municipali" v="Stockeren"/><tag k="name" v="Gemeindeschreiberei Wichtrach"/><tag k="toilets_po" v="seated"/><tag k="wc_guide_i" v="18362"/><tag k="Cluster_ID" v="7"/><tag k="xyz" v="1067_1326_11"/></node><node lat="46.879002" lon="7.559161"  id="-7"  changeset="false" ><tag k="id" v="19108"/><tag k="amenity" v="toilets"/><tag k="municipali" v="M�nsingen"/><tag k="toilets_po" v="seated"/><tag k="wc_guide_i" v="19108"/><tag k="Cluster_ID" v="0"/><tag k="xyz" v="1067_1326_11"/></node><node lat="46.915287" lon="7.564172"  id="-8"  changeset="false" ><tag k="id" v="20409"/><tag k="amenity" v="toilets"/><tag k="municipali" v="Worb"/><tag k="name" v="Bahnhof"/><tag k="toilets_po" v="seated"/><tag k="wc_guide_i" v="20409"/><tag k="Cluster_ID" v="0"/><tag k="xyz" v="1067_1326_11"/></node><node lat="46.878311" lon="7.562653"  id="-9"  changeset="false" ><tag k="id" v="20696"/><tag k="amenity" v="toilets"/><tag k="municipali" v="M�nsingen"/><tag k="toilets_po" v="seated"/><tag k="wc_guide_i" v="20696"/><tag k="Cluster_ID" v="0"/><tag k="xyz" v="1067_1326_11"/></node><node lat="46.875122" lon="7.561878"  id="-10"  changeset="false" ><tag k="id" v="20841"/><tag k="amenity" v="toilets"/><tag k="municipali" v="M�nsingen"/><tag k="toilets_po" v="seated"/><tag k="wc_guide_i" v="20841"/><tag k="Cluster_ID" v="0"/><tag k="xyz" v="1067_1326_11"/></node></osm>