<?xml version="1.0" encoding="UTF-8"?><osm version="0.6" generator="https://github.com/Rub21/geojson2osm"><node lat="46.188465" lon="6.197736"  id="-1"  changeset="false" ><tag k="id" v="3769"/><tag k="amenity" v="toilets"/><tag k="municipali" v="Th�nex"/><tag k="name" v="Administration municipale"/><tag k="toilets_po" v="seated"/><tag k="wc_guide_i" v="3769"/><tag k="Cluster_ID" v="45"/><tag k="xyz" v="1059_1320_11"/></node><node lat="46.192837" lon="6.162323"  id="-2"  changeset="false" ><tag k="id" v="21069"/><tag k="amenity" v="toilets"/><tag k="municipali" v="Gen�ve"/><tag k="name" v="Coop Florissant"/><tag k="toilets_po" v="seated"/><tag k="wc_guide_i" v="21069"/><tag k="Cluster_ID" v="45"/><tag k="xyz" v="1059_1320_11"/></node><node lat="46.192669" lon="6.201415"  id="-3"  changeset="false" ><tag k="id" v="21116"/><tag k="amenity" v="toilets"/><tag k="municipali" v="Th�nex"/><tag k="name" v="Centre Commercial de Th�nex 1er �tage"/><tag k="toilets_po" v="seated"/><tag k="wc_guide_i" v="21116"/><tag k="Cluster_ID" v="45"/><tag k="xyz" v="1059_1320_11"/></node></osm>