<?xml version="1.0" encoding="UTF-8"?><osm version="0.6" generator="https://github.com/Rub21/geojson2osm"><node lat="47.169579" lon="8.106601"  id="-1"  changeset="false" ><tag k="id" v="1142"/><tag k="amenity" v="toilets"/><tag k="municipali" v="Sursee"/><tag k="name" v="Friedhof"/><tag k="toilets_po" v="seated"/><tag k="wc_guide_i" v="1142"/><tag k="Cluster_ID" v="46"/><tag k="xyz" v="1070_1329_11"/></node><node lat="47.170071" lon="8.245679"  id="-2"  changeset="false" ><tag k="id" v="1697"/><tag k="amenity" v="toilets"/><tag k="municipali" v="R�merswil"/><tag k="name" v="Friedhof"/><tag k="toilets_po" v="seated"/><tag k="wc_guide_i" v="1697"/><tag k="Cluster_ID" v="46"/><tag k="xyz" v="1070_1329_11"/></node><node lat="47.178036" lon="8.109241"  id="-3"  changeset="false" ><tag k="id" v="2071"/><tag k="amenity" v="toilets"/><tag k="municipali" v="Sursee"/><tag k="name" v="Surental Center"/><tag k="toilets_po" v="seated"/><tag k="wc_guide_i" v="2071"/><tag k="Cluster_ID" v="46"/><tag k="xyz" v="1070_1329_11"/></node><node lat="47.241455" lon="8.186874"  id="-4"  changeset="false" ><tag k="id" v="3432"/><tag k="amenity" v="toilets"/><tag k="descriptio" v="WC im Geb�ude vom Menzo-Markt bei Denner links"/><tag k="municipali" v="Menziken"/><tag k="name" v="Menzo-Markt"/><tag k="toilets_po" v="seated"/><tag k="wc_guide_i" v="3432"/><tag k="Cluster_ID" v="46"/><tag k="xyz" v="1070_1329_11"/></node><node lat="47.170609" lon="8.104048"  id="-5"  changeset="false" ><tag k="id" v="3540"/><tag k="amenity" v="toilets"/><tag k="municipali" v="Sursee"/><tag k="name" v="Spielplatz"/><tag k="toilets_po" v="seated"/><tag k="wc_guide_i" v="3540"/><tag k="Cluster_ID" v="46"/><tag k="xyz" v="1070_1329_11"/></node><node lat="47.256027" lon="8.182278"  id="-6"  changeset="false" ><tag k="id" v="4595"/><tag k="amenity" v="toilets"/><tag k="descriptio" v="Chemieklo"/><tag k="municipali" v="Reinach (AG)"/><tag k="name" v="Spielplatz"/><tag k="toilets_po" v="seated"/><tag k="wc_guide_i" v="4595"/><tag k="Cluster_ID" v="46"/><tag k="xyz" v="1070_1329_11"/></node><node lat="47.190834" lon="8.2055"  id="-7"  changeset="false" ><tag k="id" v="4658"/><tag k="amenity" v="toilets"/><tag k="descriptio" v="Neben dem Parkplatz"/><tag k="municipali" v="Neudorf"/><tag k="name" v="Airport Helicopter"/><tag k="toilets_po" v="seated"/><tag k="wc_guide_i" v="4658"/><tag k="Cluster_ID" v="46"/><tag k="xyz" v="1070_1329_11"/></node><node lat="47.17395" lon="8.123973"  id="-8"  changeset="false" ><tag k="id" v="18120"/><tag k="amenity" v="toilets"/><tag k="descriptio" v="Toilette befindet sich ausserbalb der Badeanstalt."/><tag k="municipali" v="Sursee"/><tag k="name" v="Strandbad"/><tag k="toilets_po" v="seated"/><tag k="wc_guide_i" v="18120"/><tag k="Cluster_ID" v="46"/><tag k="xyz" v="1070_1329_11"/></node><node lat="47.22493" lon="8.259181"  id="-9"  changeset="false" ><tag k="id" v="18240"/><tag k="amenity" v="toilets"/><tag k="municipali" v="Hitzkirch"/><tag k="name" v="Friedhof"/><tag k="toilets_po" v="seated"/><tag k="wc_guide_i" v="18240"/><tag k="Cluster_ID" v="28"/><tag k="xyz" v="1070_1329_11"/></node><node lat="47.206345" lon="8.193128"  id="-10"  changeset="false" ><tag k="id" v="18355"/><tag k="amenity" v="toilets"/><tag k="municipali" v="Berom�nster"/><tag k="name" v="Friedhof"/><tag k="toilets_po" v="seated"/><tag k="wc_guide_i" v="18355"/><tag k="Cluster_ID" v="46"/><tag k="xyz" v="1070_1329_11"/></node><node lat="47.240643" lon="8.189185"  id="-11"  changeset="false" ><tag k="id" v="19197"/><tag k="amenity" v="toilets"/><tag k="descriptio" v="Toilette beim Kiosk"/><tag k="municipali" v="Menziken"/><tag k="name" v="Bahnhof Menziken"/><tag k="toilets_po" v="seated"/><tag k="wc_guide_i" v="19197"/><tag k="Cluster_ID" v="46"/><tag k="xyz" v="1070_1329_11"/></node><node lat="47.258247" lon="8.231182"  id="-12"  changeset="false" ><tag k="id" v="19322"/><tag k="amenity" v="toilets"/><tag k="municipali" v="Aesch (LU)"/><tag k="name" v="Kiosk Badi"/><tag k="toilets_po" v="seated"/><tag k="wc_guide_i" v="19322"/><tag k="Cluster_ID" v="28"/><tag k="xyz" v="1070_1329_11"/></node><node lat="47.172459" lon="8.105152"  id="-13"  changeset="false" ><tag k="id" v="19329"/><tag k="amenity" v="toilets"/><tag k="descriptio" v="Toilette im Untergeschoss, Treppenhaus"/><tag k="municipali" v="Sursee"/><tag k="toilets_po" v="seated"/><tag k="wc_guide_i" v="19329"/><tag k="Cluster_ID" v="46"/><tag k="xyz" v="1070_1329_11"/></node><node lat="47.170437" lon="8.110773"  id="-14"  changeset="false" ><tag k="id" v="19616"/><tag k="amenity" v="toilets"/><tag k="municipali" v="Sursee"/><tag k="name" v="Ehret-Park"/><tag k="toilets_po" v="seated"/><tag k="wc_guide_i" v="19616"/><tag k="Cluster_ID" v="46"/><tag k="xyz" v="1070_1329_11"/></node><node lat="47.177696" lon="8.12538"  id="-15"  changeset="false" ><tag k="id" v="20154"/><tag k="amenity" v="toilets"/><tag k="descriptio" v="Beim Eingang."/><tag k="municipali" v="Schenkon"/><tag k="name" v="Coop Bau und Hobby"/><tag k="toilets_po" v="seated"/><tag k="wc_guide_i" v="20154"/><tag k="Cluster_ID" v="46"/><tag k="xyz" v="1070_1329_11"/></node><node lat="47.205627" lon="8.189728"  id="-16"  changeset="false" ><tag k="id" v="20216"/><tag k="amenity" v="toilets"/><tag k="municipali" v="Berom�nster"/><tag k="name" v="Friedhof"/><tag k="toilets_po" v="seated"/><tag k="wc_guide_i" v="20216"/><tag k="Cluster_ID" v="46"/><tag k="xyz" v="1070_1329_11"/></node><node lat="47.269459" lon="8.199179"  id="-17"  changeset="false" ><tag k="id" v="20218"/><tag k="amenity" v="toilets"/><tag k="municipali" v="Beinwil am See"/><tag k="name" v="Friedhof"/><tag k="toilets_po" v="seated"/><tag k="wc_guide_i" v="20218"/><tag k="Cluster_ID" v="28"/><tag k="xyz" v="1070_1329_11"/></node><node lat="47.244667" lon="8.226919"  id="-18"  changeset="false" ><tag k="id" v="21121"/><tag k="amenity" v="toilets"/><tag k="descriptio" v="Containertoilette bei Tankstelle. Mit Lavabo/Kaltwasser."/><tag k="municipali" v="Mosen"/><tag k="name" v="Tankstelle"/><tag k="toilets_po" v="seated"/><tag k="wc_guide_i" v="21121"/><tag k="Cluster_ID" v="28"/><tag k="xyz" v="1070_1329_11"/></node><node lat="47.244614" lon="8.148339"  id="-19"  changeset="false" ><tag k="id" v="21124"/><tag k="amenity" v="toilets"/><tag k="descriptio" v="Wald-WC, kein WC-Papier, Plumpsklo - aber f�r Notf�lle gut."/><tag k="municipali" v="Rickenbach"/><tag k="name" v="Waldh�tte Chanzeli"/><tag k="toilets_po" v="seated"/><tag k="wc_guide_i" v="21124"/><tag k="Cluster_ID" v="46"/><tag k="xyz" v="1070_1329_11"/></node><node lat="47.21993" lon="8.15256"  id="-20"  changeset="false" ><tag k="id" v="21219"/><tag k="amenity" v="toilets"/><tag k="municipali" v="Rickenbach AG"/><tag k="name" v="Friedhof Kirche"/><tag k="toilets_po" v="seated"/><tag k="wc_guide_i" v="21219"/><tag k="Cluster_ID" v="46"/><tag k="xyz" v="1070_1329_11"/></node></osm>