<?xml version="1.0" encoding="UTF-8"?><osm version="0.6" generator="https://github.com/Rub21/geojson2osm"><node lat="46.843815" lon="6.712475"  id="-1"  changeset="false" ><tag k="id" v="1672"/><tag k="amenity" v="toilets"/><tag k="municipali" v="Concise"/><tag k="name" v="Plage de Corcelles"/><tag k="toilets_po" v="seated"/><tag k="wc_guide_i" v="1672"/><tag k="Cluster_ID" v="27"/><tag k="xyz" v="1062_1326_11"/></node><node lat="46.849548" lon="6.849387"  id="-2"  changeset="false" ><tag k="id" v="3741"/><tag k="amenity" v="toilets"/><tag k="municipali" v="Estavayer-le-Lac"/><tag k="toilets_po" v="seated"/><tag k="wc_guide_i" v="3741"/><tag k="Cluster_ID" v="27"/><tag k="xyz" v="1062_1326_11"/></node><node lat="46.900695" lon="6.787121"  id="-3"  changeset="false" ><tag k="id" v="3988"/><tag k="amenity" v="toilets"/><tag k="municipali" v="Gorgier"/><tag k="name" v="Port"/><tag k="toilets_po" v="seated"/><tag k="wc_guide_i" v="3988"/><tag k="Cluster_ID" v="27"/><tag k="xyz" v="1062_1326_11"/></node><node lat="46.820236" lon="6.78689"  id="-4"  changeset="false" ><tag k="id" v="4070"/><tag k="amenity" v="toilets"/><tag k="municipali" v="Cheyres"/><tag k="toilets_po" v="seated"/><tag k="wc_guide_i" v="4070"/><tag k="Cluster_ID" v="27"/><tag k="xyz" v="1062_1326_11"/></node><node lat="46.805645" lon="6.742575"  id="-5"  changeset="false" ><tag k="id" v="4164"/><tag k="amenity" v="toilets"/><tag k="descriptio" v="Toilettes turcs, rudimentaires mais propres."/><tag k="municipali" v="Yvonand"/><tag k="name" v="Plage de Gon�erut"/><tag k="toilets_po" v="seated"/><tag k="wc_guide_i" v="4164"/><tag k="Cluster_ID" v="27"/><tag k="xyz" v="1062_1326_11"/></node><node lat="46.848724" lon="6.720319"  id="-6"  changeset="false" ><tag k="id" v="4165"/><tag k="amenity" v="toilets"/><tag k="municipali" v="Concise"/><tag k="name" v="Port"/><tag k="toilets_po" v="seated"/><tag k="wc_guide_i" v="4165"/><tag k="Cluster_ID" v="27"/><tag k="xyz" v="1062_1326_11"/></node><node lat="46.895267" lon="6.775552"  id="-7"  changeset="false" ><tag k="id" v="4389"/><tag k="amenity" v="toilets"/><tag k="descriptio" v="en r�paration!"/><tag k="municipali" v="Saint-Aubin-Sauges"/><tag k="name" v="Caserne"/><tag k="toilets_po" v="seated"/><tag k="wc_guide_i" v="4389"/><tag k="Cluster_ID" v="27"/><tag k="xyz" v="1062_1326_11"/></node><node lat="46.895016" lon="6.77299"  id="-8"  changeset="false" ><tag k="id" v="4390"/><tag k="amenity" v="toilets"/><tag k="descriptio" v="Parking centre village"/><tag k="municipali" v="Saint-Aubin-Sauges"/><tag k="name" v="Village"/><tag k="toilets_po" v="seated"/><tag k="wc_guide_i" v="4390"/><tag k="Cluster_ID" v="27"/><tag k="xyz" v="1062_1326_11"/></node><node lat="46.844532" lon="6.842626"  id="-9"  changeset="false" ><tag k="id" v="18467"/><tag k="amenity" v="toilets"/><tag k="municipali" v="Estavayer-le-Lac"/><tag k="name" v="Gare"/><tag k="toilets_po" v="seated"/><tag k="wc_guide_i" v="18467"/><tag k="Cluster_ID" v="27"/><tag k="xyz" v="1062_1326_11"/></node></osm>