<?xml version="1.0" encoding="UTF-8"?><osm version="0.6" generator="https://github.com/Rub21/geojson2osm"><node lat="46.934368" lon="7.430791"  id="-1"  changeset="false" ><tag k="id" v="339"/><tag k="amenity" v="toilets"/><tag k="municipali" v="Bern"/><tag k="name" v="Spielplatz, Goumo�nsstrasse"/><tag k="toilets_po" v="seated"/><tag k="wc_guide_i" v="339"/><tag k="Cluster_ID" v="0"/><tag k="xyz" v="1066_1327_11"/></node><node lat="46.943211" lon="7.424163"  id="-2"  changeset="false" ><tag k="id" v="340"/><tag k="amenity" v="toilets"/><tag k="municipali" v="Bern"/><tag k="name" v="Spielplatz, Hopfgut (C�cilienplatz)"/><tag k="toilets_po" v="seated"/><tag k="wc_guide_i" v="340"/><tag k="Cluster_ID" v="0"/><tag k="xyz" v="1066_1327_11"/></node><node lat="46.956001" lon="7.44505"  id="-3"  changeset="false" ><tag k="id" v="341"/><tag k="amenity" v="toilets"/><tag k="municipali" v="Bern"/><tag k="name" v="Spielplatz, Lorrainestrasse"/><tag k="toilets_po" v="seated"/><tag k="wc_guide_i" v="341"/><tag k="Cluster_ID" v="0"/><tag k="xyz" v="1066_1327_11"/></node><node lat="46.957111" lon="7.447228"  id="-4"  changeset="false" ><tag k="id" v="343"/><tag k="amenity" v="toilets"/><tag k="municipali" v="Bern"/><tag k="name" v="Nordring 49, Spielplatz Nordring"/><tag k="toilets_po" v="seated"/><tag k="wc_guide_i" v="343"/><tag k="Cluster_ID" v="0"/><tag k="xyz" v="1066_1327_11"/></node><node lat="46.943642" lon="7.448677"  id="-5"  changeset="false" ><tag k="id" v="347"/><tag k="amenity" v="toilets"/><tag k="municipali" v="Bern"/><tag k="name" v="Helvetiaplatz"/><tag k="toilets_po" v="urinal"/><tag k="wc_guide_i" v="347"/><tag k="Cluster_ID" v="0"/><tag k="xyz" v="1066_1327_11"/></node><node lat="46.943386" lon="7.406007"  id="-6"  changeset="false" ><tag k="id" v="351"/><tag k="amenity" v="toilets"/><tag k="descriptio" v="Im Coop Untergeschoss. Code verlangen!"/><tag k="municipali" v="Bern"/><tag k="name" v="Europaplatz Coop"/><tag k="toilets_po" v="seated"/><tag k="wc_guide_i" v="351"/><tag k="Cluster_ID" v="0"/><tag k="xyz" v="1066_1327_11"/></node><node lat="46.957966" lon="7.465875"  id="-7"  changeset="false" ><tag k="id" v="358"/><tag k="amenity" v="toilets"/><tag k="descriptio" v="Nicht Immer offen!"/><tag k="municipali" v="Bern"/><tag k="name" v="Guisanplatz"/><tag k="toilets_po" v="seated"/><tag k="wc_guide_i" v="358"/><tag k="Cluster_ID" v="0"/><tag k="xyz" v="1066_1327_11"/></node><node lat="46.948738" lon="7.383113"  id="-8"  changeset="false" ><tag k="id" v="359"/><tag k="amenity" v="toilets"/><tag k="municipali" v="Bern"/><tag k="name" v="Holenacker"/><tag k="toilets_po" v="seated"/><tag k="wc_guide_i" v="359"/><tag k="Cluster_ID" v="0"/><tag k="xyz" v="1066_1327_11"/></node><node lat="46.949482" lon="7.451019"  id="-9"  changeset="false" ><tag k="id" v="362"/><tag k="amenity" v="toilets"/><tag k="municipali" v="Bern"/><tag k="name" v="Rathausparking"/><tag k="toilets_po" v="seated"/><tag k="wc_guide_i" v="362"/><tag k="Cluster_ID" v="0"/><tag k="xyz" v="1066_1327_11"/></node><node lat="46.950916" lon="7.460615"  id="-10"  changeset="false" ><tag k="id" v="364"/><tag k="amenity" v="toilets"/><tag k="municipali" v="Bern"/><tag k="name" v="Rosengarten"/><tag k="toilets_po" v="seated"/><tag k="wc_guide_i" v="364"/><tag k="Cluster_ID" v="0"/><tag k="xyz" v="1066_1327_11"/></node><node lat="46.946198" lon="7.44018"  id="-11"  changeset="false" ><tag k="id" v="373"/><tag k="amenity" v="toilets"/><tag k="municipali" v="Bern"/><tag k="name" v="Kleine Schanze"/><tag k="toilets_po" v="seated"/><tag k="wc_guide_i" v="373"/><tag k="Cluster_ID" v="0"/><tag k="xyz" v="1066_1327_11"/></node><node lat="46.950817" lon="7.392168"  id="-12"  changeset="false" ><tag k="id" v="945"/><tag k="amenity" v="toilets"/><tag k="municipali" v="Bern"/><tag k="toilets_po" v="seated"/><tag k="wc_guide_i" v="945"/><tag k="Cluster_ID" v="0"/><tag k="xyz" v="1066_1327_11"/></node><node lat="46.94698" lon="7.447464"  id="-13"  changeset="false" ><tag k="id" v="1347"/><tag k="amenity" v="toilets"/><tag k="municipali" v="Bern"/><tag k="name" v="Casino-Parking"/><tag k="toilets_po" v="seated"/><tag k="wc_guide_i" v="1347"/><tag k="Cluster_ID" v="0"/><tag k="xyz" v="1066_1327_11"/></node><node lat="46.973431" lon="7.484179"  id="-14"  changeset="false" ><tag k="id" v="1665"/><tag k="amenity" v="toilets"/><tag k="municipali" v="Ittigen"/><tag k="name" v="Bahnhof"/><tag k="toilets_po" v="seated"/><tag k="wc_guide_i" v="1665"/><tag k="Cluster_ID" v="0"/><tag k="xyz" v="1066_1327_11"/></node><node lat="46.991753" lon="7.457063"  id="-15"  changeset="false" ><tag k="id" v="1808"/><tag k="amenity" v="toilets"/><tag k="municipali" v="Zollikofen"/><tag k="name" v="Bahnhof Unterzollikofen"/><tag k="toilets_po" v="seated"/><tag k="wc_guide_i" v="1808"/><tag k="Cluster_ID" v="0"/><tag k="xyz" v="1066_1327_11"/></node><node lat="47.0201" lon="7.436899"  id="-16"  changeset="false" ><tag k="id" v="1827"/><tag k="amenity" v="toilets"/><tag k="municipali" v="M�nchenbuchsee"/><tag k="name" v="Spielplatz Minderheimet"/><tag k="toilets_po" v="seated"/><tag k="wc_guide_i" v="1827"/><tag k="Cluster_ID" v="0"/><tag k="xyz" v="1066_1327_11"/></node><node lat="46.945358" lon="7.472023"  id="-17"  changeset="false" ><tag k="id" v="2347"/><tag k="amenity" v="toilets"/><tag k="municipali" v="Bern"/><tag k="toilets_po" v="seated"/><tag k="wc_guide_i" v="2347"/><tag k="Cluster_ID" v="0"/><tag k="xyz" v="1066_1327_11"/></node><node lat="46.938747" lon="7.48126"  id="-18"  changeset="false" ><tag k="id" v="3884"/><tag k="amenity" v="toilets"/><tag k="descriptio" v="Einstellhalle 1 UG"/><tag k="municipali" v="Bern"/><tag k="name" v="Einkaufszentrum"/><tag k="toilets_po" v="seated"/><tag k="wc_guide_i" v="3884"/><tag k="Cluster_ID" v="0"/><tag k="xyz" v="1066_1327_11"/></node><node lat="47.0214" lon="7.498761"  id="-19"  changeset="false" ><tag k="id" v="4266"/><tag k="amenity" v="toilets"/><tag k="municipali" v="Urtenen-Sch�nb�hl"/><tag k="name" v="Gemeinde Sch�nb�hl / Restaurant Piazza"/><tag k="toilets_po" v="seated"/><tag k="wc_guide_i" v="4266"/><tag k="Cluster_ID" v="0"/><tag k="xyz" v="1066_1327_11"/></node><node lat="46.993752" lon="7.452892"  id="-20"  changeset="false" ><tag k="id" v="4482"/><tag k="amenity" v="toilets"/><tag k="municipali" v="Zollikofen"/><tag k="name" v="Friedhof"/><tag k="toilets_po" v="seated"/><tag k="wc_guide_i" v="4482"/><tag k="Cluster_ID" v="0"/><tag k="xyz" v="1066_1327_11"/></node><node lat="46.958008" lon="7.487813"  id="-21"  changeset="false" ><tag k="id" v="4548"/><tag k="amenity" v="toilets"/><tag k="municipali" v="Ostermundigen"/><tag k="name" v="Bushaltestelle Zollgasse ( Linie 10)"/><tag k="toilets_po" v="seated"/><tag k="wc_guide_i" v="4548"/><tag k="Cluster_ID" v="0"/><tag k="xyz" v="1066_1327_11"/></node><node lat="46.945198" lon="7.439568"  id="-22"  changeset="false" ><tag k="id" v="18100"/><tag k="amenity" v="toilets"/><tag k="descriptio" v="In D"/><tag k="municipali" v="Bern"/><tag k="name" v="Kirche Toilette"/><tag k="toilets_po" v="seated"/><tag k="wc_guide_i" v="18100"/><tag k="Cluster_ID" v="0"/><tag k="xyz" v="1066_1327_11"/></node><node lat="46.948582" lon="7.452694"  id="-23"  changeset="false" ><tag k="id" v="18351"/><tag k="amenity" v="toilets"/><tag k="municipali" v="Bern"/><tag k="toilets_po" v="seated"/><tag k="wc_guide_i" v="18351"/><tag k="Cluster_ID" v="0"/><tag k="xyz" v="1066_1327_11"/></node><node lat="46.931023" lon="7.483989"  id="-24"  changeset="false" ><tag k="id" v="18461"/><tag k="amenity" v="toilets"/><tag k="municipali" v="Muri bei Bern"/><tag k="name" v="Einkaufszentrum Marktplatz Muri"/><tag k="toilets_po" v="seated"/><tag k="wc_guide_i" v="18461"/><tag k="Cluster_ID" v="0"/><tag k="xyz" v="1066_1327_11"/></node><node lat="46.948017" lon="7.444559"  id="-25"  changeset="false" ><tag k="id" v="18463"/><tag k="amenity" v="toilets"/><tag k="descriptio" v="Kosten 1.-, R�ckerstattung mit Bon in Restaurant oder Lebensmittelabteilung"/><tag k="municipali" v="Bern"/><tag k="toilets_po" v="seated"/><tag k="wc_guide_i" v="18463"/><tag k="Cluster_ID" v="0"/><tag k="xyz" v="1066_1327_11"/></node><node lat="46.947079" lon="7.440102"  id="-26"  changeset="false" ><tag k="id" v="19279"/><tag k="amenity" v="toilets"/><tag k="municipali" v="Bern"/><tag k="name" v="Nette Toilette"/><tag k="toilets_po" v="seated"/><tag k="wc_guide_i" v="19279"/><tag k="website" v="https://www.desperado.ch/"/><tag k="Cluster_ID" v="0"/><tag k="xyz" v="1066_1327_11"/></node><node lat="46.94973" lon="7.457591"  id="-27"  changeset="false" ><tag k="id" v="19284"/><tag k="amenity" v="toilets"/><tag k="municipali" v="Bern"/><tag k="name" v="Nette Toilette"/><tag k="toilets_po" v="seated"/><tag k="wc_guide_i" v="19284"/><tag k="website" v="https://www.casa-novo.ch/"/><tag k="Cluster_ID" v="0"/><tag k="xyz" v="1066_1327_11"/></node><node lat="46.94725" lon="7.441036"  id="-28"  changeset="false" ><tag k="id" v="19285"/><tag k="amenity" v="toilets"/><tag k="municipali" v="Bern"/><tag k="name" v="Nette Toilette"/><tag k="toilets_po" v="seated"/><tag k="wc_guide_i" v="19285"/><tag k="website" v="https://www.monniermurten.ch/"/><tag k="Cluster_ID" v="0"/><tag k="xyz" v="1066_1327_11"/></node><node lat="46.962624" lon="7.4537"  id="-29"  changeset="false" ><tag k="id" v="19480"/><tag k="amenity" v="toilets"/><tag k="municipali" v="Bern"/><tag k="toilets_po" v="seated"/><tag k="wc_guide_i" v="19480"/><tag k="Cluster_ID" v="0"/><tag k="xyz" v="1066_1327_11"/></node><node lat="46.932987" lon="7.45522"  id="-30"  changeset="false" ><tag k="id" v="19486"/><tag k="amenity" v="toilets"/><tag k="municipali" v="K�niz"/><tag k="name" v="Camping Eichholz"/><tag k="toilets_po" v="seated"/><tag k="wc_guide_i" v="19486"/><tag k="Cluster_ID" v="0"/><tag k="xyz" v="1066_1327_11"/></node><node lat="46.937469" lon="7.395175"  id="-31"  changeset="false" ><tag k="id" v="19741"/><tag k="amenity" v="toilets"/><tag k="descriptio" v="Schl�ssel Verlangen!"/><tag k="municipali" v="Bern"/><tag k="name" v="Bahnhof im Avec"/><tag k="toilets_po" v="seated"/><tag k="wc_guide_i" v="19741"/><tag k="Cluster_ID" v="0"/><tag k="xyz" v="1066_1327_11"/></node><node lat="46.947388" lon="7.442454"  id="-32"  changeset="false" ><tag k="id" v="20112"/><tag k="amenity" v="toilets"/><tag k="municipali" v="Bern"/><tag k="name" v="Monier"/><tag k="toilets_po" v="seated"/><tag k="wc_guide_i" v="20112"/><tag k="Cluster_ID" v="0"/><tag k="xyz" v="1066_1327_11"/></node><node lat="47.016335" lon="7.477895"  id="-33"  changeset="false" ><tag k="id" v="20824"/><tag k="amenity" v="toilets"/><tag k="municipali" v="Moosseedorf"/><tag k="name" v="Friedhof Moosseedorf"/><tag k="toilets_po" v="seated"/><tag k="wc_guide_i" v="20824"/><tag k="Cluster_ID" v="0"/><tag k="xyz" v="1066_1327_11"/></node><node lat="46.963333" lon="7.481354"  id="-34"  changeset="false" ><tag k="id" v="20912"/><tag k="amenity" v="toilets"/><tag k="descriptio" v="Im Laden melden f�r T�r�ffnung."/><tag k="municipali" v="Ostermundigen"/><tag k="name" v="Spar Express"/><tag k="toilets_po" v="seated"/><tag k="wc_guide_i" v="20912"/><tag k="Cluster_ID" v="0"/><tag k="xyz" v="1066_1327_11"/></node></osm>