<?xml version="1.0" encoding="UTF-8"?><osm version="0.6" generator="https://github.com/Rub21/geojson2osm"><node lat="46.223934" lon="7.408671"  id="-1"  changeset="false" ><tag k="id" v="4149"/><tag k="amenity" v="toilets"/><tag k="descriptio" v="Chapelle Longeborgne"/><tag k="municipali" v="Bramois"/><tag k="name" v="Longeborgne"/><tag k="toilets_po" v="seated"/><tag k="wc_guide_i" v="4149"/><tag k="Cluster_ID" v="26"/><tag k="xyz" v="1066_1321_11"/></node><node lat="46.305309" lon="7.468852"  id="-2"  changeset="false" ><tag k="id" v="16372"/><tag k="amenity" v="toilets"/><tag k="municipali" v="Crans-sur-Sierre"/><tag k="name" v="Parkhaus"/><tag k="toilets_po" v="seated"/><tag k="wc_guide_i" v="16372"/><tag k="Cluster_ID" v="26"/><tag k="xyz" v="1066_1321_11"/></node><node lat="46.297699" lon="7.398465"  id="-3"  changeset="false" ><tag k="id" v="16436"/><tag k="amenity" v="toilets"/><tag k="municipali" v="Anz�re"/><tag k="name" v="Place du Village"/><tag k="toilets_po" v="seated"/><tag k="wc_guide_i" v="16436"/><tag k="Cluster_ID" v="26"/><tag k="xyz" v="1066_1321_11"/></node><node lat="46.282513" lon="7.412371"  id="-4"  changeset="false" ><tag k="id" v="16712"/><tag k="amenity" v="toilets"/><tag k="municipali" v="Ayent"/><tag k="name" v="WC Eglise"/><tag k="toilets_po" v="seated"/><tag k="wc_guide_i" v="16712"/><tag k="Cluster_ID" v="26"/><tag k="xyz" v="1066_1321_11"/></node><node lat="46.26535" lon="7.504029"  id="-5"  changeset="false" ><tag k="id" v="16771"/><tag k="amenity" v="toilets"/><tag k="municipali" v="Sierre"/><tag k="toilets_po" v="seated"/><tag k="wc_guide_i" v="16771"/><tag k="Cluster_ID" v="26"/><tag k="xyz" v="1066_1321_11"/></node><node lat="46.25177" lon="7.455055"  id="-6"  changeset="false" ><tag k="id" v="18563"/><tag k="amenity" v="toilets"/><tag k="municipali" v="Gr�ne"/><tag k="name" v="Lac De La Corne"/><tag k="toilets_po" v="seated"/><tag k="wc_guide_i" v="18563"/><tag k="Cluster_ID" v="26"/><tag k="xyz" v="1066_1321_11"/></node><node lat="46.296501" lon="7.538196"  id="-7"  changeset="false" ><tag k="id" v="19512"/><tag k="amenity" v="toilets"/><tag k="municipali" v="Sierre"/><tag k="toilets_po" v="seated"/><tag k="wc_guide_i" v="19512"/><tag k="Cluster_ID" v="38"/><tag k="xyz" v="1066_1321_11"/></node><node lat="46.250332" lon="7.411559"  id="-8"  changeset="false" ><tag k="id" v="19883"/><tag k="amenity" v="toilets"/><tag k="municipali" v="Sion"/><tag k="name" v="Place de Jeux d'Uvrier"/><tag k="toilets_po" v="seated"/><tag k="wc_guide_i" v="19883"/><tag k="Cluster_ID" v="26"/><tag k="xyz" v="1066_1321_11"/></node><node lat="46.305515" lon="7.468864"  id="-9"  changeset="false" ><tag k="id" v="20728"/><tag k="amenity" v="toilets"/><tag k="municipali" v="Crans-sur-Sierre"/><tag k="name" v="Crans Montana"/><tag k="toilets_po" v="seated"/><tag k="wc_guide_i" v="20728"/><tag k="Cluster_ID" v="38"/><tag k="xyz" v="1066_1321_11"/></node><node lat="46.261414" lon="7.495154"  id="-10"  changeset="false" ><tag k="id" v="20855"/><tag k="amenity" v="toilets"/><tag k="municipali" v="Chalais VS"/><tag k="toilets_po" v="seated"/><tag k="wc_guide_i" v="20855"/><tag k="Cluster_ID" v="38"/><tag k="xyz" v="1066_1321_11"/></node><node lat="46.29661" lon="7.54208"  id="-11"  changeset="false" ><tag k="id" v="21194"/><tag k="amenity" v="toilets"/><tag k="municipali" v="Sierre"/><tag k="name" v="Parkplatz"/><tag k="toilets_po" v="seated"/><tag k="wc_guide_i" v="21194"/><tag k="Cluster_ID" v="38"/><tag k="xyz" v="1066_1321_11"/></node></osm>