<?xml version="1.0" encoding="UTF-8"?><osm version="0.6" generator="https://github.com/Rub21/geojson2osm"><node lat="46.290958" lon="7.88312"  id="-1"  changeset="false" ><tag k="id" v="1228"/><tag k="amenity" v="toilets"/><tag k="municipali" v="Visp"/><tag k="name" v="Parkhaus La Post"/><tag k="toilets_po" v="seated"/><tag k="wc_guide_i" v="1228"/><tag k="Cluster_ID" v="9"/><tag k="xyz" v="1068_1321_11"/></node><node lat="46.28511" lon="7.879357"  id="-2"  changeset="false" ><tag k="id" v="1981"/><tag k="amenity" v="toilets"/><tag k="municipali" v="Visp"/><tag k="name" v="Chatzuh�s Biotop"/><tag k="toilets_po" v="seated"/><tag k="wc_guide_i" v="1981"/><tag k="Cluster_ID" v="9"/><tag k="xyz" v="1068_1321_11"/></node><node lat="46.312126" lon="7.842822"  id="-3"  changeset="false" ><tag k="id" v="2625"/><tag k="amenity" v="toilets"/><tag k="municipali" v="Ausserberg"/><tag k="name" v="Bahnhof Ausserberg"/><tag k="toilets_po" v="seated"/><tag k="wc_guide_i" v="2625"/><tag k="Cluster_ID" v="9"/><tag k="xyz" v="1068_1321_11"/></node><node lat="46.23185" lon="7.87109"  id="-4"  changeset="false" ><tag k="id" v="2629"/><tag k="amenity" v="toilets"/><tag k="municipali" v="Stalden"/><tag k="name" v="beim Spielplatz"/><tag k="toilets_po" v="seated"/><tag k="wc_guide_i" v="2629"/><tag k="Cluster_ID" v="9"/><tag k="xyz" v="1068_1321_11"/></node><node lat="46.216091" lon="7.827574"  id="-5"  changeset="false" ><tag k="id" v="3776"/><tag k="amenity" v="toilets"/><tag k="municipali" v="Embd"/><tag k="name" v="Seilbahn"/><tag k="toilets_po" v="seated"/><tag k="wc_guide_i" v="3776"/><tag k="Cluster_ID" v="9"/><tag k="xyz" v="1068_1321_11"/></node><node lat="46.297325" lon="7.886243"  id="-6"  changeset="false" ><tag k="id" v="16750"/><tag k="amenity" v="toilets"/><tag k="municipali" v="Visp"/><tag k="name" v="Lonza Anol Dianol"/><tag k="toilets_po" v="seated"/><tag k="wc_guide_i" v="16750"/><tag k="Cluster_ID" v="9"/><tag k="xyz" v="1068_1321_11"/></node><node lat="46.315529" lon="7.739344"  id="-7"  changeset="false" ><tag k="id" v="20559"/><tag k="amenity" v="toilets"/><tag k="municipali" v="Gampel"/><tag k="name" v="T�l�ph�rique"/><tag k="toilets_po" v="seated"/><tag k="wc_guide_i" v="20559"/><tag k="Cluster_ID" v="38"/><tag k="xyz" v="1068_1321_11"/></node><node lat="46.308666" lon="7.744414"  id="-8"  changeset="false" ><tag k="id" v="20896"/><tag k="amenity" v="toilets"/><tag k="municipali" v="Gampel-Bratsch"/><tag k="name" v="Tankstellen WC"/><tag k="toilets_po" v="seated"/><tag k="wc_guide_i" v="20896"/><tag k="website" v="https://www.tankstellegampel.ch/"/><tag k="Cluster_ID" v="38"/><tag k="xyz" v="1068_1321_11"/></node><node lat="46.31057" lon="7.802426"  id="-9"  changeset="false" ><tag k="id" v="20917"/><tag k="amenity" v="toilets"/><tag k="descriptio" v="Im Eingangsbereich der Felsenkirche"/><tag k="municipali" v="Raron"/><tag k="toilets_po" v="seated"/><tag k="wc_guide_i" v="20917"/><tag k="Cluster_ID" v="9"/><tag k="xyz" v="1068_1321_11"/></node></osm>