<?xml version="1.0" encoding="UTF-8"?><osm version="0.6" generator="https://github.com/Rub21/geojson2osm"><node lat="46.705189" lon="8.855753"  id="-1"  changeset="false" ><tag k="id" v="500"/><tag k="amenity" v="toilets"/><tag k="descriptio" v="Auch Behinderten-Toilette ?"/><tag k="municipali" v="Disentis/Must�r"/><tag k="name" v="Bahnhof"/><tag k="toilets_po" v="seated"/><tag k="wc_guide_i" v="500"/><tag k="Cluster_ID" v="49"/><tag k="xyz" v="1074_1325_11"/></node><node lat="46.703938" lon="8.85217"  id="-2"  changeset="false" ><tag k="id" v="501"/><tag k="amenity" v="toilets"/><tag k="descriptio" v="Auch Behinderten-Toilette ?"/><tag k="municipali" v="Disentis/Must�r"/><tag k="name" v="N�he Ludothek"/><tag k="toilets_po" v="seated"/><tag k="wc_guide_i" v="501"/><tag k="Cluster_ID" v="49"/><tag k="xyz" v="1074_1325_11"/></node><node lat="46.707523" lon="8.85865"  id="-3"  changeset="false" ><tag k="id" v="1608"/><tag k="amenity" v="toilets"/><tag k="municipali" v="Disentis/Must�r"/><tag k="name" v="Parkplatz"/><tag k="toilets_po" v="seated"/><tag k="wc_guide_i" v="1608"/><tag k="Cluster_ID" v="49"/><tag k="xyz" v="1074_1325_11"/></node></osm>