<?xml version="1.0" encoding="UTF-8"?><osm version="0.6" generator="https://github.com/Rub21/geojson2osm"><node lat="47.408203" lon="7.543013"  id="-1"  changeset="false" ><tag k="id" v="1972"/><tag k="amenity" v="toilets"/><tag k="municipali" v="Breitenbach"/><tag k="name" v="Wydehof"/><tag k="toilets_po" v="seated"/><tag k="wc_guide_i" v="1972"/><tag k="website" v="https://www.wydehofcenter.ch/"/><tag k="Cluster_ID" v="41"/><tag k="xyz" v="1066_1331_11"/></node><node lat="47.499359" lon="7.557105"  id="-2"  changeset="false" ><tag k="id" v="2242"/><tag k="amenity" v="toilets"/><tag k="municipali" v="Therwil"/><tag k="name" v="Bahnhof Therwil"/><tag k="toilets_po" v="seated"/><tag k="wc_guide_i" v="2242"/><tag k="Cluster_ID" v="41"/><tag k="xyz" v="1066_1331_11"/></node><node lat="47.509281" lon="7.554572"  id="-3"  changeset="false" ><tag k="id" v="2618"/><tag k="amenity" v="toilets"/><tag k="municipali" v="Oberwil"/><tag k="name" v="Migros Filiale Oberwil"/><tag k="toilets_po" v="seated"/><tag k="wc_guide_i" v="2618"/><tag k="Cluster_ID" v="41"/><tag k="xyz" v="1066_1331_11"/></node><node lat="47.478725" lon="7.543745"  id="-4"  changeset="false" ><tag k="id" v="3740"/><tag k="amenity" v="toilets"/><tag k="municipali" v="Ettingen"/><tag k="name" v="Friedhof"/><tag k="toilets_po" v="seated"/><tag k="wc_guide_i" v="3740"/><tag k="Cluster_ID" v="41"/><tag k="xyz" v="1066_1331_11"/></node><node lat="47.404488" lon="7.430008"  id="-5"  changeset="false" ><tag k="id" v="4410"/><tag k="amenity" v="toilets"/><tag k="municipali" v="Liesberg"/><tag k="name" v="Friedhof"/><tag k="toilets_po" v="seated"/><tag k="wc_guide_i" v="4410"/><tag k="Cluster_ID" v="13"/><tag k="xyz" v="1066_1331_11"/></node><node lat="47.476612" lon="7.491991"  id="-6"  changeset="false" ><tag k="id" v="19129"/><tag k="amenity" v="toilets"/><tag k="municipali" v="Mariastein"/><tag k="name" v="Kloster Mariastein"/><tag k="toilets_po" v="seated"/><tag k="wc_guide_i" v="19129"/><tag k="Cluster_ID" v="41"/><tag k="xyz" v="1066_1331_11"/></node><node lat="47.477833" lon="7.511551"  id="-7"  changeset="false" ><tag k="id" v="20036"/><tag k="amenity" v="toilets"/><tag k="municipali" v="Hofstetten SO"/><tag k="name" v="Friedhof"/><tag k="toilets_po" v="seated"/><tag k="wc_guide_i" v="20036"/><tag k="Cluster_ID" v="41"/><tag k="xyz" v="1066_1331_11"/></node><node lat="47.511173" lon="7.539698"  id="-8"  changeset="false" ><tag k="id" v="20710"/><tag k="amenity" v="toilets"/><tag k="municipali" v="Oberwil BL"/><tag k="name" v="Friedhof Oberwil"/><tag k="toilets_po" v="seated"/><tag k="wc_guide_i" v="20710"/><tag k="Cluster_ID" v="41"/><tag k="xyz" v="1066_1331_11"/></node><node lat="47.496487" lon="7.553582"  id="-9"  changeset="false" ><tag k="id" v="20711"/><tag k="amenity" v="toilets"/><tag k="municipali" v="Therwil"/><tag k="name" v="Friedhof"/><tag k="toilets_po" v="seated"/><tag k="wc_guide_i" v="20711"/><tag k="Cluster_ID" v="41"/><tag k="xyz" v="1066_1331_11"/></node><node lat="47.42536" lon="7.49909"  id="-10"  changeset="false" ><tag k="id" v="21224"/><tag k="amenity" v="toilets"/><tag k="descriptio" v="Trockentoilette beim Waldspielplatz"/><tag k="municipali" v="Laufen"/><tag k="name" v="Spielplatz Rebe"/><tag k="toilets_po" v="seated"/><tag k="wc_guide_i" v="21224"/><tag k="Cluster_ID" v="13"/><tag k="xyz" v="1066_1331_11"/></node></osm>