<?xml version="1.0" encoding="UTF-8"?><osm version="0.6" generator="https://github.com/Rub21/geojson2osm"><node lat="46.872128" lon="8.268253"  id="-1"  changeset="false" ><tag k="id" v="318"/><tag k="amenity" v="toilets"/><tag k="municipali" v="Fl�eli-Ranft"/><tag k="toilets_po" v="seated"/><tag k="wc_guide_i" v="318"/><tag k="Cluster_ID" v="35"/><tag k="xyz" v="1071_1326_11"/></node><node lat="46.820778" lon="8.407967"  id="-2"  changeset="false" ><tag k="id" v="1596"/><tag k="amenity" v="toilets"/><tag k="municipali" v="Engelberg"/><tag k="name" v="Gemeindehaus"/><tag k="toilets_po" v="seated"/><tag k="wc_guide_i" v="1596"/><tag k="Cluster_ID" v="35"/><tag k="xyz" v="1071_1326_11"/></node><node lat="46.86887" lon="8.272244"  id="-3"  changeset="false" ><tag k="id" v="1770"/><tag k="amenity" v="toilets"/><tag k="municipali" v="Fl�eli-Ranft"/><tag k="name" v="Kirche"/><tag k="toilets_po" v="seated"/><tag k="wc_guide_i" v="1770"/><tag k="Cluster_ID" v="35"/><tag k="xyz" v="1071_1326_11"/></node><node lat="46.838989" lon="8.393641"  id="-4"  changeset="false" ><tag k="id" v="2609"/><tag k="amenity" v="toilets"/><tag k="municipali" v="Engelberg"/><tag k="name" v="Rastplatz"/><tag k="toilets_po" v="seated"/><tag k="wc_guide_i" v="2609"/><tag k="Cluster_ID" v="35"/><tag k="xyz" v="1071_1326_11"/></node><node lat="46.917355" lon="8.297585"  id="-5"  changeset="false" ><tag k="id" v="3183"/><tag k="amenity" v="toilets"/><tag k="descriptio" v="R�ckseite"/><tag k="municipali" v="Kerns"/><tag k="name" v="Forstgeb�ude"/><tag k="toilets_po" v="seated"/><tag k="wc_guide_i" v="3183"/><tag k="Cluster_ID" v="35"/><tag k="xyz" v="1071_1326_11"/></node></osm>