<?xml version="1.0" encoding="UTF-8"?><osm version="0.6" generator="https://github.com/Rub21/geojson2osm"><node lat="47.129883" lon="8.759151"  id="-1"  changeset="false" ><tag k="id" v="1955"/><tag k="amenity" v="toilets"/><tag k="municipali" v="Einsiedeln"/><tag k="name" v="Friedhof"/><tag k="toilets_po" v="seated"/><tag k="wc_guide_i" v="1955"/><tag k="Cluster_ID" v="20"/><tag k="xyz" v="1073_1328_11"/></node><node lat="47.106602" lon="8.641542"  id="-2"  changeset="false" ><tag k="id" v="2779"/><tag k="amenity" v="toilets"/><tag k="municipali" v="Ober�geri"/><tag k="toilets_po" v="seated"/><tag k="wc_guide_i" v="2779"/><tag k="Cluster_ID" v="37"/><tag k="xyz" v="1073_1328_11"/></node><node lat="47.128784" lon="8.745689"  id="-3"  changeset="false" ><tag k="id" v="2977"/><tag k="amenity" v="toilets"/><tag k="descriptio" v="Parterre hinter Kiosk"/><tag k="municipali" v="Einsiedeln"/><tag k="name" v="Migros-Center, Parterre"/><tag k="toilets_po" v="seated"/><tag k="wc_guide_i" v="2977"/><tag k="Cluster_ID" v="20"/><tag k="xyz" v="1073_1328_11"/></node><node lat="47.084236" lon="8.636584"  id="-4"  changeset="false" ><tag k="id" v="3288"/><tag k="amenity" v="toilets"/><tag k="descriptio" v="WC in Container"/><tag k="municipali" v="Sattel"/><tag k="name" v="Spielplatz Schl�ssli"/><tag k="toilets_po" v="seated"/><tag k="wc_guide_i" v="3288"/><tag k="Cluster_ID" v="37"/><tag k="xyz" v="1073_1328_11"/></node><node lat="47.128281" lon="8.751597"  id="-5"  changeset="false" ><tag k="id" v="3457"/><tag k="amenity" v="toilets"/><tag k="municipali" v="Einsiedeln"/><tag k="toilets_po" v="seated"/><tag k="wc_guide_i" v="3457"/><tag k="Cluster_ID" v="20"/><tag k="xyz" v="1073_1328_11"/></node><node lat="47.12957" lon="8.758475"  id="-6"  changeset="false" ><tag k="id" v="3763"/><tag k="amenity" v="toilets"/><tag k="municipali" v="Einsiedeln"/><tag k="name" v="Friedhof Einsiedeln"/><tag k="toilets_po" v="seated"/><tag k="wc_guide_i" v="3763"/><tag k="Cluster_ID" v="20"/><tag k="xyz" v="1073_1328_11"/></node><node lat="47.077991" lon="8.634793"  id="-7"  changeset="false" ><tag k="id" v="3843"/><tag k="amenity" v="toilets"/><tag k="municipali" v="Sattel"/><tag k="name" v="Talstation Gondelbahn"/><tag k="toilets_po" v="seated"/><tag k="wc_guide_i" v="3843"/><tag k="Cluster_ID" v="37"/><tag k="xyz" v="1073_1328_11"/></node><node lat="47.115574" lon="8.776317"  id="-8"  changeset="false" ><tag k="id" v="16363"/><tag k="amenity" v="toilets"/><tag k="municipali" v="Einsiedeln"/><tag k="name" v="Kirchhaus"/><tag k="toilets_po" v="seated"/><tag k="wc_guide_i" v="16363"/><tag k="Cluster_ID" v="20"/><tag k="xyz" v="1073_1328_11"/></node><node lat="47.1273" lon="8.744515"  id="-9"  changeset="false" ><tag k="id" v="16503"/><tag k="amenity" v="toilets"/><tag k="municipali" v="Einsiedeln"/><tag k="name" v="Bahnhof"/><tag k="toilets_po" v="seated"/><tag k="wc_guide_i" v="16503"/><tag k="Cluster_ID" v="20"/><tag k="xyz" v="1073_1328_11"/></node><node lat="47.138615" lon="8.617835"  id="-10"  changeset="false" ><tag k="id" v="20549"/><tag k="amenity" v="toilets"/><tag k="municipali" v="Unter�geri"/><tag k="toilets_po" v="seated"/><tag k="wc_guide_i" v="20549"/><tag k="Cluster_ID" v="37"/><tag k="xyz" v="1073_1328_11"/></node></osm>