<?xml version="1.0" encoding="UTF-8"?><osm version="0.6" generator="https://github.com/Rub21/geojson2osm"><node lat="47.015896" lon="8.174"  id="-1"  changeset="false" ><tag k="id" v="1002"/><tag k="amenity" v="toilets"/><tag k="descriptio" v="Nicht immer ge�ffnet"/><tag k="municipali" v="Schwarzenberg"/><tag k="name" v="Mehrzweckhalle"/><tag k="toilets_po" v="seated"/><tag k="wc_guide_i" v="1002"/><tag k="Cluster_ID" v="37"/><tag k="xyz" v="1070_1327_11"/></node><node lat="47.00592" lon="8.217902"  id="-2"  changeset="false" ><tag k="id" v="3355"/><tag k="amenity" v="toilets"/><tag k="descriptio" v="Die Toilette ist ausserhalb des Restaurants. Mit Umkleideraum f�r Langl�ufer."/><tag k="municipali" v="Eigenthal"/><tag k="name" v="Rest. Lindenst�bli"/><tag k="toilets_po" v="seated"/><tag k="wc_guide_i" v="3355"/><tag k="Cluster_ID" v="37"/><tag k="xyz" v="1070_1327_11"/></node><node lat="47.031239" lon="8.251963"  id="-3"  changeset="false" ><tag k="id" v="4312"/><tag k="amenity" v="toilets"/><tag k="municipali" v="Kriens"/><tag k="name" v="Busschleife Obernau"/><tag k="toilets_po" v="seated"/><tag k="wc_guide_i" v="4312"/><tag k="Cluster_ID" v="37"/><tag k="xyz" v="1070_1327_11"/></node><node lat="47.022152" lon="8.235087"  id="-4"  changeset="false" ><tag k="id" v="16792"/><tag k="amenity" v="toilets"/><tag k="descriptio" v="Unter Restaurant"/><tag k="municipali" v="Hergiswald"/><tag k="name" v="Kloster Hergiswald"/><tag k="toilets_po" v="seated"/><tag k="wc_guide_i" v="16792"/><tag k="website" v="https://www.gasthaushergiswald.ch/"/><tag k="Cluster_ID" v="37"/><tag k="xyz" v="1070_1327_11"/></node><node lat="47.03712" lon="8.18048"  id="-5"  changeset="false" ><tag k="id" v="21213"/><tag k="amenity" v="toilets"/><tag k="descriptio" v="Freistehendes Geb�ude s�dlich des Platzes."/><tag k="municipali" v="Malters"/><tag k="name" v="Weihermatte"/><tag k="toilets_po" v="seated"/><tag k="wc_guide_i" v="21213"/><tag k="Cluster_ID" v="37"/><tag k="xyz" v="1070_1327_11"/></node></osm>