<?xml version="1.0" encoding="UTF-8"?><osm version="0.6" generator="https://github.com/Rub21/geojson2osm"><node lat="47.557159" lon="7.565782"  id="-1"  changeset="false" ><tag k="id" v="250"/><tag k="amenity" v="toilets"/><tag k="municipali" v="Basel"/><tag k="toilets_po" v="seated"/><tag k="wc_guide_i" v="250"/><tag k="Cluster_ID" v="41"/><tag k="xyz" v="1067_1332_11"/></node><node lat="47.565029" lon="7.573174"  id="-2"  changeset="false" ><tag k="id" v="256"/><tag k="amenity" v="toilets"/><tag k="municipali" v="Basel"/><tag k="name" v="Tramhaltestelle Kannenfeldplatz"/><tag k="toilets_po" v="seated"/><tag k="wc_guide_i" v="256"/><tag k="Cluster_ID" v="41"/><tag k="xyz" v="1067_1332_11"/></node><node lat="47.558933" lon="7.584375"  id="-3"  changeset="false" ><tag k="id" v="259"/><tag k="amenity" v="toilets"/><tag k="municipali" v="Basel"/><tag k="toilets_po" v="urinal"/><tag k="wc_guide_i" v="259"/><tag k="Cluster_ID" v="41"/><tag k="xyz" v="1067_1332_11"/></node><node lat="47.52549" lon="7.591864"  id="-4"  changeset="false" ><tag k="id" v="261"/><tag k="amenity" v="toilets"/><tag k="municipali" v="Basel"/><tag k="toilets_po" v="seated"/><tag k="wc_guide_i" v="261"/><tag k="Cluster_ID" v="41"/><tag k="xyz" v="1067_1332_11"/></node><node lat="47.529938" lon="7.597843"  id="-5"  changeset="false" ><tag k="id" v="263"/><tag k="amenity" v="toilets"/><tag k="municipali" v="Basel"/><tag k="toilets_po" v="seated"/><tag k="wc_guide_i" v="263"/><tag k="Cluster_ID" v="41"/><tag k="xyz" v="1067_1332_11"/></node><node lat="47.532394" lon="7.593688"  id="-6"  changeset="false" ><tag k="id" v="265"/><tag k="amenity" v="toilets"/><tag k="municipali" v="Basel"/><tag k="toilets_po" v="seated"/><tag k="wc_guide_i" v="265"/><tag k="Cluster_ID" v="41"/><tag k="xyz" v="1067_1332_11"/></node><node lat="47.539703" lon="7.616894"  id="-7"  changeset="false" ><tag k="id" v="266"/><tag k="amenity" v="toilets"/><tag k="municipali" v="Basel"/><tag k="name" v="Parkplatz St. Jakob"/><tag k="toilets_po" v="seated"/><tag k="wc_guide_i" v="266"/><tag k="Cluster_ID" v="41"/><tag k="xyz" v="1067_1332_11"/></node><node lat="47.54493" lon="7.588967"  id="-8"  changeset="false" ><tag k="id" v="267"/><tag k="amenity" v="toilets"/><tag k="municipali" v="Basel"/><tag k="toilets_po" v="seated"/><tag k="wc_guide_i" v="267"/><tag k="Cluster_ID" v="41"/><tag k="xyz" v="1067_1332_11"/></node><node lat="47.554466" lon="7.604119"  id="-9"  changeset="false" ><tag k="id" v="270"/><tag k="amenity" v="toilets"/><tag k="municipali" v="Basel"/><tag k="toilets_po" v="seated"/><tag k="wc_guide_i" v="270"/><tag k="Cluster_ID" v="41"/><tag k="xyz" v="1067_1332_11"/></node><node lat="47.55706" lon="7.590061"  id="-10"  changeset="false" ><tag k="id" v="276"/><tag k="amenity" v="toilets"/><tag k="municipali" v="Basel"/><tag k="toilets_po" v="urinal"/><tag k="wc_guide_i" v="276"/><tag k="Cluster_ID" v="41"/><tag k="xyz" v="1067_1332_11"/></node><node lat="47.566059" lon="7.619426"  id="-11"  changeset="false" ><tag k="id" v="282"/><tag k="amenity" v="toilets"/><tag k="municipali" v="Basel"/><tag k="toilets_po" v="seated"/><tag k="wc_guide_i" v="282"/><tag k="Cluster_ID" v="41"/><tag k="xyz" v="1067_1332_11"/></node><node lat="47.574696" lon="7.606552"  id="-12"  changeset="false" ><tag k="id" v="285"/><tag k="amenity" v="toilets"/><tag k="municipali" v="Basel"/><tag k="toilets_po" v="seated"/><tag k="wc_guide_i" v="285"/><tag k="Cluster_ID" v="41"/><tag k="xyz" v="1067_1332_11"/></node><node lat="47.562511" lon="7.62669"  id="-13"  changeset="false" ><tag k="id" v="289"/><tag k="amenity" v="toilets"/><tag k="municipali" v="Basel"/><tag k="toilets_po" v="seated"/><tag k="wc_guide_i" v="289"/><tag k="Cluster_ID" v="41"/><tag k="xyz" v="1067_1332_11"/></node><node lat="47.58807" lon="7.592722"  id="-14"  changeset="false" ><tag k="id" v="290"/><tag k="amenity" v="toilets"/><tag k="municipali" v="Basel"/><tag k="toilets_po" v="seated"/><tag k="wc_guide_i" v="290"/><tag k="Cluster_ID" v="41"/><tag k="xyz" v="1067_1332_11"/></node><node lat="47.581127" lon="7.604427"  id="-15"  changeset="false" ><tag k="id" v="292"/><tag k="amenity" v="toilets"/><tag k="municipali" v="Basel"/><tag k="name" v="Zoll"/><tag k="toilets_po" v="seated"/><tag k="wc_guide_i" v="292"/><tag k="Cluster_ID" v="41"/><tag k="xyz" v="1067_1332_11"/></node><node lat="47.582577" lon="7.588999"  id="-16"  changeset="false" ><tag k="id" v="293"/><tag k="amenity" v="toilets"/><tag k="municipali" v="Basel"/><tag k="name" v="Parkplatz Westquaistrasse"/><tag k="toilets_po" v="seated"/><tag k="wc_guide_i" v="293"/><tag k="Cluster_ID" v="41"/><tag k="xyz" v="1067_1332_11"/></node><node lat="47.578079" lon="7.62385"  id="-17"  changeset="false" ><tag k="id" v="295"/><tag k="amenity" v="toilets"/><tag k="municipali" v="Basel"/><tag k="toilets_po" v="seated"/><tag k="wc_guide_i" v="295"/><tag k="Cluster_ID" v="41"/><tag k="xyz" v="1067_1332_11"/></node><node lat="47.572212" lon="7.59505"  id="-18"  changeset="false" ><tag k="id" v="297"/><tag k="amenity" v="toilets"/><tag k="municipali" v="Basel"/><tag k="toilets_po" v="seated"/><tag k="wc_guide_i" v="297"/><tag k="Cluster_ID" v="41"/><tag k="xyz" v="1067_1332_11"/></node><node lat="47.594883" lon="7.655722"  id="-19"  changeset="false" ><tag k="id" v="463"/><tag k="amenity" v="toilets"/><tag k="municipali" v="Riehen"/><tag k="name" v="Riehen Grenze, Endstation Tram Nr. 6"/><tag k="toilets_po" v="seated"/><tag k="wc_guide_i" v="463"/><tag k="Cluster_ID" v="41"/><tag k="xyz" v="1067_1332_11"/></node><node lat="47.588467" lon="7.65202"  id="-20"  changeset="false" ><tag k="id" v="465"/><tag k="amenity" v="toilets"/><tag k="municipali" v="Riehen"/><tag k="toilets_po" v="seated"/><tag k="wc_guide_i" v="465"/><tag k="Cluster_ID" v="41"/><tag k="xyz" v="1067_1332_11"/></node><node lat="47.524963" lon="7.656312"  id="-21"  changeset="false" ><tag k="id" v="473"/><tag k="amenity" v="toilets"/><tag k="municipali" v="Muttenz"/><tag k="toilets_po" v="seated"/><tag k="wc_guide_i" v="473"/><tag k="Cluster_ID" v="41"/><tag k="xyz" v="1067_1332_11"/></node><node lat="47.522606" lon="7.645862"  id="-22"  changeset="false" ><tag k="id" v="474"/><tag k="amenity" v="toilets"/><tag k="municipali" v="Muttenz"/><tag k="toilets_po" v="seated"/><tag k="wc_guide_i" v="474"/><tag k="Cluster_ID" v="41"/><tag k="xyz" v="1067_1332_11"/></node><node lat="47.543163" lon="7.589289"  id="-23"  changeset="false" ><tag k="id" v="799"/><tag k="amenity" v="toilets"/><tag k="municipali" v="Basel"/><tag k="name" v="Winkelriedplatz"/><tag k="toilets_po" v="seated"/><tag k="wc_guide_i" v="799"/><tag k="Cluster_ID" v="41"/><tag k="xyz" v="1067_1332_11"/></node><node lat="47.53479" lon="7.59093"  id="-24"  changeset="false" ><tag k="id" v="935"/><tag k="amenity" v="toilets"/><tag k="municipali" v="Basel"/><tag k="toilets_po" v="seated"/><tag k="wc_guide_i" v="935"/><tag k="Cluster_ID" v="41"/><tag k="xyz" v="1067_1332_11"/></node><node lat="47.567551" lon="7.606723"  id="-25"  changeset="false" ><tag k="id" v="939"/><tag k="amenity" v="toilets"/><tag k="municipali" v="Basel"/><tag k="toilets_po" v="seated"/><tag k="wc_guide_i" v="939"/><tag k="Cluster_ID" v="41"/><tag k="xyz" v="1067_1332_11"/></node><node lat="47.563599" lon="7.596048"  id="-26"  changeset="false" ><tag k="id" v="941"/><tag k="amenity" v="toilets"/><tag k="descriptio" v="Selbstreinigend"/><tag k="municipali" v="Basel"/><tag k="toilets_po" v="seated"/><tag k="wc_guide_i" v="941"/><tag k="Cluster_ID" v="41"/><tag k="xyz" v="1067_1332_11"/></node><node lat="47.559635" lon="7.580706"  id="-27"  changeset="false" ><tag k="id" v="943"/><tag k="amenity" v="toilets"/><tag k="municipali" v="Basel"/><tag k="name" v="Eingangshalle der Universit�tsbibliothek"/><tag k="toilets_po" v="seated"/><tag k="wc_guide_i" v="943"/><tag k="Cluster_ID" v="41"/><tag k="xyz" v="1067_1332_11"/></node><node lat="47.564045" lon="7.601768"  id="-28"  changeset="false" ><tag k="id" v="1167"/><tag k="amenity" v="toilets"/><tag k="municipali" v="Basel"/><tag k="name" v="Messeplatz"/><tag k="toilets_po" v="seated"/><tag k="wc_guide_i" v="1167"/><tag k="Cluster_ID" v="41"/><tag k="xyz" v="1067_1332_11"/></node><node lat="47.563751" lon="7.6019"  id="-29"  changeset="false" ><tag k="id" v="1170"/><tag k="amenity" v="toilets"/><tag k="municipali" v="Basel"/><tag k="name" v="Parking Messe Basel"/><tag k="toilets_po" v="seated"/><tag k="wc_guide_i" v="1170"/><tag k="Cluster_ID" v="41"/><tag k="xyz" v="1067_1332_11"/></node><node lat="47.563656" lon="7.601889"  id="-30"  changeset="false" ><tag k="id" v="1177"/><tag k="amenity" v="toilets"/><tag k="municipali" v="Basel"/><tag k="name" v="Parking Messe"/><tag k="toilets_po" v="seated"/><tag k="wc_guide_i" v="1177"/><tag k="Cluster_ID" v="41"/><tag k="xyz" v="1067_1332_11"/></node><node lat="47.558643" lon="7.598038"  id="-31"  changeset="false" ><tag k="id" v="1819"/><tag k="amenity" v="toilets"/><tag k="municipali" v="Basel"/><tag k="name" v="Wettsteinplatz"/><tag k="toilets_po" v="seated"/><tag k="wc_guide_i" v="1819"/><tag k="Cluster_ID" v="41"/><tag k="xyz" v="1067_1332_11"/></node><node lat="47.557476" lon="7.619817"  id="-32"  changeset="false" ><tag k="id" v="1850"/><tag k="amenity" v="toilets"/><tag k="municipali" v="Birsfelden"/><tag k="name" v="Birskopfli"/><tag k="toilets_po" v="seated"/><tag k="wc_guide_i" v="1850"/><tag k="Cluster_ID" v="41"/><tag k="xyz" v="1067_1332_11"/></node><node lat="47.542149" lon="7.596531"  id="-33"  changeset="false" ><tag k="id" v="2130"/><tag k="amenity" v="toilets"/><tag k="municipali" v="Basel"/><tag k="name" v="Ecke G�terstrasse/Liesbergerstrasse"/><tag k="toilets_po" v="seated"/><tag k="wc_guide_i" v="2130"/><tag k="Cluster_ID" v="41"/><tag k="xyz" v="1067_1332_11"/></node><node lat="47.573196" lon="7.629747"  id="-34"  changeset="false" ><tag k="id" v="2297"/><tag k="amenity" v="toilets"/><tag k="municipali" v="Riehen"/><tag k="toilets_po" v="seated"/><tag k="wc_guide_i" v="2297"/><tag k="Cluster_ID" v="41"/><tag k="xyz" v="1067_1332_11"/></node><node lat="47.566666" lon="7.637601"  id="-35"  changeset="false" ><tag k="id" v="2300"/><tag k="amenity" v="toilets"/><tag k="municipali" v="Riehen"/><tag k="name" v="Friedhof"/><tag k="toilets_po" v="seated"/><tag k="wc_guide_i" v="2300"/><tag k="website" v="https://www.riehen.ch/leben-und-wohnen/friedhoefe/gottesacker"/><tag k="Cluster_ID" v="41"/><tag k="xyz" v="1067_1332_11"/></node><node lat="47.563583" lon="7.591833"  id="-36"  changeset="false" ><tag k="id" v="2356"/><tag k="amenity" v="toilets"/><tag k="municipali" v="Basel"/><tag k="name" v="Kaserne"/><tag k="toilets_po" v="seated"/><tag k="wc_guide_i" v="2356"/><tag k="Cluster_ID" v="41"/><tag k="xyz" v="1067_1332_11"/></node><node lat="47.544735" lon="7.576955"  id="-37"  changeset="false" ><tag k="id" v="3849"/><tag k="amenity" v="toilets"/><tag k="municipali" v="Basel"/><tag k="name" v="Zoo Dorenbach"/><tag k="toilets_po" v="seated"/><tag k="wc_guide_i" v="3849"/><tag k="Cluster_ID" v="41"/><tag k="xyz" v="1067_1332_11"/></node><node lat="47.553471" lon="7.612837"  id="-38"  changeset="false" ><tag k="id" v="4004"/><tag k="amenity" v="toilets"/><tag k="municipali" v="Basel"/><tag k="name" v="Gellertpark"/><tag k="toilets_po" v="seated"/><tag k="wc_guide_i" v="4004"/><tag k="Cluster_ID" v="41"/><tag k="xyz" v="1067_1332_11"/></node><node lat="47.548958" lon="7.589032"  id="-39"  changeset="false" ><tag k="id" v="4170"/><tag k="amenity" v="toilets"/><tag k="municipali" v="Basel"/><tag k="name" v="Nsh Schule"/><tag k="toilets_po" v="seated"/><tag k="wc_guide_i" v="4170"/><tag k="website" v="https://www.nsh.ch/"/><tag k="Cluster_ID" v="41"/><tag k="xyz" v="1067_1332_11"/></node><node lat="47.557472" lon="7.569068"  id="-40"  changeset="false" ><tag k="id" v="4295"/><tag k="amenity" v="toilets"/><tag k="municipali" v="Basel"/><tag k="name" v="Oekolampadmatte"/><tag k="toilets_po" v="seated"/><tag k="wc_guide_i" v="4295"/><tag k="Cluster_ID" v="41"/><tag k="xyz" v="1067_1332_11"/></node><node lat="47.51815" lon="7.694532"  id="-41"  changeset="false" ><tag k="id" v="4413"/><tag k="amenity" v="toilets"/><tag k="descriptio" v="WC Ist seitlich des Schulhauses"/><tag k="municipali" v="Pratteln"/><tag k="name" v="Schulhaus"/><tag k="toilets_po" v="seated"/><tag k="wc_guide_i" v="4413"/><tag k="Cluster_ID" v="41"/><tag k="xyz" v="1067_1332_11"/></node><node lat="47.545567" lon="7.604653"  id="-42"  changeset="false" ><tag k="id" v="4670"/><tag k="amenity" v="toilets"/><tag k="descriptio" v="Kostet 2 CHF"/><tag k="municipali" v="Basel"/><tag k="name" v="Bahnhof SBB"/><tag k="toilets_po" v="seated"/><tag k="wc_guide_i" v="4670"/><tag k="Cluster_ID" v="41"/><tag k="xyz" v="1067_1332_11"/></node><node lat="47.580322" lon="7.639119"  id="-43"  changeset="false" ><tag k="id" v="16831"/><tag k="amenity" v="toilets"/><tag k="municipali" v="Riehen"/><tag k="toilets_po" v="seated"/><tag k="wc_guide_i" v="16831"/><tag k="Cluster_ID" v="41"/><tag k="xyz" v="1067_1332_11"/></node><node lat="47.552975" lon="7.612404"  id="-44"  changeset="false" ><tag k="id" v="18300"/><tag k="amenity" v="toilets"/><tag k="municipali" v="Basel"/><tag k="name" v="Breite Matte Spielplatz"/><tag k="toilets_po" v="seated"/><tag k="wc_guide_i" v="18300"/><tag k="Cluster_ID" v="41"/><tag k="xyz" v="1067_1332_11"/></node><node lat="47.552975" lon="7.612404"  id="-45"  changeset="false" ><tag k="id" v="18302"/><tag k="amenity" v="toilets"/><tag k="municipali" v="Basel"/><tag k="name" v="Burkhard Park"/><tag k="toilets_po" v="seated"/><tag k="wc_guide_i" v="18302"/><tag k="Cluster_ID" v="41"/><tag k="xyz" v="1067_1332_11"/></node><node lat="47.554188" lon="7.590341"  id="-46"  changeset="false" ><tag k="id" v="18320"/><tag k="amenity" v="toilets"/><tag k="municipali" v="Basel"/><tag k="name" v="Barf�sserkirche"/><tag k="toilets_po" v="urinal"/><tag k="wc_guide_i" v="18320"/><tag k="Cluster_ID" v="41"/><tag k="xyz" v="1067_1332_11"/></node><node lat="47.533413" lon="7.647819"  id="-47"  changeset="false" ><tag k="id" v="18945"/><tag k="amenity" v="toilets"/><tag k="descriptio" v="Schl�ssel bei Avec Shop"/><tag k="municipali" v="Muttenz"/><tag k="name" v="Bahnhof"/><tag k="toilets_po" v="seated"/><tag k="wc_guide_i" v="18945"/><tag k="Cluster_ID" v="41"/><tag k="xyz" v="1067_1332_11"/></node><node lat="47.520176" lon="7.709593"  id="-48"  changeset="false" ><tag k="id" v="18996"/><tag k="amenity" v="toilets"/><tag k="municipali" v="Pratteln"/><tag k="name" v="Friedhof"/><tag k="toilets_po" v="seated"/><tag k="wc_guide_i" v="18996"/><tag k="Cluster_ID" v="41"/><tag k="xyz" v="1067_1332_11"/></node><node lat="47.55529" lon="7.614498"  id="-49"  changeset="false" ><tag k="id" v="19846"/><tag k="amenity" v="toilets"/><tag k="municipali" v="Basel"/><tag k="toilets_po" v="seated"/><tag k="wc_guide_i" v="19846"/><tag k="Cluster_ID" v="41"/><tag k="xyz" v="1067_1332_11"/></node><node lat="47.566311" lon="7.592613"  id="-50"  changeset="false" ><tag k="id" v="19986"/><tag k="amenity" v="toilets"/><tag k="municipali" v="Basel"/><tag k="name" v="Bus Haltestelle Feldbergstrasse"/><tag k="toilets_po" v="urinal"/><tag k="wc_guide_i" v="19986"/><tag k="Cluster_ID" v="41"/><tag k="xyz" v="1067_1332_11"/></node><node lat="47.522633" lon="7.691288"  id="-51"  changeset="false" ><tag k="id" v="20116"/><tag k="amenity" v="toilets"/><tag k="municipali" v="Pratteln"/><tag k="name" v="Bahnhof (Links vom Coop Pronto)"/><tag k="toilets_po" v="seated"/><tag k="wc_guide_i" v="20116"/><tag k="Cluster_ID" v="41"/><tag k="xyz" v="1067_1332_11"/></node><node lat="47.558407" lon="7.587217"  id="-52"  changeset="false" ><tag k="id" v="20353"/><tag k="amenity" v="toilets"/><tag k="municipali" v="Basel"/><tag k="name" v="Nette Toilette"/><tag k="toilets_po" v="seated"/><tag k="wc_guide_i" v="20353"/><tag k="website" v="https://www.moevenpick-restaurants.com/brasserie-baselstab"/><tag k="Cluster_ID" v="41"/><tag k="xyz" v="1067_1332_11"/></node><node lat="47.559921" lon="7.587494"  id="-53"  changeset="false" ><tag k="id" v="20354"/><tag k="amenity" v="toilets"/><tag k="municipali" v="Basel"/><tag k="name" v="Nette Toilette"/><tag k="toilets_po" v="seated"/><tag k="wc_guide_i" v="20354"/><tag k="website" v="https://www.confiserie-bachmann.ch/confiserie-bachmann-schifflaende-basel/"/><tag k="Cluster_ID" v="41"/><tag k="xyz" v="1067_1332_11"/></node><node lat="47.548199" lon="7.589399"  id="-54"  changeset="false" ><tag k="id" v="20355"/><tag k="amenity" v="toilets"/><tag k="municipali" v="Basel"/><tag k="name" v="Nette Toilette"/><tag k="toilets_po" v="seated"/><tag k="wc_guide_i" v="20355"/><tag k="website" v="https://www.confiserie-bachmann.ch/confiserie-bachmann-basel-bahnhof-sbb/"/><tag k="Cluster_ID" v="41"/><tag k="xyz" v="1067_1332_11"/></node><node lat="47.555832" lon="7.588764"  id="-55"  changeset="false" ><tag k="id" v="20356"/><tag k="amenity" v="toilets"/><tag k="municipali" v="Basel"/><tag k="name" v="Nette Toilette"/><tag k="toilets_po" v="seated"/><tag k="wc_guide_i" v="20356"/><tag k="website" v="https://www.confiserie-bachmann.ch/confiserie-bachmann-gerbergasse-basel/"/><tag k="Cluster_ID" v="41"/><tag k="xyz" v="1067_1332_11"/></node><node lat="47.558086" lon="7.58737"  id="-56"  changeset="false" ><tag k="id" v="20357"/><tag k="amenity" v="toilets"/><tag k="municipali" v="Basel"/><tag k="name" v="Nette Toilette"/><tag k="toilets_po" v="seated"/><tag k="wc_guide_i" v="20357"/><tag k="website" v="https://www.confiserie-schiesser.ch/"/><tag k="Cluster_ID" v="41"/><tag k="xyz" v="1067_1332_11"/></node><node lat="47.552433" lon="7.58868"  id="-57"  changeset="false" ><tag k="id" v="20359"/><tag k="amenity" v="toilets"/><tag k="municipali" v="Basel"/><tag k="name" v="Nette Toilette"/><tag k="toilets_po" v="seated"/><tag k="wc_guide_i" v="20359"/><tag k="website" v="http://www.kuechlin.ch/"/><tag k="Cluster_ID" v="41"/><tag k="xyz" v="1067_1332_11"/></node><node lat="47.557281" lon="7.586802"  id="-58"  changeset="false" ><tag k="id" v="20360"/><tag k="amenity" v="toilets"/><tag k="municipali" v="Basel"/><tag k="name" v="Nette Toilette"/><tag k="toilets_po" v="seated"/><tag k="wc_guide_i" v="20360"/><tag k="website" v="https://www.hotel-basel.ch/"/><tag k="Cluster_ID" v="41"/><tag k="xyz" v="1067_1332_11"/></node><node lat="47.559307" lon="7.593278"  id="-59"  changeset="false" ><tag k="id" v="20362"/><tag k="amenity" v="toilets"/><tag k="municipali" v="Basel"/><tag k="name" v="Nette Toilette"/><tag k="toilets_po" v="seated"/><tag k="wc_guide_i" v="20362"/><tag k="website" v="https://restaurantfischerstube.ch/"/><tag k="Cluster_ID" v="41"/><tag k="xyz" v="1067_1332_11"/></node><node lat="47.555195" lon="7.589081"  id="-60"  changeset="false" ><tag k="id" v="20366"/><tag k="amenity" v="toilets"/><tag k="municipali" v="Basel"/><tag k="name" v="Nette Toilette"/><tag k="toilets_po" v="seated"/><tag k="wc_guide_i" v="20366"/><tag k="website" v="https://www.mangerboire.ch/"/><tag k="Cluster_ID" v="41"/><tag k="xyz" v="1067_1332_11"/></node><node lat="47.55724" lon="7.584424"  id="-61"  changeset="false" ><tag k="id" v="20370"/><tag k="amenity" v="toilets"/><tag k="municipali" v="Basel"/><tag k="name" v="Nette Toilette"/><tag k="toilets_po" v="seated"/><tag k="wc_guide_i" v="20370"/><tag k="website" v="https://www.harmoniebasel.ch/"/><tag k="Cluster_ID" v="41"/><tag k="xyz" v="1067_1332_11"/></node><node lat="47.556736" lon="7.586747"  id="-62"  changeset="false" ><tag k="id" v="20372"/><tag k="amenity" v="toilets"/><tag k="municipali" v="Basel"/><tag k="name" v="Nette Toilette"/><tag k="toilets_po" v="seated"/><tag k="wc_guide_i" v="20372"/><tag k="website" v="https://www.restaurant-schnabel.ch/"/><tag k="Cluster_ID" v="41"/><tag k="xyz" v="1067_1332_11"/></node><node lat="47.556725" lon="7.584816"  id="-63"  changeset="false" ><tag k="id" v="20373"/><tag k="amenity" v="toilets"/><tag k="descriptio" v="So u. Mo geschlossen Di - Sa von 9 - 24 Uhr"/><tag k="municipali" v="Basel"/><tag k="name" v="Nette Toilette"/><tag k="toilets_po" v="seated"/><tag k="wc_guide_i" v="20373"/><tag k="website" v="https://www.spale-bar.ch/"/><tag k="Cluster_ID" v="41"/><tag k="xyz" v="1067_1332_11"/></node><node lat="47.556953" lon="7.586304"  id="-64"  changeset="false" ><tag k="id" v="20374"/><tag k="amenity" v="toilets"/><tag k="municipali" v="Basel"/><tag k="name" v="Nette Toilette"/><tag k="toilets_po" v="seated"/><tag k="wc_guide_i" v="20374"/><tag k="website" v="http://www.tapasdelmar.com/"/><tag k="Cluster_ID" v="41"/><tag k="xyz" v="1067_1332_11"/></node></osm>