<?xml version="1.0" encoding="UTF-8"?><osm version="0.6" generator="https://github.com/Rub21/geojson2osm"><node lat="47.190887" lon="7.388766"  id="-1"  changeset="false" ><tag k="id" v="1339"/><tag k="amenity" v="toilets"/><tag k="municipali" v="Grenchen"/><tag k="name" v="Bahnhof Nord"/><tag k="toilets_po" v="seated"/><tag k="wc_guide_i" v="1339"/><tag k="Cluster_ID" v="11"/><tag k="xyz" v="1066_1329_11"/></node><node lat="47.199657" lon="7.539024"  id="-2"  changeset="false" ><tag k="id" v="3030"/><tag k="amenity" v="toilets"/><tag k="municipali" v="Solothurn"/><tag k="toilets_po" v="seated"/><tag k="wc_guide_i" v="3030"/><tag k="Cluster_ID" v="34"/><tag k="xyz" v="1066_1329_11"/></node><node lat="47.164593" lon="7.527176"  id="-3"  changeset="false" ><tag k="id" v="3303"/><tag k="amenity" v="toilets"/><tag k="municipali" v="Lohn-Ammannsegg"/><tag k="name" v="Bahnhof Lohn"/><tag k="toilets_po" v="seated"/><tag k="wc_guide_i" v="3303"/><tag k="Cluster_ID" v="34"/><tag k="xyz" v="1066_1329_11"/></node><node lat="47.204144" lon="7.538486"  id="-4"  changeset="false" ><tag k="id" v="3679"/><tag k="amenity" v="toilets"/><tag k="municipali" v="Solothurn"/><tag k="name" v="Tiefgarage"/><tag k="toilets_po" v="seated"/><tag k="wc_guide_i" v="3679"/><tag k="Cluster_ID" v="34"/><tag k="xyz" v="1066_1329_11"/></node><node lat="47.208382" lon="7.540376"  id="-5"  changeset="false" ><tag k="id" v="16405"/><tag k="amenity" v="toilets"/><tag k="descriptio" v="Eintritt nur mit Parkticket"/><tag k="municipali" v="Solothurn"/><tag k="name" v="Parkhaus Baseltor"/><tag k="toilets_po" v="seated"/><tag k="wc_guide_i" v="16405"/><tag k="Cluster_ID" v="34"/><tag k="xyz" v="1066_1329_11"/></node><node lat="47.162422" lon="7.526542"  id="-6"  changeset="false" ><tag k="id" v="18084"/><tag k="amenity" v="toilets"/><tag k="municipali" v="Lohn-Ammannsegg"/><tag k="name" v="Bahnhof"/><tag k="toilets_po" v="seated"/><tag k="wc_guide_i" v="18084"/><tag k="Cluster_ID" v="34"/><tag k="xyz" v="1066_1329_11"/></node><node lat="47.214935" lon="7.536954"  id="-7"  changeset="false" ><tag k="id" v="18367"/><tag k="amenity" v="toilets"/><tag k="municipali" v="Solothurn"/><tag k="name" v="Kantonsschule"/><tag k="toilets_po" v="seated"/><tag k="wc_guide_i" v="18367"/><tag k="Cluster_ID" v="34"/><tag k="xyz" v="1066_1329_11"/></node><node lat="47.181805" lon="7.411476"  id="-8"  changeset="false" ><tag k="id" v="19160"/><tag k="amenity" v="toilets"/><tag k="descriptio" v="Ausgang am Ende des Durchganges"/><tag k="municipali" v="Grenchen"/><tag k="name" v="Flughafen, Abflughalle"/><tag k="toilets_po" v="seated"/><tag k="wc_guide_i" v="19160"/><tag k="website" v="http://www.airport-grenchen.ch"/><tag k="Cluster_ID" v="11"/><tag k="xyz" v="1066_1329_11"/></node><node lat="47.206562" lon="7.533673"  id="-9"  changeset="false" ><tag k="id" v="20202"/><tag k="amenity" v="toilets"/><tag k="municipali" v="Solothurn"/><tag k="name" v="Migros"/><tag k="toilets_po" v="seated"/><tag k="wc_guide_i" v="20202"/><tag k="Cluster_ID" v="34"/><tag k="xyz" v="1066_1329_11"/></node><node lat="47.2187" lon="7.46984"  id="-10"  changeset="false" ><tag k="id" v="20393"/><tag k="amenity" v="toilets"/><tag k="municipali" v="Lommiswil"/><tag k="name" v="Bahnhof"/><tag k="toilets_po" v="seated"/><tag k="wc_guide_i" v="20393"/><tag k="Cluster_ID" v="34"/><tag k="xyz" v="1066_1329_11"/></node><node lat="47.208309" lon="7.534697"  id="-11"  changeset="false" ><tag k="id" v="21050"/><tag k="amenity" v="toilets"/><tag k="descriptio" v="CHF 2.00 falls keine Konsumation, ansonsten ist es gratis."/><tag k="municipali" v="4500 Solothurn"/><tag k="toilets_po" v="seated"/><tag k="wc_guide_i" v="21050"/><tag k="Cluster_ID" v="34"/><tag k="xyz" v="1066_1329_11"/></node></osm>