<?xml version="1.0" encoding="UTF-8"?><osm version="0.6" generator="https://github.com/Rub21/geojson2osm"><node lat="47.41058" lon="8.063107"  id="-1"  changeset="false" ><tag k="id" v="1391"/><tag k="amenity" v="toilets"/><tag k="municipali" v="K�ttigen"/><tag k="name" v="Friedhof"/><tag k="toilets_po" v="seated"/><tag k="wc_guide_i" v="1391"/><tag k="Cluster_ID" v="28"/><tag k="xyz" v="1069_1331_11"/></node><node lat="47.506798" lon="8.022265"  id="-2"  changeset="false" ><tag k="id" v="1617"/><tag k="amenity" v="toilets"/><tag k="municipali" v="Frick"/><tag k="name" v="Widenplatz"/><tag k="toilets_po" v="seated"/><tag k="wc_guide_i" v="1617"/><tag k="Cluster_ID" v="28"/><tag k="xyz" v="1069_1331_11"/></node><node lat="47.481068" lon="7.975162"  id="-3"  changeset="false" ><tag k="id" v="2436"/><tag k="amenity" v="toilets"/><tag k="municipali" v="Wittnau"/><tag k="name" v="Friedhof"/><tag k="toilets_po" v="seated"/><tag k="wc_guide_i" v="2436"/><tag k="Cluster_ID" v="41"/><tag k="xyz" v="1069_1331_11"/></node><node lat="47.506794" lon="8.022198"  id="-4"  changeset="false" ><tag k="id" v="3024"/><tag k="amenity" v="toilets"/><tag k="municipali" v="Frick"/><tag k="name" v="Parkplatz"/><tag k="toilets_po" v="seated"/><tag k="wc_guide_i" v="3024"/><tag k="Cluster_ID" v="41"/><tag k="xyz" v="1069_1331_11"/></node><node lat="47.504135" lon="8.022294"  id="-5"  changeset="false" ><tag k="id" v="3275"/><tag k="amenity" v="toilets"/><tag k="municipali" v="Frick"/><tag k="name" v="Friedhof"/><tag k="toilets_po" v="seated"/><tag k="wc_guide_i" v="3275"/><tag k="Cluster_ID" v="41"/><tag k="xyz" v="1069_1331_11"/></node><node lat="47.452614" lon="8.054952"  id="-6"  changeset="false" ><tag k="id" v="16832"/><tag k="amenity" v="toilets"/><tag k="descriptio" v="Fahrverbot Chilhaldestrasse"/><tag k="municipali" v="Densb�ren"/><tag k="name" v="Friedhof Kirche"/><tag k="toilets_po" v="seated"/><tag k="wc_guide_i" v="16832"/><tag k="Cluster_ID" v="28"/><tag k="xyz" v="1069_1331_11"/></node><node lat="47.45578" lon="8.052513"  id="-7"  changeset="false" ><tag k="id" v="16833"/><tag k="amenity" v="toilets"/><tag k="municipali" v="Densb�ren"/><tag k="name" v="Gemeindehaus"/><tag k="toilets_po" v="seated"/><tag k="wc_guide_i" v="16833"/><tag k="website" v="http://www.densbueren.ch"/><tag k="Cluster_ID" v="28"/><tag k="xyz" v="1069_1331_11"/></node><node lat="47.473042" lon="8.051204"  id="-8"  changeset="false" ><tag k="id" v="16834"/><tag k="amenity" v="toilets"/><tag k="municipali" v="Herznach"/><tag k="name" v="Gemeindehaus"/><tag k="toilets_po" v="seated"/><tag k="wc_guide_i" v="16834"/><tag k="website" v="www.herznach.ch"/><tag k="Cluster_ID" v="28"/><tag k="xyz" v="1069_1331_11"/></node><node lat="47.509277" lon="8.019154"  id="-9"  changeset="false" ><tag k="id" v="18660"/><tag k="amenity" v="toilets"/><tag k="descriptio" v="Im Coop Parking"/><tag k="municipali" v="Frick"/><tag k="name" v="Coop"/><tag k="toilets_po" v="seated"/><tag k="wc_guide_i" v="18660"/><tag k="Cluster_ID" v="41"/><tag k="xyz" v="1069_1331_11"/></node></osm>