<?xml version="1.0" encoding="UTF-8"?><osm version="0.6" generator="https://github.com/Rub21/geojson2osm"><node lat="47.176792" lon="8.496337"  id="-1"  changeset="false" ><tag k="id" v="323"/><tag k="amenity" v="toilets"/><tag k="municipali" v="Zug"/><tag k="name" v="Badi / Campingplatz"/><tag k="toilets_po" v="seated"/><tag k="wc_guide_i" v="323"/><tag k="Cluster_ID" v="37"/><tag k="xyz" v="1072_1329_11"/></node><node lat="47.180336" lon="8.52053"  id="-2"  changeset="false" ><tag k="id" v="324"/><tag k="amenity" v="toilets"/><tag k="municipali" v="Zug"/><tag k="name" v="bei V-Zug AG"/><tag k="toilets_po" v="seated"/><tag k="wc_guide_i" v="324"/><tag k="Cluster_ID" v="37"/><tag k="xyz" v="1072_1329_11"/></node><node lat="47.177872" lon="8.508139"  id="-3"  changeset="false" ><tag k="id" v="332"/><tag k="amenity" v="toilets"/><tag k="municipali" v="Zug"/><tag k="name" v="Fussballstadion Herti"/><tag k="toilets_po" v="seated"/><tag k="wc_guide_i" v="332"/><tag k="Cluster_ID" v="37"/><tag k="xyz" v="1072_1329_11"/></node><node lat="47.167747" lon="8.528368"  id="-4"  changeset="false" ><tag k="id" v="334"/><tag k="amenity" v="toilets"/><tag k="descriptio" v="W�hrend Busbetrieb. Bedingt rollstuhlg�ngig."/><tag k="municipali" v="Zug"/><tag k="name" v="Bushaltestelle Obersack"/><tag k="toilets_po" v="seated"/><tag k="wc_guide_i" v="334"/><tag k="Cluster_ID" v="37"/><tag k="xyz" v="1072_1329_11"/></node><node lat="47.164391" lon="8.516164"  id="-5"  changeset="false" ><tag k="id" v="372"/><tag k="amenity" v="toilets"/><tag k="municipali" v="Zug"/><tag k="name" v="Parkhaus Casino"/><tag k="toilets_po" v="seated"/><tag k="wc_guide_i" v="372"/><tag k="Cluster_ID" v="37"/><tag k="xyz" v="1072_1329_11"/></node><node lat="47.195099" lon="8.523427"  id="-6"  changeset="false" ><tag k="id" v="695"/><tag k="amenity" v="toilets"/><tag k="descriptio" v="1. UG, Parkgeschoss"/><tag k="municipali" v="Baar"/><tag k="name" v="Einkaufszentrum"/><tag k="toilets_po" v="seated"/><tag k="wc_guide_i" v="695"/><tag k="Cluster_ID" v="37"/><tag k="xyz" v="1072_1329_11"/></node><node lat="47.179649" lon="8.463078"  id="-7"  changeset="false" ><tag k="id" v="699"/><tag k="amenity" v="toilets"/><tag k="municipali" v="Cham"/><tag k="name" v="Hirsgarten"/><tag k="toilets_po" v="seated"/><tag k="wc_guide_i" v="699"/><tag k="Cluster_ID" v="37"/><tag k="xyz" v="1072_1329_11"/></node><node lat="47.17794" lon="8.506207"  id="-8"  changeset="false" ><tag k="id" v="993"/><tag k="amenity" v="toilets"/><tag k="municipali" v="Zug"/><tag k="name" v="Hertizentrum"/><tag k="toilets_po" v="seated"/><tag k="wc_guide_i" v="993"/><tag k="website" v="http://www.herti.ch"/><tag k="Cluster_ID" v="37"/><tag k="xyz" v="1072_1329_11"/></node><node lat="47.199875" lon="8.51763"  id="-9"  changeset="false" ><tag k="id" v="1307"/><tag k="amenity" v="toilets"/><tag k="municipali" v="Baar"/><tag k="name" v="Waldmannhalle"/><tag k="toilets_po" v="seated"/><tag k="wc_guide_i" v="1307"/><tag k="Cluster_ID" v="37"/><tag k="xyz" v="1072_1329_11"/></node><node lat="47.174656" lon="8.50407"  id="-10"  changeset="false" ><tag k="id" v="1315"/><tag k="amenity" v="toilets"/><tag k="municipali" v="Zug"/><tag k="name" v="Stierenmarkt-Areal"/><tag k="toilets_po" v="seated"/><tag k="wc_guide_i" v="1315"/><tag k="Cluster_ID" v="37"/><tag k="xyz" v="1072_1329_11"/></node><node lat="47.17709" lon="8.51655"  id="-11"  changeset="false" ><tag k="id" v="1319"/><tag k="amenity" v="toilets"/><tag k="municipali" v="Zug"/><tag k="name" v="Oekihof"/><tag k="toilets_po" v="seated"/><tag k="wc_guide_i" v="1319"/><tag k="Cluster_ID" v="37"/><tag k="xyz" v="1072_1329_11"/></node><node lat="47.24408" lon="8.457364"  id="-12"  changeset="false" ><tag k="id" v="1395"/><tag k="amenity" v="toilets"/><tag k="descriptio" v="Schl�ssel muss an der Kasse verlangt werden."/><tag k="municipali" v="Mettmenstetten"/><tag k="name" v="Avec Bahnhof Mettmenstetten"/><tag k="toilets_po" v="seated"/><tag k="wc_guide_i" v="1395"/><tag k="Cluster_ID" v="37"/><tag k="xyz" v="1072_1329_11"/></node><node lat="47.173466" lon="8.515364"  id="-13"  changeset="false" ><tag k="id" v="1606"/><tag k="amenity" v="toilets"/><tag k="municipali" v="Zug"/><tag k="name" v="Bahnhof Zug"/><tag k="toilets_po" v="seated"/><tag k="wc_guide_i" v="1606"/><tag k="Cluster_ID" v="37"/><tag k="xyz" v="1072_1329_11"/></node><node lat="47.196865" lon="8.483956"  id="-14"  changeset="false" ><tag k="id" v="1685"/><tag k="amenity" v="toilets"/><tag k="municipali" v="Steinhausen"/><tag k="name" v="Bushalt Steinhausen Zentrum"/><tag k="toilets_po" v="seated"/><tag k="wc_guide_i" v="1685"/><tag k="Cluster_ID" v="37"/><tag k="xyz" v="1072_1329_11"/></node><node lat="47.195915" lon="8.484106"  id="-15"  changeset="false" ><tag k="id" v="1686"/><tag k="amenity" v="toilets"/><tag k="municipali" v="Steinhausen"/><tag k="name" v="Parkhauseinfahrt"/><tag k="toilets_po" v="seated"/><tag k="wc_guide_i" v="1686"/><tag k="Cluster_ID" v="37"/><tag k="xyz" v="1072_1329_11"/></node><node lat="47.179871" lon="8.459226"  id="-16"  changeset="false" ><tag k="id" v="1687"/><tag k="amenity" v="toilets"/><tag k="municipali" v="Cham"/><tag k="name" v="n�he Kirche"/><tag k="toilets_po" v="seated"/><tag k="wc_guide_i" v="1687"/><tag k="Cluster_ID" v="37"/><tag k="xyz" v="1072_1329_11"/></node><node lat="47.276707" lon="8.581829"  id="-17"  changeset="false" ><tag k="id" v="2029"/><tag k="amenity" v="toilets"/><tag k="municipali" v="Oberrieden"/><tag k="toilets_po" v="seated"/><tag k="wc_guide_i" v="2029"/><tag k="Cluster_ID" v="40"/><tag k="xyz" v="1072_1329_11"/></node><node lat="47.20097" lon="8.4824"  id="-18"  changeset="false" ><tag k="id" v="2043"/><tag k="amenity" v="toilets"/><tag k="descriptio" v="Rechts vom Hauptgeb�ude."/><tag k="municipali" v="Steinhausen"/><tag k="name" v="Friedhof Erli"/><tag k="toilets_po" v="seated"/><tag k="wc_guide_i" v="2043"/><tag k="Cluster_ID" v="37"/><tag k="xyz" v="1072_1329_11"/></node><node lat="47.200813" lon="8.53782"  id="-19"  changeset="false" ><tag k="id" v="2045"/><tag k="amenity" v="toilets"/><tag k="municipali" v="Baar"/><tag k="name" v="Bushaltestelle"/><tag k="toilets_po" v="seated"/><tag k="wc_guide_i" v="2045"/><tag k="Cluster_ID" v="37"/><tag k="xyz" v="1072_1329_11"/></node><node lat="47.194813" lon="8.526902"  id="-20"  changeset="false" ><tag k="id" v="2679"/><tag k="amenity" v="toilets"/><tag k="descriptio" v="1. UG"/><tag k="municipali" v="Baar"/><tag k="name" v="Ludothek"/><tag k="toilets_po" v="seated"/><tag k="wc_guide_i" v="2679"/><tag k="website" v="http://bibliothek.baar.ch/de/portludothek/"/><tag k="Cluster_ID" v="37"/><tag k="xyz" v="1072_1329_11"/></node><node lat="47.19532" lon="8.523213"  id="-21"  changeset="false" ><tag k="id" v="2751"/><tag k="amenity" v="toilets"/><tag k="municipali" v="Baar"/><tag k="name" v="Bahnhof"/><tag k="toilets_po" v="seated"/><tag k="wc_guide_i" v="2751"/><tag k="Cluster_ID" v="37"/><tag k="xyz" v="1072_1329_11"/></node><node lat="47.192978" lon="8.526067"  id="-22"  changeset="false" ><tag k="id" v="2752"/><tag k="amenity" v="toilets"/><tag k="descriptio" v="07.00-21.30h (Winter 20.00h)"/><tag k="municipali" v="Baar"/><tag k="name" v="Schulhaus Dorfmatt"/><tag k="toilets_po" v="seated"/><tag k="wc_guide_i" v="2752"/><tag k="Cluster_ID" v="37"/><tag k="xyz" v="1072_1329_11"/></node><node lat="47.199516" lon="8.529843"  id="-23"  changeset="false" ><tag k="id" v="2753"/><tag k="amenity" v="toilets"/><tag k="municipali" v="Baar"/><tag k="name" v="Schulhaus Sennweid"/><tag k="toilets_po" v="seated"/><tag k="wc_guide_i" v="2753"/><tag k="Cluster_ID" v="37"/><tag k="xyz" v="1072_1329_11"/></node><node lat="47.182671" lon="8.535508"  id="-24"  changeset="false" ><tag k="id" v="2754"/><tag k="amenity" v="toilets"/><tag k="descriptio" v="07.00-21.00h"/><tag k="municipali" v="Baar"/><tag k="name" v="Rainhalde Inwil"/><tag k="toilets_po" v="seated"/><tag k="wc_guide_i" v="2754"/><tag k="Cluster_ID" v="37"/><tag k="xyz" v="1072_1329_11"/></node><node lat="47.164494" lon="8.555946"  id="-25"  changeset="false" ><tag k="id" v="2755"/><tag k="amenity" v="toilets"/><tag k="municipali" v="Allenwinden"/><tag k="name" v="Schulhaus Allenwinden"/><tag k="toilets_po" v="seated"/><tag k="wc_guide_i" v="2755"/><tag k="Cluster_ID" v="37"/><tag k="xyz" v="1072_1329_11"/></node><node lat="47.267097" lon="8.489065"  id="-26"  changeset="false" ><tag k="id" v="3021"/><tag k="amenity" v="toilets"/><tag k="municipali" v="Aeugst am Albis"/><tag k="name" v="Friedhof"/><tag k="toilets_po" v="seated"/><tag k="wc_guide_i" v="3021"/><tag k="Cluster_ID" v="37"/><tag k="xyz" v="1072_1329_11"/></node><node lat="47.260612" lon="8.597333"  id="-27"  changeset="false" ><tag k="id" v="3391"/><tag k="amenity" v="toilets"/><tag k="municipali" v="Horgen"/><tag k="name" v="Migros"/><tag k="toilets_po" v="seated"/><tag k="wc_guide_i" v="3391"/><tag k="Cluster_ID" v="37"/><tag k="xyz" v="1072_1329_11"/></node><node lat="47.217995" lon="8.577318"  id="-28"  changeset="false" ><tag k="id" v="3591"/><tag k="amenity" v="toilets"/><tag k="municipali" v="Baar"/><tag k="name" v="Coop Pronto Tankstelle"/><tag k="toilets_po" v="seated"/><tag k="wc_guide_i" v="3591"/><tag k="Cluster_ID" v="37"/><tag k="xyz" v="1072_1329_11"/></node><node lat="47.215843" lon="8.573729"  id="-29"  changeset="false" ><tag k="id" v="3604"/><tag k="amenity" v="toilets"/><tag k="municipali" v="Baar"/><tag k="name" v="Coop Pronto"/><tag k="toilets_po" v="seated"/><tag k="wc_guide_i" v="3604"/><tag k="Cluster_ID" v="37"/><tag k="xyz" v="1072_1329_11"/></node><node lat="47.278709" lon="8.448315"  id="-30"  changeset="false" ><tag k="id" v="3954"/><tag k="amenity" v="toilets"/><tag k="municipali" v="Affoltern am Albis"/><tag k="name" v="Tiefgarage Gemeindeverwaltung"/><tag k="toilets_po" v="seated"/><tag k="wc_guide_i" v="3954"/><tag k="Cluster_ID" v="28"/><tag k="xyz" v="1072_1329_11"/></node><node lat="47.173435" lon="8.517969"  id="-31"  changeset="false" ><tag k="id" v="16806"/><tag k="amenity" v="toilets"/><tag k="descriptio" v="Vis-a-vis Von Metalli"/><tag k="municipali" v="Zug"/><tag k="name" v="Metalli"/><tag k="toilets_po" v="seated"/><tag k="wc_guide_i" v="16806"/><tag k="Cluster_ID" v="37"/><tag k="xyz" v="1072_1329_11"/></node><node lat="47.178749" lon="8.591653"  id="-32"  changeset="false" ><tag k="id" v="18248"/><tag k="amenity" v="toilets"/><tag k="municipali" v="Menzingen"/><tag k="name" v="Bibliothek"/><tag k="toilets_po" v="seated"/><tag k="wc_guide_i" v="18248"/><tag k="Cluster_ID" v="37"/><tag k="xyz" v="1072_1329_11"/></node><node lat="47.181637" lon="8.510413"  id="-33"  changeset="false" ><tag k="id" v="18415"/><tag k="amenity" v="toilets"/><tag k="municipali" v="Zug"/><tag k="name" v="Boccia drome"/><tag k="toilets_po" v="seated"/><tag k="wc_guide_i" v="18415"/><tag k="Cluster_ID" v="37"/><tag k="xyz" v="1072_1329_11"/></node><node lat="47.243462" lon="8.46352"  id="-34"  changeset="false" ><tag k="id" v="18439"/><tag k="amenity" v="toilets"/><tag k="municipali" v="Affoltern"/><tag k="name" v="Gemeindeverwaltung Mettmenstetten"/><tag k="toilets_po" v="seated"/><tag k="wc_guide_i" v="18439"/><tag k="Cluster_ID" v="37"/><tag k="xyz" v="1072_1329_11"/></node><node lat="47.178272" lon="8.464569"  id="-35"  changeset="false" ><tag k="id" v="18943"/><tag k="amenity" v="toilets"/><tag k="municipali" v="Cham"/><tag k="name" v="Hirsgarten Badi"/><tag k="toilets_po" v="seated"/><tag k="wc_guide_i" v="18943"/><tag k="Cluster_ID" v="37"/><tag k="xyz" v="1072_1329_11"/></node><node lat="47.177502" lon="8.507756"  id="-36"  changeset="false" ><tag k="id" v="19118"/><tag k="amenity" v="toilets"/><tag k="municipali" v="Zug"/><tag k="toilets_po" v="seated"/><tag k="wc_guide_i" v="19118"/><tag k="Cluster_ID" v="37"/><tag k="xyz" v="1072_1329_11"/></node><node lat="47.205486" lon="8.574776"  id="-37"  changeset="false" ><tag k="id" v="19153"/><tag k="amenity" v="toilets"/><tag k="municipali" v="Neuheim"/><tag k="name" v="Gemeindehaus"/><tag k="toilets_po" v="seated"/><tag k="wc_guide_i" v="19153"/><tag k="Cluster_ID" v="37"/><tag k="xyz" v="1072_1329_11"/></node><node lat="47.227428" lon="8.462433"  id="-38"  changeset="false" ><tag k="id" v="20149"/><tag k="amenity" v="toilets"/><tag k="municipali" v="Knonau"/><tag k="name" v="Rastplatz"/><tag k="toilets_po" v="seated"/><tag k="wc_guide_i" v="20149"/><tag k="Cluster_ID" v="37"/><tag k="xyz" v="1072_1329_11"/></node><node lat="47.175579" lon="8.507343"  id="-39"  changeset="false" ><tag k="id" v="20343"/><tag k="amenity" v="toilets"/><tag k="municipali" v="Zug"/><tag k="toilets_po" v="seated"/><tag k="wc_guide_i" v="20343"/><tag k="Cluster_ID" v="37"/><tag k="xyz" v="1072_1329_11"/></node><node lat="47.258816" lon="8.58989"  id="-40"  changeset="false" ><tag k="id" v="20480"/><tag k="amenity" v="toilets"/><tag k="municipali" v="Horgen"/><tag k="name" v="Migrolino, Bahnhof Horgen Oberdorf"/><tag k="toilets_po" v="seated"/><tag k="wc_guide_i" v="20480"/><tag k="Cluster_ID" v="37"/><tag k="xyz" v="1072_1329_11"/></node><node lat="47.27647" lon="8.450437"  id="-41"  changeset="false" ><tag k="id" v="20779"/><tag k="amenity" v="toilets"/><tag k="municipali" v="Affoltern am Albis"/><tag k="name" v="Central Tiefgarage"/><tag k="toilets_po" v="seated"/><tag k="wc_guide_i" v="20779"/><tag k="Cluster_ID" v="40"/><tag k="xyz" v="1072_1329_11"/></node><node lat="47.162006" lon="8.574082"  id="-42"  changeset="false" ><tag k="id" v="21008"/><tag k="amenity" v="toilets"/><tag k="descriptio" v="Neben Restaurant beim Parkplatz"/><tag k="municipali" v="Menzingen"/><tag k="toilets_po" v="seated"/><tag k="wc_guide_i" v="21008"/><tag k="Cluster_ID" v="37"/><tag k="xyz" v="1072_1329_11"/></node><node lat="47.222641" lon="8.460431"  id="-43"  changeset="false" ><tag k="id" v="21133"/><tag k="amenity" v="toilets"/><tag k="descriptio" v="Wegen Corona tempor�r geschlossen"/><tag k="municipali" v="Knonau"/><tag k="name" v="Mehrzweckgeb�ude"/><tag k="toilets_po" v="seated"/><tag k="wc_guide_i" v="21133"/><tag k="Cluster_ID" v="37"/><tag k="xyz" v="1072_1329_11"/></node><node lat="47.196457" lon="8.441781"  id="-44"  changeset="false" ><tag k="id" v="21134"/><tag k="amenity" v="toilets"/><tag k="descriptio" v="WC ist von Westseite her zug�nglich"/><tag k="municipali" v="Hagendorn"/><tag k="name" v="�kihof Furenmatt"/><tag k="toilets_po" v="seated"/><tag k="wc_guide_i" v="21134"/><tag k="Cluster_ID" v="37"/><tag k="xyz" v="1072_1329_11"/></node></osm>