<?xml version="1.0" encoding="UTF-8"?><osm version="0.6" generator="https://github.com/Rub21/geojson2osm"><node lat="46.066784" lon="8.966681"  id="-1"  changeset="false" ><tag k="id" v="16694"/><tag k="amenity" v="toilets"/><tag k="municipali" v="Capriasca"/><tag k="name" v="Centro"/><tag k="toilets_po" v="seated"/><tag k="wc_guide_i" v="16694"/><tag k="Cluster_ID" v="25"/><tag k="xyz" v="1075_1319_11"/></node><node lat="46.006344" lon="8.968663"  id="-2"  changeset="false" ><tag k="id" v="16734"/><tag k="amenity" v="toilets"/><tag k="municipali" v="Lugano"/><tag k="name" v="Parco Lanchetta"/><tag k="toilets_po" v="seated"/><tag k="wc_guide_i" v="16734"/><tag k="Cluster_ID" v="25"/><tag k="xyz" v="1075_1319_11"/></node><node lat="46.010792" lon="8.995571"  id="-3"  changeset="false" ><tag k="id" v="16736"/><tag k="amenity" v="toilets"/><tag k="municipali" v="Lugano"/><tag k="name" v="Cimitero di Br�"/><tag k="toilets_po" v="seated"/><tag k="wc_guide_i" v="16736"/><tag k="Cluster_ID" v="25"/><tag k="xyz" v="1075_1319_11"/></node><node lat="46.014507" lon="8.99993"  id="-4"  changeset="false" ><tag k="id" v="16737"/><tag k="amenity" v="toilets"/><tag k="municipali" v="Lugano"/><tag k="name" v="Zona di Svago"/><tag k="toilets_po" v="seated"/><tag k="wc_guide_i" v="16737"/><tag k="Cluster_ID" v="25"/><tag k="xyz" v="1075_1319_11"/></node><node lat="46.004147" lon="8.989961"  id="-5"  changeset="false" ><tag k="id" v="16758"/><tag k="amenity" v="toilets"/><tag k="municipali" v="Lugano"/><tag k="name" v="Sentiero di Gandria"/><tag k="toilets_po" v="seated"/><tag k="wc_guide_i" v="16758"/><tag k="Cluster_ID" v="25"/><tag k="xyz" v="1075_1319_11"/></node><node lat="46.006351" lon="8.965529"  id="-6"  changeset="false" ><tag k="id" v="19798"/><tag k="amenity" v="toilets"/><tag k="municipali" v="6900 Lugano Schweiz"/><tag k="name" v="Kiosk WC"/><tag k="toilets_po" v="seated"/><tag k="wc_guide_i" v="19798"/><tag k="Cluster_ID" v="25"/><tag k="xyz" v="1075_1319_11"/></node></osm>