<?xml version="1.0" encoding="UTF-8"?><osm version="0.6" generator="https://github.com/Rub21/geojson2osm"><node lat="47.38258" lon="8.423359"  id="-1"  changeset="false" ><tag k="id" v="886"/><tag k="amenity" v="toilets"/><tag k="municipali" v="Urdorf"/><tag k="toilets_po" v="seated"/><tag k="wc_guide_i" v="886"/><tag k="Cluster_ID" v="40"/><tag k="xyz" v="1071_1330_11"/></node><node lat="47.311447" lon="8.325405"  id="-2"  changeset="false" ><tag k="id" v="1579"/><tag k="amenity" v="toilets"/><tag k="municipali" v="B�nzen"/><tag k="name" v="Friedhof"/><tag k="toilets_po" v="seated"/><tag k="wc_guide_i" v="1579"/><tag k="Cluster_ID" v="28"/><tag k="xyz" v="1071_1330_11"/></node><node lat="47.298061" lon="8.316479"  id="-3"  changeset="false" ><tag k="id" v="1638"/><tag k="amenity" v="toilets"/><tag k="descriptio" v="Bei Shop melden"/><tag k="municipali" v="Boswil"/><tag k="name" v="Shell-Tankstelle Migrolino"/><tag k="toilets_po" v="seated"/><tag k="wc_guide_i" v="1638"/><tag k="Cluster_ID" v="28"/><tag k="xyz" v="1071_1330_11"/></node><node lat="47.334702" lon="8.308036"  id="-4"  changeset="false" ><tag k="id" v="2172"/><tag k="amenity" v="toilets"/><tag k="municipali" v="Waltenschwil"/><tag k="toilets_po" v="seated"/><tag k="wc_guide_i" v="2172"/><tag k="Cluster_ID" v="28"/><tag k="xyz" v="1071_1330_11"/></node><node lat="47.350101" lon="8.275151"  id="-5"  changeset="false" ><tag k="id" v="2669"/><tag k="amenity" v="toilets"/><tag k="municipali" v="Wohlen"/><tag k="toilets_po" v="seated"/><tag k="wc_guide_i" v="2669"/><tag k="Cluster_ID" v="28"/><tag k="xyz" v="1071_1330_11"/></node><node lat="47.348934" lon="8.273627"  id="-6"  changeset="false" ><tag k="id" v="2672"/><tag k="amenity" v="toilets"/><tag k="municipali" v="Wohlen"/><tag k="name" v="Migros"/><tag k="toilets_po" v="seated"/><tag k="wc_guide_i" v="2672"/><tag k="Cluster_ID" v="28"/><tag k="xyz" v="1071_1330_11"/></node><node lat="47.391514" lon="8.345447"  id="-7"  changeset="false" ><tag k="id" v="2801"/><tag k="amenity" v="toilets"/><tag k="municipali" v="Bellikon"/><tag k="name" v="Friedhof Bellikon"/><tag k="toilets_po" v="seated"/><tag k="wc_guide_i" v="2801"/><tag k="Cluster_ID" v="28"/><tag k="xyz" v="1071_1330_11"/></node><node lat="47.36145" lon="8.367591"  id="-8"  changeset="false" ><tag k="id" v="2969"/><tag k="amenity" v="toilets"/><tag k="municipali" v="Berikon"/><tag k="name" v="Coop Mutschellen"/><tag k="toilets_po" v="seated"/><tag k="wc_guide_i" v="2969"/><tag k="Cluster_ID" v="28"/><tag k="xyz" v="1071_1330_11"/></node><node lat="47.295403" lon="8.395314"  id="-9"  changeset="false" ><tag k="id" v="3041"/><tag k="amenity" v="toilets"/><tag k="descriptio" v="meistens geschlossen"/><tag k="municipali" v="Jonen"/><tag k="name" v="Friedhof"/><tag k="toilets_po" v="seated"/><tag k="wc_guide_i" v="3041"/><tag k="Cluster_ID" v="28"/><tag k="xyz" v="1071_1330_11"/></node><node lat="47.384472" lon="8.421775"  id="-10"  changeset="false" ><tag k="id" v="3377"/><tag k="amenity" v="toilets"/><tag k="municipali" v="Urdorf"/><tag k="name" v="Zentrum Spitzacker"/><tag k="toilets_po" v="seated"/><tag k="wc_guide_i" v="3377"/><tag k="Cluster_ID" v="28"/><tag k="xyz" v="1071_1330_11"/></node><node lat="47.393295" lon="8.430172"  id="-11"  changeset="false" ><tag k="id" v="3488"/><tag k="amenity" v="toilets"/><tag k="municipali" v="Schlieren"/><tag k="name" v="Spital Limmattal"/><tag k="toilets_po" v="seated"/><tag k="wc_guide_i" v="3488"/><tag k="Cluster_ID" v="40"/><tag k="xyz" v="1071_1330_11"/></node><node lat="47.346355" lon="8.343358"  id="-12"  changeset="false" ><tag k="id" v="4260"/><tag k="amenity" v="toilets"/><tag k="municipali" v="Bremgarten (AG)"/><tag k="name" v="Schwimmbad"/><tag k="toilets_po" v="seated"/><tag k="wc_guide_i" v="4260"/><tag k="Cluster_ID" v="28"/><tag k="xyz" v="1071_1330_11"/></node><node lat="47.353035" lon="8.347546"  id="-13"  changeset="false" ><tag k="id" v="18762"/><tag k="amenity" v="toilets"/><tag k="municipali" v="Bremgarten"/><tag k="name" v="Bahnhof Bremgarten"/><tag k="toilets_po" v="seated"/><tag k="wc_guide_i" v="18762"/><tag k="Cluster_ID" v="28"/><tag k="xyz" v="1071_1330_11"/></node><node lat="47.338867" lon="8.273979"  id="-14"  changeset="false" ><tag k="id" v="19112"/><tag k="amenity" v="toilets"/><tag k="municipali" v="Wohlen (AG)"/><tag k="toilets_po" v="seated"/><tag k="wc_guide_i" v="19112"/><tag k="Cluster_ID" v="28"/><tag k="xyz" v="1071_1330_11"/></node><node lat="47.352222" lon="8.274107"  id="-15"  changeset="false" ><tag k="id" v="19196"/><tag k="amenity" v="toilets"/><tag k="municipali" v="Zufikon"/><tag k="toilets_po" v="seated"/><tag k="wc_guide_i" v="19196"/><tag k="Cluster_ID" v="28"/><tag k="xyz" v="1071_1330_11"/></node><node lat="47.390877" lon="8.434663"  id="-16"  changeset="false" ><tag k="id" v="19362"/><tag k="amenity" v="toilets"/><tag k="descriptio" v="Kostenpflichtig, rote T�ren."/><tag k="municipali" v="Urdorf"/><tag k="name" v="Bahnhof Toilette"/><tag k="toilets_po" v="seated"/><tag k="wc_guide_i" v="19362"/><tag k="Cluster_ID" v="40"/><tag k="xyz" v="1071_1330_11"/></node><node lat="47.362686" lon="8.266392"  id="-17"  changeset="false" ><tag k="id" v="19390"/><tag k="amenity" v="toilets"/><tag k="municipali" v="Anglikon"/><tag k="name" v="Coop-Tankstelle"/><tag k="toilets_po" v="seated"/><tag k="wc_guide_i" v="19390"/><tag k="Cluster_ID" v="28"/><tag k="xyz" v="1071_1330_11"/></node><node lat="47.362247" lon="8.367171"  id="-18"  changeset="false" ><tag k="id" v="19617"/><tag k="amenity" v="toilets"/><tag k="descriptio" v="Hinter dem Kebab-Laden die Treppe runter"/><tag k="municipali" v="Berikon"/><tag k="toilets_po" v="seated"/><tag k="wc_guide_i" v="19617"/><tag k="Cluster_ID" v="28"/><tag k="xyz" v="1071_1330_11"/></node><node lat="47.349869" lon="8.270273"  id="-19"  changeset="false" ><tag k="id" v="19804"/><tag k="amenity" v="toilets"/><tag k="municipali" v="Wohlen AG"/><tag k="name" v="Coop"/><tag k="toilets_po" v="seated"/><tag k="wc_guide_i" v="19804"/><tag k="Cluster_ID" v="28"/><tag k="xyz" v="1071_1330_11"/></node><node lat="47.349209" lon="8.372889"  id="-20"  changeset="false" ><tag k="id" v="19877"/><tag k="amenity" v="toilets"/><tag k="municipali" v="Berikon"/><tag k="name" v="Friedhof"/><tag k="toilets_po" v="seated"/><tag k="wc_guide_i" v="19877"/><tag k="Cluster_ID" v="28"/><tag k="xyz" v="1071_1330_11"/></node><node lat="47.369419" lon="8.358918"  id="-21"  changeset="false" ><tag k="id" v="20020"/><tag k="amenity" v="toilets"/><tag k="municipali" v="Widen"/><tag k="toilets_po" v="seated"/><tag k="wc_guide_i" v="20020"/><tag k="Cluster_ID" v="28"/><tag k="xyz" v="1071_1330_11"/></node><node lat="47.35144" lon="8.340309"  id="-22"  changeset="false" ><tag k="id" v="20557"/><tag k="amenity" v="toilets"/><tag k="municipali" v="Bremgarten"/><tag k="toilets_po" v="seated"/><tag k="wc_guide_i" v="20557"/><tag k="Cluster_ID" v="28"/><tag k="xyz" v="1071_1330_11"/></node><node lat="47.397572" lon="8.306525"  id="-23"  changeset="false" ><tag k="id" v="20775"/><tag k="amenity" v="toilets"/><tag k="municipali" v="Stetten"/><tag k="name" v="Friedhof"/><tag k="toilets_po" v="seated"/><tag k="wc_guide_i" v="20775"/><tag k="Cluster_ID" v="28"/><tag k="xyz" v="1071_1330_11"/></node><node lat="47.398182" lon="8.406935"  id="-24"  changeset="false" ><tag k="id" v="20798"/><tag k="amenity" v="toilets"/><tag k="descriptio" v="Im Friedhof"/><tag k="municipali" v="Dietikon"/><tag k="name" v="Friedhof Guggenb�hl"/><tag k="toilets_po" v="seated"/><tag k="wc_guide_i" v="20798"/><tag k="Cluster_ID" v="40"/><tag k="xyz" v="1071_1330_11"/></node><node lat="47.396347" lon="8.43618"  id="-25"  changeset="false" ><tag k="id" v="20942"/><tag k="amenity" v="toilets"/><tag k="municipali" v="Schlieren"/><tag k="name" v="Friedhof Schlieren"/><tag k="toilets_po" v="seated"/><tag k="wc_guide_i" v="20942"/><tag k="Cluster_ID" v="40"/><tag k="xyz" v="1071_1330_11"/></node><node lat="47.334194" lon="8.345725"  id="-26"  changeset="false" ><tag k="id" v="21119"/><tag k="amenity" v="toilets"/><tag k="descriptio" v="Treppenabgang beim Parkplatz"/><tag k="municipali" v="Hermetschwil-Staffeln"/><tag k="toilets_po" v="seated"/><tag k="wc_guide_i" v="21119"/><tag k="Cluster_ID" v="28"/><tag k="xyz" v="1071_1330_11"/></node></osm>