<?xml version="1.0" encoding="UTF-8"?><osm version="0.6" generator="https://github.com/Rub21/geojson2osm"><node lat="46.950615" lon="8.015166"  id="-1"  changeset="false" ><tag k="id" v="1726"/><tag k="amenity" v="toilets"/><tag k="municipali" v="Sch�pfheim"/><tag k="name" v="Bahnhof"/><tag k="toilets_po" v="seated"/><tag k="wc_guide_i" v="1726"/><tag k="Cluster_ID" v="35"/><tag k="xyz" v="1069_1327_11"/></node><node lat="46.95285" lon="8.018821"  id="-2"  changeset="false" ><tag k="id" v="2683"/><tag k="amenity" v="toilets"/><tag k="municipali" v="Sch�pfheim"/><tag k="name" v="Gemeindehaus"/><tag k="toilets_po" v="seated"/><tag k="wc_guide_i" v="2683"/><tag k="Cluster_ID" v="35"/><tag k="xyz" v="1069_1327_11"/></node><node lat="46.952518" lon="8.020792"  id="-3"  changeset="false" ><tag k="id" v="2700"/><tag k="amenity" v="toilets"/><tag k="descriptio" v="Beim Friedhof"/><tag k="municipali" v="Sch�pfheim"/><tag k="toilets_po" v="seated"/><tag k="wc_guide_i" v="2700"/><tag k="Cluster_ID" v="35"/><tag k="xyz" v="1069_1327_11"/></node><node lat="46.980026" lon="8.0514"  id="-4"  changeset="false" ><tag k="id" v="3289"/><tag k="amenity" v="toilets"/><tag k="municipali" v="Hasle"/><tag k="name" v="Bei Kirchenplatz Neben Treppe Rechts"/><tag k="toilets_po" v="seated"/><tag k="wc_guide_i" v="3289"/><tag k="Cluster_ID" v="35"/><tag k="xyz" v="1069_1327_11"/></node><node lat="46.949432" lon="8.049492"  id="-5"  changeset="false" ><tag k="id" v="20150"/><tag k="amenity" v="toilets"/><tag k="municipali" v="Hasle"/><tag k="name" v="direkt neben dem Hotel Kurhaus Heiligkreuz"/><tag k="toilets_po" v="seated"/><tag k="wc_guide_i" v="20150"/><tag k="Cluster_ID" v="35"/><tag k="xyz" v="1069_1327_11"/></node></osm>