<?xml version="1.0" encoding="UTF-8"?><osm version="0.6" generator="https://github.com/Rub21/geojson2osm"><node lat="46.659225" lon="7.555531"  id="-1"  changeset="false" ><tag k="id" v="3866"/><tag k="amenity" v="toilets"/><tag k="municipali" v="Erlenbach im Simmental"/><tag k="name" v="Bahnhof Erlenbach"/><tag k="toilets_po" v="seated"/><tag k="wc_guide_i" v="3866"/><tag k="Cluster_ID" v="7"/><tag k="xyz" v="1066_1324_11"/></node><node lat="46.627312" lon="7.390042"  id="-2"  changeset="false" ><tag k="id" v="16793"/><tag k="amenity" v="toilets"/><tag k="descriptio" v="2 Treppenstufen vor der Toilette"/><tag k="municipali" v="Boltigen"/><tag k="name" v="Bahnhof Boltigen"/><tag k="toilets_po" v="seated"/><tag k="wc_guide_i" v="16793"/><tag k="Cluster_ID" v="30"/><tag k="xyz" v="1066_1324_11"/></node><node lat="46.618427" lon="7.382874"  id="-3"  changeset="false" ><tag k="id" v="16794"/><tag k="amenity" v="toilets"/><tag k="descriptio" v="Toitoi"/><tag k="municipali" v="Boltigen"/><tag k="name" v="Grillplatz"/><tag k="toilets_po" v="seated"/><tag k="wc_guide_i" v="16794"/><tag k="Cluster_ID" v="30"/><tag k="xyz" v="1066_1324_11"/></node><node lat="46.658131" lon="7.495286"  id="-4"  changeset="false" ><tag k="id" v="18436"/><tag k="amenity" v="toilets"/><tag k="municipali" v="D�rstetten"/><tag k="name" v="Bahnhof"/><tag k="toilets_po" v="seated"/><tag k="wc_guide_i" v="18436"/><tag k="Cluster_ID" v="30"/><tag k="xyz" v="1066_1324_11"/></node><node lat="46.660892" lon="7.552449"  id="-5"  changeset="false" ><tag k="id" v="20872"/><tag k="amenity" v="toilets"/><tag k="municipali" v="Erlenbach i. S."/><tag k="name" v="Gemeindehaus"/><tag k="toilets_po" v="seated"/><tag k="wc_guide_i" v="20872"/><tag k="Cluster_ID" v="7"/><tag k="xyz" v="1066_1324_11"/></node><node lat="46.661098" lon="7.555009"  id="-6"  changeset="false" ><tag k="id" v="20873"/><tag k="amenity" v="toilets"/><tag k="descriptio" v="Bei Autowaschanlage"/><tag k="municipali" v="Erlenbach i. S."/><tag k="name" v="Markthalle"/><tag k="toilets_po" v="seated"/><tag k="wc_guide_i" v="20873"/><tag k="Cluster_ID" v="7"/><tag k="xyz" v="1066_1324_11"/></node></osm>