<?xml version="1.0" encoding="UTF-8"?><osm version="0.6" generator="https://github.com/Rub21/geojson2osm"><node lat="47.41148" lon="8.544114"  id="-1"  changeset="false" ><tag k="id" v="165"/><tag k="amenity" v="toilets"/><tag k="descriptio" v="Automat (1CHF)"/><tag k="municipali" v="Z�rich"/><tag k="name" v="Bhf Oerlikon"/><tag k="toilets_po" v="seated"/><tag k="wc_guide_i" v="165"/><tag k="Cluster_ID" v="40"/><tag k="xyz" v="1072_1331_11"/></node><node lat="47.402126" lon="8.517359"  id="-2"  changeset="false" ><tag k="id" v="189"/><tag k="amenity" v="toilets"/><tag k="municipali" v="Z�rich"/><tag k="toilets_po" v="seated"/><tag k="wc_guide_i" v="189"/><tag k="Cluster_ID" v="40"/><tag k="xyz" v="1072_1331_11"/></node><node lat="47.404285" lon="8.572319"  id="-3"  changeset="false" ><tag k="id" v="192"/><tag k="amenity" v="toilets"/><tag k="municipali" v="Z�rich"/><tag k="name" v="Hirschen Schwamendingen"/><tag k="toilets_po" v="seated"/><tag k="wc_guide_i" v="192"/><tag k="Cluster_ID" v="40"/><tag k="xyz" v="1072_1331_11"/></node><node lat="47.403263" lon="8.591161"  id="-4"  changeset="false" ><tag k="id" v="193"/><tag k="amenity" v="toilets"/><tag k="municipali" v="Z�rich"/><tag k="name" v="Hirzenbach, Endstation Tram 9"/><tag k="toilets_po" v="seated"/><tag k="wc_guide_i" v="193"/><tag k="Cluster_ID" v="40"/><tag k="xyz" v="1072_1331_11"/></node><node lat="47.417431" lon="8.556654"  id="-5"  changeset="false" ><tag k="id" v="201"/><tag k="amenity" v="toilets"/><tag k="municipali" v="Z�rich"/><tag k="name" v="Im Haus Kissling"/><tag k="toilets_po" v="seated"/><tag k="wc_guide_i" v="201"/><tag k="Cluster_ID" v="40"/><tag k="xyz" v="1072_1331_11"/></node><node lat="47.421837" lon="8.550035"  id="-6"  changeset="false" ><tag k="id" v="223"/><tag k="amenity" v="toilets"/><tag k="descriptio" v="Automat"/><tag k="municipali" v="Z�rich"/><tag k="name" v="Endstation Tram 14"/><tag k="toilets_po" v="seated"/><tag k="wc_guide_i" v="223"/><tag k="Cluster_ID" v="40"/><tag k="xyz" v="1072_1331_11"/></node><node lat="47.41917" lon="8.506462"  id="-7"  changeset="false" ><tag k="id" v="240"/><tag k="amenity" v="toilets"/><tag k="municipali" v="Z�rich"/><tag k="name" v="Zehntenhausplatz, Bushaltest. stadteinw."/><tag k="toilets_po" v="seated"/><tag k="wc_guide_i" v="240"/><tag k="Cluster_ID" v="40"/><tag k="xyz" v="1072_1331_11"/></node><node lat="47.424755" lon="8.543866"  id="-8"  changeset="false" ><tag k="id" v="1160"/><tag k="amenity" v="toilets"/><tag k="municipali" v="Z�rich"/><tag k="name" v="Gemeinschaftszentrum Seebach"/><tag k="toilets_po" v="seated"/><tag k="wc_guide_i" v="1160"/><tag k="website" v="https://gz-zh.ch/gz-seebach/"/><tag k="Cluster_ID" v="40"/><tag k="xyz" v="1072_1331_11"/></node><node lat="47.410984" lon="8.562727"  id="-9"  changeset="false" ><tag k="id" v="1163"/><tag k="amenity" v="toilets"/><tag k="municipali" v="Z�rich"/><tag k="name" v="Coop"/><tag k="toilets_po" v="seated"/><tag k="wc_guide_i" v="1163"/><tag k="Cluster_ID" v="40"/><tag k="xyz" v="1072_1331_11"/></node><node lat="47.410419" lon="8.556719"  id="-10"  changeset="false" ><tag k="id" v="1254"/><tag k="amenity" v="toilets"/><tag k="municipali" v="Z�rich"/><tag k="name" v="Hallenbad Oerlikon"/><tag k="toilets_po" v="seated"/><tag k="wc_guide_i" v="1254"/><tag k="Cluster_ID" v="40"/><tag k="xyz" v="1072_1331_11"/></node><node lat="47.408443" lon="8.508182"  id="-11"  changeset="false" ><tag k="id" v="1257"/><tag k="amenity" v="toilets"/><tag k="descriptio" v="1. UG , hinten"/><tag k="municipali" v="Z�rich"/><tag k="name" v="Eingang HPI"/><tag k="toilets_po" v="seated"/><tag k="wc_guide_i" v="1257"/><tag k="Cluster_ID" v="40"/><tag k="xyz" v="1072_1331_11"/></node><node lat="47.404408" lon="8.573048"  id="-12"  changeset="false" ><tag k="id" v="1259"/><tag k="amenity" v="toilets"/><tag k="descriptio" v="Schl�ssel an der Theke verlangen"/><tag k="municipali" v="Z�rich"/><tag k="name" v="Pestalozzi Bibliothek"/><tag k="toilets_po" v="seated"/><tag k="wc_guide_i" v="1259"/><tag k="website" v="https://www.pbz.ch/standorte/standorte-und-oeffnungszeiten/schwamendingen/"/><tag k="Cluster_ID" v="40"/><tag k="xyz" v="1072_1331_11"/></node><node lat="47.482281" lon="8.459044"  id="-13"  changeset="false" ><tag k="id" v="1414"/><tag k="amenity" v="toilets"/><tag k="municipali" v="Dielsdorf"/><tag k="name" v="bahnhof dielsdorf"/><tag k="toilets_po" v="seated"/><tag k="wc_guide_i" v="1414"/><tag k="Cluster_ID" v="40"/><tag k="xyz" v="1072_1331_11"/></node><node lat="47.421513" lon="8.505864"  id="-14"  changeset="false" ><tag k="id" v="1705"/><tag k="amenity" v="toilets"/><tag k="municipali" v="Z�rich"/><tag k="name" v="Affoltern Alter Bahnhof"/><tag k="toilets_po" v="seated"/><tag k="wc_guide_i" v="1705"/><tag k="Cluster_ID" v="40"/><tag k="xyz" v="1072_1331_11"/></node><node lat="47.415375" lon="8.593959"  id="-15"  changeset="false" ><tag k="id" v="2167"/><tag k="amenity" v="toilets"/><tag k="municipali" v="Wallisellen"/><tag k="name" v="Friedhofstoilette"/><tag k="toilets_po" v="seated"/><tag k="wc_guide_i" v="2167"/><tag k="Cluster_ID" v="40"/><tag k="xyz" v="1072_1331_11"/></node><node lat="47.495083" lon="8.505049"  id="-16"  changeset="false" ><tag k="id" v="2311"/><tag k="amenity" v="toilets"/><tag k="municipali" v="Niederglatt"/><tag k="name" v="Friedhof"/><tag k="toilets_po" v="seated"/><tag k="wc_guide_i" v="2311"/><tag k="Cluster_ID" v="40"/><tag k="xyz" v="1072_1331_11"/></node><node lat="47.410686" lon="8.491497"  id="-17"  changeset="false" ><tag k="id" v="3248"/><tag k="amenity" v="toilets"/><tag k="municipali" v="Z�rich"/><tag k="name" v="Friedhof H�nggerberg"/><tag k="toilets_po" v="seated"/><tag k="wc_guide_i" v="3248"/><tag k="Cluster_ID" v="40"/><tag k="xyz" v="1072_1331_11"/></node><node lat="47.48362" lon="8.466125"  id="-18"  changeset="false" ><tag k="id" v="3311"/><tag k="amenity" v="toilets"/><tag k="municipali" v="Dielsdorf"/><tag k="toilets_po" v="seated"/><tag k="wc_guide_i" v="3311"/><tag k="Cluster_ID" v="40"/><tag k="xyz" v="1072_1331_11"/></node><node lat="47.451576" lon="8.568544"  id="-19"  changeset="false" ><tag k="id" v="3394"/><tag k="amenity" v="toilets"/><tag k="municipali" v="Kloten"/><tag k="name" v="Butzenb�el-H�gel"/><tag k="toilets_po" v="seated"/><tag k="wc_guide_i" v="3394"/><tag k="Cluster_ID" v="40"/><tag k="xyz" v="1072_1331_11"/></node><node lat="47.479378" lon="8.451061"  id="-20"  changeset="false" ><tag k="id" v="3408"/><tag k="amenity" v="toilets"/><tag k="municipali" v="Dielsdorf"/><tag k="name" v="Spital"/><tag k="toilets_po" v="seated"/><tag k="wc_guide_i" v="3408"/><tag k="Cluster_ID" v="40"/><tag k="xyz" v="1072_1331_11"/></node><node lat="47.470196" lon="8.510608"  id="-21"  changeset="false" ><tag k="id" v="3445"/><tag k="amenity" v="toilets"/><tag k="municipali" v="Oberglatt"/><tag k="name" v="Bahnhof AVEC"/><tag k="toilets_po" v="seated"/><tag k="wc_guide_i" v="3445"/><tag k="Cluster_ID" v="40"/><tag k="xyz" v="1072_1331_11"/></node><node lat="47.450081" lon="8.530606"  id="-22"  changeset="false" ><tag k="id" v="4572"/><tag k="amenity" v="toilets"/><tag k="municipali" v="R�mlang"/><tag k="name" v="Gemeindehaus"/><tag k="toilets_po" v="seated"/><tag k="wc_guide_i" v="4572"/><tag k="Cluster_ID" v="40"/><tag k="xyz" v="1072_1331_11"/></node><node lat="47.403168" lon="8.607445"  id="-23"  changeset="false" ><tag k="id" v="16385"/><tag k="amenity" v="toilets"/><tag k="municipali" v="D�bendorf"/><tag k="name" v="Tankstelle"/><tag k="toilets_po" v="seated"/><tag k="wc_guide_i" v="16385"/><tag k="Cluster_ID" v="40"/><tag k="xyz" v="1072_1331_11"/></node><node lat="47.408188" lon="8.506761"  id="-24"  changeset="false" ><tag k="id" v="16685"/><tag k="amenity" v="toilets"/><tag k="descriptio" v="�ffentlich, Kein Konsumationszwang"/><tag k="municipali" v="Z�rich"/><tag k="toilets_po" v="seated"/><tag k="wc_guide_i" v="16685"/><tag k="Cluster_ID" v="40"/><tag k="xyz" v="1072_1331_11"/></node><node lat="47.452679" lon="8.547627"  id="-25"  changeset="false" ><tag k="id" v="18418"/><tag k="amenity" v="toilets"/><tag k="municipali" v="R�mlang"/><tag k="name" v="Heliport"/><tag k="toilets_po" v="seated"/><tag k="wc_guide_i" v="18418"/><tag k="Cluster_ID" v="40"/><tag k="xyz" v="1072_1331_11"/></node><node lat="47.424606" lon="8.510989"  id="-26"  changeset="false" ><tag k="id" v="18711"/><tag k="amenity" v="toilets"/><tag k="descriptio" v="�ffnungszeiten GZ beachten"/><tag k="municipali" v="Z�rich"/><tag k="name" v="GZ Affoltern"/><tag k="toilets_po" v="seated"/><tag k="wc_guide_i" v="18711"/><tag k="website" v="https://gz-zh.ch/gz-affoltern/"/><tag k="Cluster_ID" v="40"/><tag k="xyz" v="1072_1331_11"/></node><node lat="47.414581" lon="8.549023"  id="-27"  changeset="false" ><tag k="id" v="18759"/><tag k="amenity" v="toilets"/><tag k="municipali" v="Z�rich"/><tag k="toilets_po" v="seated"/><tag k="wc_guide_i" v="18759"/><tag k="Cluster_ID" v="40"/><tag k="xyz" v="1072_1331_11"/></node><node lat="47.431808" lon="8.575851"  id="-28"  changeset="false" ><tag k="id" v="19887"/><tag k="amenity" v="toilets"/><tag k="municipali" v="Opfikon"/><tag k="name" v="Friedhof"/><tag k="toilets_po" v="seated"/><tag k="wc_guide_i" v="19887"/><tag k="Cluster_ID" v="40"/><tag k="xyz" v="1072_1331_11"/></node><node lat="47.452911" lon="8.578356"  id="-29"  changeset="false" ><tag k="id" v="20103"/><tag k="amenity" v="toilets"/><tag k="municipali" v="Kloten"/><tag k="name" v="Toitoi"/><tag k="toilets_po" v="seated"/><tag k="wc_guide_i" v="20103"/><tag k="Cluster_ID" v="40"/><tag k="xyz" v="1072_1331_11"/></node><node lat="47.413307" lon="8.553432"  id="-30"  changeset="false" ><tag k="id" v="20140"/><tag k="amenity" v="toilets"/><tag k="municipali" v="Z�rich"/><tag k="name" v="Parkhaus Messe Z�rich"/><tag k="toilets_po" v="seated"/><tag k="wc_guide_i" v="20140"/><tag k="Cluster_ID" v="40"/><tag k="xyz" v="1072_1331_11"/></node><node lat="47.398842" lon="8.448004"  id="-31"  changeset="false" ><tag k="id" v="20235"/><tag k="amenity" v="toilets"/><tag k="municipali" v="Schlieren"/><tag k="name" v="Nette Toilette"/><tag k="toilets_po" v="seated"/><tag k="wc_guide_i" v="20235"/><tag k="Cluster_ID" v="40"/><tag k="xyz" v="1072_1331_11"/></node><node lat="47.400833" lon="8.462296"  id="-32"  changeset="false" ><tag k="id" v="20245"/><tag k="amenity" v="toilets"/><tag k="municipali" v="Schlieren"/><tag k="name" v="Nette Toilette"/><tag k="toilets_po" v="seated"/><tag k="wc_guide_i" v="20245"/><tag k="website" v="http://maori.ch/"/><tag k="Cluster_ID" v="40"/><tag k="xyz" v="1072_1331_11"/></node><node lat="47.400299" lon="8.441073"  id="-33"  changeset="false" ><tag k="id" v="20247"/><tag k="amenity" v="toilets"/><tag k="municipali" v="Schlieren"/><tag k="name" v="Nette Toilette"/><tag k="toilets_po" v="seated"/><tag k="wc_guide_i" v="20247"/><tag k="website" v="https://dapaulo.ch/"/><tag k="Cluster_ID" v="40"/><tag k="xyz" v="1072_1331_11"/></node><node lat="47.400841" lon="8.448938"  id="-34"  changeset="false" ><tag k="id" v="20248"/><tag k="amenity" v="toilets"/><tag k="municipali" v="Schlieren"/><tag k="name" v="Nette Toilette"/><tag k="toilets_po" v="seated"/><tag k="wc_guide_i" v="20248"/><tag k="website" v="https://www.pizzaway.ch/"/><tag k="Cluster_ID" v="40"/><tag k="xyz" v="1072_1331_11"/></node><node lat="47.400803" lon="8.442106"  id="-35"  changeset="false" ><tag k="id" v="20250"/><tag k="amenity" v="toilets"/><tag k="municipali" v="Schlieren"/><tag k="name" v="Nette Toilette"/><tag k="toilets_po" v="seated"/><tag k="wc_guide_i" v="20250"/><tag k="Cluster_ID" v="40"/><tag k="xyz" v="1072_1331_11"/></node><node lat="47.444202" lon="8.582504"  id="-36"  changeset="false" ><tag k="id" v="20271"/><tag k="amenity" v="toilets"/><tag k="municipali" v="Kloten"/><tag k="name" v="Stadthalle kloten"/><tag k="toilets_po" v="seated"/><tag k="wc_guide_i" v="20271"/><tag k="Cluster_ID" v="40"/><tag k="xyz" v="1072_1331_11"/></node><node lat="47.409527" lon="8.470361"  id="-37"  changeset="false" ><tag k="id" v="20605"/><tag k="amenity" v="toilets"/><tag k="municipali" v="Oberengstringen"/><tag k="name" v="Friedhof"/><tag k="toilets_po" v="seated"/><tag k="wc_guide_i" v="20605"/><tag k="Cluster_ID" v="40"/><tag k="xyz" v="1072_1331_11"/></node><node lat="47.42281" lon="8.5684"  id="-38"  changeset="false" ><tag k="id" v="21165"/><tag k="amenity" v="toilets"/><tag k="municipali" v="Glattbrugg"/><tag k="name" v="Sportanlage Au"/><tag k="toilets_po" v="seated"/><tag k="wc_guide_i" v="21165"/><tag k="Cluster_ID" v="40"/><tag k="xyz" v="1072_1331_11"/></node><node lat="47.4347" lon="8.58459"  id="-39"  changeset="false" ><tag k="id" v="21166"/><tag k="amenity" v="toilets"/><tag k="descriptio" v="ToiToi"/><tag k="municipali" v="Glattbrugg"/><tag k="name" v="Waldh�tte H�uligrueb"/><tag k="toilets_po" v="seated"/><tag k="wc_guide_i" v="21166"/><tag k="Cluster_ID" v="40"/><tag k="xyz" v="1072_1331_11"/></node></osm>