<?xml version="1.0" encoding="UTF-8"?><osm version="0.6" generator="https://github.com/Rub21/geojson2osm"><node lat="46.836445" lon="9.287734"  id="-1"  changeset="false" ><tag k="id" v="1245"/><tag k="amenity" v="toilets"/><tag k="municipali" v="Flims"/><tag k="name" v="Postplatz"/><tag k="toilets_po" v="seated"/><tag k="wc_guide_i" v="1245"/><tag k="Cluster_ID" v="10"/><tag k="xyz" v="1076_1326_11"/></node><node lat="46.801762" lon="9.22946"  id="-2"  changeset="false" ><tag k="id" v="1818"/><tag k="amenity" v="toilets"/><tag k="municipali" v="Falera"/><tag k="name" v="Post"/><tag k="toilets_po" v="seated"/><tag k="wc_guide_i" v="1818"/><tag k="Cluster_ID" v="10"/><tag k="xyz" v="1076_1326_11"/></node><node lat="46.833984" lon="9.281532"  id="-3"  changeset="false" ><tag k="id" v="2269"/><tag k="amenity" v="toilets"/><tag k="municipali" v="Flims"/><tag k="name" v="Bergbahnen Flims"/><tag k="toilets_po" v="seated"/><tag k="wc_guide_i" v="2269"/><tag k="Cluster_ID" v="10"/><tag k="xyz" v="1076_1326_11"/></node><node lat="46.820171" lon="9.263383"  id="-4"  changeset="false" ><tag k="id" v="3495"/><tag k="amenity" v="toilets"/><tag k="municipali" v="Laax"/><tag k="name" v="Gondelstation"/><tag k="toilets_po" v="seated"/><tag k="wc_guide_i" v="3495"/><tag k="Cluster_ID" v="10"/><tag k="xyz" v="1076_1326_11"/></node><node lat="46.802849" lon="9.228591"  id="-5"  changeset="false" ><tag k="id" v="16775"/><tag k="amenity" v="toilets"/><tag k="municipali" v="Fellers"/><tag k="name" v="Gondelstation"/><tag k="toilets_po" v="seated"/><tag k="wc_guide_i" v="16775"/><tag k="Cluster_ID" v="10"/><tag k="xyz" v="1076_1326_11"/></node></osm>