<?xml version="1.0" encoding="UTF-8"?><osm version="0.6" generator="https://github.com/Rub21/geojson2osm"><node lat="46.894043" lon="8.245153"  id="-1"  changeset="false" ><tag k="id" v="871"/><tag k="amenity" v="toilets"/><tag k="municipali" v="Sarnen"/><tag k="name" v="Gemeindehaus"/><tag k="toilets_po" v="seated"/><tag k="wc_guide_i" v="871"/><tag k="Cluster_ID" v="35"/><tag k="xyz" v="1070_1326_11"/></node><node lat="46.867554" lon="8.199777"  id="-2"  changeset="false" ><tag k="id" v="877"/><tag k="amenity" v="toilets"/><tag k="municipali" v="Wilen (Sarnen)"/><tag k="toilets_po" v="seated"/><tag k="wc_guide_i" v="877"/><tag k="Cluster_ID" v="35"/><tag k="xyz" v="1070_1326_11"/></node><node lat="46.886356" lon="8.21176"  id="-3"  changeset="false" ><tag k="id" v="878"/><tag k="amenity" v="toilets"/><tag k="municipali" v="Stalden (Sarnen)"/><tag k="name" v="beim Friedhof"/><tag k="toilets_po" v="seated"/><tag k="wc_guide_i" v="878"/><tag k="Cluster_ID" v="35"/><tag k="xyz" v="1070_1326_11"/></node><node lat="46.870605" lon="8.237772"  id="-4"  changeset="false" ><tag k="id" v="1140"/><tag k="amenity" v="toilets"/><tag k="descriptio" v="50 Rp., Pissoir gratis"/><tag k="municipali" v="Sachseln"/><tag k="name" v="Bahnhof"/><tag k="toilets_po" v="seated"/><tag k="wc_guide_i" v="1140"/><tag k="Cluster_ID" v="35"/><tag k="xyz" v="1070_1326_11"/></node><node lat="46.861557" lon="8.087461"  id="-5"  changeset="false" ><tag k="id" v="2253"/><tag k="amenity" v="toilets"/><tag k="municipali" v="Giswil"/><tag k="name" v="Chlus D�rsmatt"/><tag k="toilets_po" v="seated"/><tag k="wc_guide_i" v="2253"/><tag k="Cluster_ID" v="35"/><tag k="xyz" v="1070_1326_11"/></node><node lat="46.907768" lon="8.134217"  id="-6"  changeset="false" ><tag k="id" v="2811"/><tag k="amenity" v="toilets"/><tag k="municipali" v="Langis"/><tag k="toilets_po" v="seated"/><tag k="wc_guide_i" v="2811"/><tag k="Cluster_ID" v="35"/><tag k="xyz" v="1070_1326_11"/></node><node lat="46.898651" lon="8.250688"  id="-7"  changeset="false" ><tag k="id" v="4580"/><tag k="amenity" v="toilets"/><tag k="municipali" v="Sarnen"/><tag k="name" v="Esso Tankstelle"/><tag k="toilets_po" v="seated"/><tag k="wc_guide_i" v="4580"/><tag k="Cluster_ID" v="35"/><tag k="xyz" v="1070_1326_11"/></node><node lat="46.877224" lon="8.22027"  id="-8"  changeset="false" ><tag k="id" v="18227"/><tag k="amenity" v="toilets"/><tag k="municipali" v="Sarnen"/><tag k="name" v="Feuerwehr"/><tag k="toilets_po" v="seated"/><tag k="wc_guide_i" v="18227"/><tag k="Cluster_ID" v="35"/><tag k="xyz" v="1070_1326_11"/></node><node lat="46.869301" lon="8.235336"  id="-9"  changeset="false" ><tag k="id" v="18233"/><tag k="amenity" v="toilets"/><tag k="municipali" v="Sachseln"/><tag k="toilets_po" v="seated"/><tag k="wc_guide_i" v="18233"/><tag k="Cluster_ID" v="35"/><tag k="xyz" v="1070_1326_11"/></node><node lat="46.893799" lon="8.237624"  id="-10"  changeset="false" ><tag k="id" v="19107"/><tag k="amenity" v="toilets"/><tag k="municipali" v="Sarnen"/><tag k="name" v="Friedhof"/><tag k="toilets_po" v="seated"/><tag k="wc_guide_i" v="19107"/><tag k="Cluster_ID" v="35"/><tag k="xyz" v="1070_1326_11"/></node><node lat="46.833519" lon="8.179934"  id="-11"  changeset="false" ><tag k="id" v="20060"/><tag k="amenity" v="toilets"/><tag k="descriptio" v="Kompost-Toilette"/><tag k="municipali" v="Giswil"/><tag k="name" v="Spielplatz"/><tag k="toilets_po" v="seated"/><tag k="wc_guide_i" v="20060"/><tag k="Cluster_ID" v="35"/><tag k="xyz" v="1070_1326_11"/></node><node lat="46.837666" lon="8.162674"  id="-12"  changeset="false" ><tag k="id" v="20061"/><tag k="amenity" v="toilets"/><tag k="municipali" v="Giswil"/><tag k="toilets_po" v="seated"/><tag k="wc_guide_i" v="20061"/><tag k="Cluster_ID" v="35"/><tag k="xyz" v="1070_1326_11"/></node><node lat="46.822613" lon="8.2111"  id="-13"  changeset="false" ><tag k="id" v="20062"/><tag k="amenity" v="toilets"/><tag k="municipali" v="Sachseln"/><tag k="name" v="Kleines Melchtal"/><tag k="toilets_po" v="seated"/><tag k="wc_guide_i" v="20062"/><tag k="Cluster_ID" v="35"/><tag k="xyz" v="1070_1326_11"/></node><node lat="46.831673" lon="8.1787"  id="-14"  changeset="false" ><tag k="id" v="20403"/><tag k="amenity" v="toilets"/><tag k="municipali" v="Giswil"/><tag k="toilets_po" v="seated"/><tag k="wc_guide_i" v="20403"/><tag k="Cluster_ID" v="35"/><tag k="xyz" v="1070_1326_11"/></node><node lat="46.89722" lon="8.24693"  id="-15"  changeset="false" ><tag k="id" v="21191"/><tag k="amenity" v="toilets"/><tag k="descriptio" v="UG"/><tag k="municipali" v="Sarnen"/><tag k="name" v="Lindenhof"/><tag k="toilets_po" v="seated"/><tag k="wc_guide_i" v="21191"/><tag k="Cluster_ID" v="35"/><tag k="xyz" v="1070_1326_11"/></node></osm>