<?xml version="1.0" encoding="UTF-8"?><osm version="0.6" generator="https://github.com/Rub21/geojson2osm"><node lat="46.754726" lon="8.039098"  id="-1"  changeset="false" ><tag k="id" v="2108"/><tag k="amenity" v="toilets"/><tag k="municipali" v="Brienz"/><tag k="name" v="Bahnhof"/><tag k="toilets_po" v="seated"/><tag k="wc_guide_i" v="2108"/><tag k="Cluster_ID" v="33"/><tag k="xyz" v="1069_1325_11"/></node><node lat="46.752476" lon="8.079953"  id="-2"  changeset="false" ><tag k="id" v="2111"/><tag k="amenity" v="toilets"/><tag k="municipali" v="Hofstetten Bei Brienz"/><tag k="name" v="Eingang Ballenberg West"/><tag k="toilets_po" v="seated"/><tag k="wc_guide_i" v="2111"/><tag k="Cluster_ID" v="33"/><tag k="xyz" v="1069_1325_11"/></node><node lat="46.707485" lon="7.960067"  id="-3"  changeset="false" ><tag k="id" v="2112"/><tag k="amenity" v="toilets"/><tag k="municipali" v="Iseltwald"/><tag k="name" v="Parkplatz Iseltwald"/><tag k="toilets_po" v="seated"/><tag k="wc_guide_i" v="2112"/><tag k="Cluster_ID" v="33"/><tag k="xyz" v="1069_1325_11"/></node><node lat="46.7164" lon="7.928696"  id="-4"  changeset="false" ><tag k="id" v="2121"/><tag k="amenity" v="toilets"/><tag k="municipali" v="Niederried Bei Interlaken"/><tag k="name" v="Bahnhof"/><tag k="toilets_po" v="seated"/><tag k="wc_guide_i" v="2121"/><tag k="Cluster_ID" v="33"/><tag k="xyz" v="1069_1325_11"/></node><node lat="46.73645" lon="7.958972"  id="-5"  changeset="false" ><tag k="id" v="2122"/><tag k="amenity" v="toilets"/><tag k="municipali" v="Oberried am Brienzersee"/><tag k="name" v="Bahnhof"/><tag k="toilets_po" v="seated"/><tag k="wc_guide_i" v="2122"/><tag k="Cluster_ID" v="33"/><tag k="xyz" v="1069_1325_11"/></node><node lat="46.772526" lon="8.019934"  id="-6"  changeset="false" ><tag k="id" v="2162"/><tag k="amenity" v="toilets"/><tag k="descriptio" v="Ge�ffnet bei Betrieb der BRB"/><tag k="municipali" v="Brienz"/><tag k="name" v="Bahnhof Planalp BRB"/><tag k="toilets_po" v="seated"/><tag k="wc_guide_i" v="2162"/><tag k="website" v="https://brienz-rothorn-bahn.ch"/><tag k="Cluster_ID" v="33"/><tag k="xyz" v="1069_1325_11"/></node><node lat="46.787338" lon="8.038516"  id="-7"  changeset="false" ><tag k="id" v="2163"/><tag k="amenity" v="toilets"/><tag k="descriptio" v="Nur ge�ffnet bei Betrieb der BRB"/><tag k="municipali" v="Fl�hli"/><tag k="name" v="Bahnhof BRB"/><tag k="toilets_po" v="seated"/><tag k="wc_guide_i" v="2163"/><tag k="Cluster_ID" v="33"/><tag k="xyz" v="1069_1325_11"/></node><node lat="46.711239" lon="7.963886"  id="-8"  changeset="false" ><tag k="id" v="2432"/><tag k="amenity" v="toilets"/><tag k="descriptio" v="Bei der Bushaltestelle und Spielplatz"/><tag k="municipali" v="Iseltwald"/><tag k="name" v="Bushaltestelle Isetwald"/><tag k="toilets_po" v="seated"/><tag k="wc_guide_i" v="2432"/><tag k="Cluster_ID" v="33"/><tag k="xyz" v="1069_1325_11"/></node><node lat="46.753689" lon="8.04479"  id="-9"  changeset="false" ><tag k="id" v="18377"/><tag k="amenity" v="toilets"/><tag k="municipali" v="Brienz (BE)"/><tag k="name" v="Max Buri Haus"/><tag k="toilets_po" v="seated"/><tag k="wc_guide_i" v="18377"/><tag k="Cluster_ID" v="33"/><tag k="xyz" v="1069_1325_11"/></node><node lat="46.753407" lon="8.035484"  id="-10"  changeset="false" ><tag k="id" v="21067"/><tag k="amenity" v="toilets"/><tag k="municipali" v="Brienz"/><tag k="toilets_po" v="seated"/><tag k="wc_guide_i" v="21067"/><tag k="Cluster_ID" v="33"/><tag k="xyz" v="1069_1325_11"/></node></osm>