<?xml version="1.0" encoding="UTF-8"?><osm version="0.6" generator="https://github.com/Rub21/geojson2osm"><node lat="46.612221" lon="6.50819"  id="-1"  changeset="false" ><tag k="id" v="2680"/><tag k="amenity" v="toilets"/><tag k="municipali" v="Cossonay"/><tag k="toilets_po" v="seated"/><tag k="wc_guide_i" v="2680"/><tag k="Cluster_ID" v="36"/><tag k="xyz" v="1061_1324_11"/></node><node lat="46.658157" lon="6.604757"  id="-2"  changeset="false" ><tag k="id" v="3260"/><tag k="amenity" v="toilets"/><tag k="municipali" v="Goumoens-La-Ville"/><tag k="name" v="Rte D Eclagnens 2"/><tag k="toilets_po" v="seated"/><tag k="wc_guide_i" v="3260"/><tag k="Cluster_ID" v="36"/><tag k="xyz" v="1061_1324_11"/></node><node lat="46.613895" lon="6.506417"  id="-3"  changeset="false" ><tag k="id" v="3780"/><tag k="amenity" v="toilets"/><tag k="municipali" v="Cossonay"/><tag k="name" v="Centre Comercial Migros"/><tag k="toilets_po" v="seated"/><tag k="wc_guide_i" v="3780"/><tag k="Cluster_ID" v="36"/><tag k="xyz" v="1061_1324_11"/></node><node lat="46.641216" lon="6.637035"  id="-4"  changeset="false" ><tag k="id" v="4076"/><tag k="amenity" v="toilets"/><tag k="municipali" v="Echallens"/><tag k="name" v="Cimeti�re Echallens,Vaud"/><tag k="toilets_po" v="seated"/><tag k="wc_guide_i" v="4076"/><tag k="Cluster_ID" v="36"/><tag k="xyz" v="1061_1324_11"/></node><node lat="46.673794" lon="6.569725"  id="-5"  changeset="false" ><tag k="id" v="19998"/><tag k="amenity" v="toilets"/><tag k="descriptio" v="1CHF dans le restoroute, gratuit vers la station service dans les 2 sens"/><tag k="municipali" v="Bavois"/><tag k="name" v="Aire repos Bavois"/><tag k="toilets_po" v="seated"/><tag k="wc_guide_i" v="19998"/><tag k="Cluster_ID" v="36"/><tag k="xyz" v="1061_1324_11"/></node><node lat="46.607258" lon="6.522858"  id="-6"  changeset="false" ><tag k="id" v="20251"/><tag k="amenity" v="toilets"/><tag k="municipali" v="Penthalaz"/><tag k="name" v="Coop Parking"/><tag k="toilets_po" v="seated"/><tag k="wc_guide_i" v="20251"/><tag k="Cluster_ID" v="36"/><tag k="xyz" v="1061_1324_11"/></node><node lat="46.652763" lon="6.52617"  id="-7"  changeset="false" ><tag k="id" v="20538"/><tag k="amenity" v="toilets"/><tag k="descriptio" v="Pas D'indication Sur Le WC"/><tag k="municipali" v="Ecl�pens"/><tag k="name" v="Goudoux-Dessous"/><tag k="toilets_po" v="seated"/><tag k="wc_guide_i" v="20538"/><tag k="Cluster_ID" v="36"/><tag k="xyz" v="1061_1324_11"/></node></osm>