<?xml version="1.0" encoding="UTF-8"?><osm version="0.6" generator="https://github.com/Rub21/geojson2osm"><node lat="46.727318" lon="8.187733"  id="-1"  changeset="false" ><tag k="id" v="1218"/><tag k="amenity" v="toilets"/><tag k="municipali" v="Meiringen"/><tag k="toilets_po" v="seated"/><tag k="wc_guide_i" v="1218"/><tag k="Cluster_ID" v="5"/><tag k="xyz" v="1070_1325_11"/></node><node lat="46.758064" lon="8.138466"  id="-2"  changeset="false" ><tag k="id" v="1412"/><tag k="amenity" v="toilets"/><tag k="descriptio" v="1 Fr."/><tag k="municipali" v="Meiringen"/><tag k="name" v="Bahnhof Br�nig-Hasliberg"/><tag k="toilets_po" v="seated"/><tag k="wc_guide_i" v="1412"/><tag k="Cluster_ID" v="35"/><tag k="xyz" v="1070_1325_11"/></node><node lat="46.758064" lon="8.138552"  id="-3"  changeset="false" ><tag k="id" v="3482"/><tag k="amenity" v="toilets"/><tag k="descriptio" v="Toi Kabine"/><tag k="municipali" v="Meiringen"/><tag k="name" v="Zuschauerparkplatz Flugplatz Meiringen"/><tag k="toilets_po" v="seated"/><tag k="wc_guide_i" v="3482"/><tag k="Cluster_ID" v="33"/><tag k="xyz" v="1070_1325_11"/></node><node lat="46.742229" lon="8.115785"  id="-4"  changeset="false" ><tag k="id" v="3688"/><tag k="amenity" v="toilets"/><tag k="descriptio" v="Seitlich von der Barriere auf dem Wendeplatz"/><tag k="municipali" v="Meiringen"/><tag k="name" v="Flugplatz Meiringen Toitoi"/><tag k="toilets_po" v="seated"/><tag k="wc_guide_i" v="3688"/><tag k="Cluster_ID" v="33"/><tag k="xyz" v="1070_1325_11"/></node><node lat="46.72739" lon="8.184342"  id="-5"  changeset="false" ><tag k="id" v="4088"/><tag k="amenity" v="toilets"/><tag k="municipali" v="Meiringen"/><tag k="name" v="Bahnhof Meiringen"/><tag k="toilets_po" v="seated"/><tag k="wc_guide_i" v="4088"/><tag k="Cluster_ID" v="5"/><tag k="xyz" v="1070_1325_11"/></node><node lat="46.784927" lon="8.157177"  id="-6"  changeset="false" ><tag k="id" v="4485"/><tag k="amenity" v="toilets"/><tag k="descriptio" v="Sommer"/><tag k="municipali" v="Lungern"/><tag k="name" v="Kurpark"/><tag k="toilets_po" v="seated"/><tag k="wc_guide_i" v="4485"/><tag k="Cluster_ID" v="33"/><tag k="xyz" v="1070_1325_11"/></node><node lat="46.702168" lon="8.23247"  id="-7"  changeset="false" ><tag k="id" v="19085"/><tag k="amenity" v="toilets"/><tag k="municipali" v="Innertkirchen"/><tag k="name" v="Bahnhof MIB Endstation"/><tag k="toilets_po" v="seated"/><tag k="wc_guide_i" v="19085"/><tag k="Cluster_ID" v="5"/><tag k="xyz" v="1070_1325_11"/></node><node lat="46.747482" lon="8.173774"  id="-8"  changeset="false" ><tag k="id" v="20956"/><tag k="amenity" v="toilets"/><tag k="municipali" v="Hasliberg Hohfluh"/><tag k="name" v="Bei Post"/><tag k="toilets_po" v="seated"/><tag k="wc_guide_i" v="20956"/><tag k="Cluster_ID" v="5"/><tag k="xyz" v="1070_1325_11"/></node></osm>