<?xml version="1.0" encoding="UTF-8"?><osm version="0.6" generator="https://github.com/Rub21/geojson2osm"><node lat="46.975918" lon="8.466854"  id="-1"  changeset="false" ><tag k="id" v="694"/><tag k="amenity" v="toilets"/><tag k="municipali" v="Beckenried"/><tag k="name" v="1. Oberdeck"/><tag k="toilets_po" v="seated"/><tag k="wc_guide_i" v="694"/><tag k="Cluster_ID" v="37"/><tag k="xyz" v="1072_1327_11"/></node><node lat="46.996296" lon="8.606394"  id="-2"  changeset="false" ><tag k="id" v="1614"/><tag k="amenity" v="toilets"/><tag k="municipali" v="Brunnen"/><tag k="name" v="Parkplatz"/><tag k="toilets_po" v="seated"/><tag k="wc_guide_i" v="1614"/><tag k="Cluster_ID" v="6"/><tag k="xyz" v="1072_1327_11"/></node><node lat="47.040092" lon="8.530287"  id="-3"  changeset="false" ><tag k="id" v="1719"/><tag k="amenity" v="toilets"/><tag k="municipali" v="Goldau"/><tag k="name" v="Talstation Kr�belluftseilbahn"/><tag k="toilets_po" v="seated"/><tag k="wc_guide_i" v="1719"/><tag k="Cluster_ID" v="37"/><tag k="xyz" v="1072_1327_11"/></node><node lat="46.933861" lon="8.613195"  id="-4"  changeset="false" ><tag k="id" v="2000"/><tag k="amenity" v="toilets"/><tag k="municipali" v="Sisikon"/><tag k="name" v="Bei Schiffstation Tellsplatte"/><tag k="toilets_po" v="seated"/><tag k="wc_guide_i" v="2000"/><tag k="Cluster_ID" v="6"/><tag k="xyz" v="1072_1327_11"/></node><node lat="46.983917" lon="8.611977"  id="-5"  changeset="false" ><tag k="id" v="2035"/><tag k="amenity" v="toilets"/><tag k="descriptio" v="Mit Parkpl�tzen"/><tag k="municipali" v="Brunnen / Ingenbohl"/><tag k="name" v="Toilette Rastplatz Abzweigung Morschach"/><tag k="toilets_po" v="seated"/><tag k="wc_guide_i" v="2035"/><tag k="Cluster_ID" v="6"/><tag k="xyz" v="1072_1327_11"/></node><node lat="47.010201" lon="8.482894"  id="-6"  changeset="false" ><tag k="id" v="4203"/><tag k="amenity" v="toilets"/><tag k="municipali" v="Vitznau"/><tag k="name" v="pavillion"/><tag k="toilets_po" v="seated"/><tag k="wc_guide_i" v="4203"/><tag k="Cluster_ID" v="37"/><tag k="xyz" v="1072_1327_11"/></node><node lat="46.966087" lon="8.585636"  id="-7"  changeset="false" ><tag k="id" v="4533"/><tag k="amenity" v="toilets"/><tag k="municipali" v="Seelisberg"/><tag k="name" v="Feuerstelle"/><tag k="toilets_po" v="seated"/><tag k="wc_guide_i" v="4533"/><tag k="Cluster_ID" v="6"/><tag k="xyz" v="1072_1327_11"/></node><node lat="47.004818" lon="8.611767"  id="-8"  changeset="false" ><tag k="id" v="4719"/><tag k="amenity" v="toilets"/><tag k="descriptio" v="Toi Toi"/><tag k="municipali" v="Ingenbohl"/><tag k="toilets_po" v="seated"/><tag k="wc_guide_i" v="4719"/><tag k="Cluster_ID" v="6"/><tag k="xyz" v="1072_1327_11"/></node><node lat="46.968964" lon="8.593022"  id="-9"  changeset="false" ><tag k="id" v="16523"/><tag k="amenity" v="toilets"/><tag k="descriptio" v="Direkt bei der R�tliwiese"/><tag k="municipali" v="Seelisberg"/><tag k="toilets_po" v="seated"/><tag k="wc_guide_i" v="16523"/><tag k="Cluster_ID" v="6"/><tag k="xyz" v="1072_1327_11"/></node><node lat="47.023788" lon="8.463203"  id="-10"  changeset="false" ><tag k="id" v="18263"/><tag k="amenity" v="toilets"/><tag k="municipali" v="Weggis"/><tag k="name" v="Marina Park Weggis"/><tag k="toilets_po" v="seated"/><tag k="wc_guide_i" v="18263"/><tag k="Cluster_ID" v="37"/><tag k="xyz" v="1072_1327_11"/></node><node lat="47.01149" lon="8.484622"  id="-11"  changeset="false" ><tag k="id" v="18683"/><tag k="amenity" v="toilets"/><tag k="municipali" v="Vitznau"/><tag k="name" v="Friedhof"/><tag k="toilets_po" v="seated"/><tag k="wc_guide_i" v="18683"/><tag k="Cluster_ID" v="37"/><tag k="xyz" v="1072_1327_11"/></node><node lat="46.968109" lon="8.47518"  id="-12"  changeset="false" ><tag k="id" v="20135"/><tag k="amenity" v="toilets"/><tag k="municipali" v="Beckenried"/><tag k="name" v="Schiffsstation"/><tag k="toilets_po" v="seated"/><tag k="wc_guide_i" v="20135"/><tag k="Cluster_ID" v="6"/><tag k="xyz" v="1072_1327_11"/></node><node lat="46.991295" lon="8.529458"  id="-13"  changeset="false" ><tag k="id" v="20996"/><tag k="amenity" v="toilets"/><tag k="municipali" v="Gersau"/><tag k="name" v="Kirche"/><tag k="toilets_po" v="seated"/><tag k="wc_guide_i" v="20996"/><tag k="Cluster_ID" v="6"/><tag k="xyz" v="1072_1327_11"/></node><node lat="47.001377" lon="8.592249"  id="-14"  changeset="false" ><tag k="id" v="21037"/><tag k="amenity" v="toilets"/><tag k="municipali" v="Brunnen"/><tag k="name" v="Talstation Urmibergbahn"/><tag k="toilets_po" v="seated"/><tag k="wc_guide_i" v="21037"/><tag k="website" v="https://www.urmiberg.ch/"/><tag k="Cluster_ID" v="6"/><tag k="xyz" v="1072_1327_11"/></node><node lat="46.974232" lon="8.586477"  id="-15"  changeset="false" ><tag k="id" v="21145"/><tag k="amenity" v="toilets"/><tag k="municipali" v="Seelisberg"/><tag k="name" v="Feuerstelle Schiebenboden"/><tag k="toilets_po" v="seated"/><tag k="wc_guide_i" v="21145"/><tag k="Cluster_ID" v="6"/><tag k="xyz" v="1072_1327_11"/></node></osm>