<?xml version="1.0" encoding="UTF-8"?><osm version="0.6" generator="https://github.com/Rub21/geojson2osm"><node lat="47.52301" lon="8.215821"  id="-1"  changeset="false" ><tag k="id" v="448"/><tag k="amenity" v="toilets"/><tag k="municipali" v="Villigen"/><tag k="name" v="Bushaltestelle: Villigen Post"/><tag k="toilets_po" v="seated"/><tag k="wc_guide_i" v="448"/><tag k="Cluster_ID" v="28"/><tag k="xyz" v="1070_1332_11"/></node><node lat="47.517849" lon="8.240486"  id="-2"  changeset="false" ><tag k="id" v="449"/><tag k="amenity" v="toilets"/><tag k="municipali" v="Siggenthal Station"/><tag k="name" v="Bahnhof Siggenthal-W�renlingen"/><tag k="toilets_po" v="seated"/><tag k="wc_guide_i" v="449"/><tag k="Cluster_ID" v="28"/><tag k="xyz" v="1070_1332_11"/></node><node lat="47.554127" lon="8.224264"  id="-3"  changeset="false" ><tag k="id" v="1027"/><tag k="amenity" v="toilets"/><tag k="descriptio" v="w�hrend �ffnungszeiten"/><tag k="municipali" v="B�ttstein"/><tag k="name" v="Axporama"/><tag k="toilets_po" v="seated"/><tag k="wc_guide_i" v="1027"/><tag k="website" v="http://www.axpo.com/axporama"/><tag k="Cluster_ID" v="28"/><tag k="xyz" v="1070_1332_11"/></node><node lat="47.520767" lon="8.242607"  id="-4"  changeset="false" ><tag k="id" v="4213"/><tag k="amenity" v="toilets"/><tag k="municipali" v="W�renlingen"/><tag k="name" v="BP Tankstelle"/><tag k="toilets_po" v="seated"/><tag k="wc_guide_i" v="4213"/><tag k="Cluster_ID" v="28"/><tag k="xyz" v="1070_1332_11"/></node><node lat="47.533794" lon="8.097658"  id="-5"  changeset="false" ><tag k="id" v="16749"/><tag k="amenity" v="toilets"/><tag k="municipali" v="Laufenburg"/><tag k="name" v="Friedhof"/><tag k="toilets_po" v="seated"/><tag k="wc_guide_i" v="16749"/><tag k="Cluster_ID" v="28"/><tag k="xyz" v="1070_1332_11"/></node><node lat="47.579941" lon="8.207542"  id="-6"  changeset="false" ><tag k="id" v="18552"/><tag k="amenity" v="toilets"/><tag k="municipali" v="Leuggern"/><tag k="name" v="Lourdes-Grotte, Leuggern"/><tag k="toilets_po" v="seated"/><tag k="wc_guide_i" v="18552"/><tag k="Cluster_ID" v="28"/><tag k="xyz" v="1070_1332_11"/></node><node lat="47.581684" lon="8.216831"  id="-7"  changeset="false" ><tag k="id" v="20850"/><tag k="amenity" v="toilets"/><tag k="municipali" v="Leuggern"/><tag k="name" v="Friedhof Leuggern"/><tag k="toilets_po" v="seated"/><tag k="wc_guide_i" v="20850"/><tag k="Cluster_ID" v="28"/><tag k="xyz" v="1070_1332_11"/></node><node lat="47.529915" lon="8.258195"  id="-8"  changeset="false" ><tag k="id" v="21047"/><tag k="amenity" v="toilets"/><tag k="municipali" v="W�renlingen"/><tag k="name" v="Friedhof"/><tag k="toilets_po" v="seated"/><tag k="wc_guide_i" v="21047"/><tag k="Cluster_ID" v="28"/><tag k="xyz" v="1070_1332_11"/></node></osm>