<?xml version="1.0" encoding="UTF-8"?><osm version="0.6" generator="https://github.com/Rub21/geojson2osm"><node lat="46.49255" lon="7.559742"  id="-1"  changeset="false" ><tag k="id" v="956"/><tag k="amenity" v="toilets"/><tag k="descriptio" v="Lift, Zwischengeschoss"/><tag k="municipali" v="Adelboden"/><tag k="name" v="Einstellhalle / Tennisanlage"/><tag k="toilets_po" v="seated"/><tag k="wc_guide_i" v="956"/><tag k="Cluster_ID" v="30"/><tag k="xyz" v="1067_1323_11"/></node><node lat="46.487816" lon="7.560557"  id="-2"  changeset="false" ><tag k="id" v="957"/><tag k="amenity" v="toilets"/><tag k="descriptio" v="im UG"/><tag k="municipali" v="Adelboden"/><tag k="toilets_po" v="seated"/><tag k="wc_guide_i" v="957"/><tag k="Cluster_ID" v="30"/><tag k="xyz" v="1067_1323_11"/></node><node lat="46.493916" lon="7.560808"  id="-3"  changeset="false" ><tag k="id" v="3094"/><tag k="amenity" v="toilets"/><tag k="municipali" v="Adelboden"/><tag k="toilets_po" v="seated"/><tag k="wc_guide_i" v="3094"/><tag k="Cluster_ID" v="30"/><tag k="xyz" v="1067_1323_11"/></node><node lat="46.535305" lon="7.663997"  id="-4"  changeset="false" ><tag k="id" v="4066"/><tag k="amenity" v="toilets"/><tag k="descriptio" v="beim Eingang"/><tag k="municipali" v="Kandergrund"/><tag k="name" v="blausee"/><tag k="toilets_po" v="seated"/><tag k="wc_guide_i" v="4066"/><tag k="Cluster_ID" v="30"/><tag k="xyz" v="1067_1323_11"/></node><node lat="46.487816" lon="7.560557"  id="-5"  changeset="false" ><tag k="id" v="16417"/><tag k="amenity" v="toilets"/><tag k="municipali" v="Adelboden"/><tag k="name" v="Parkplatz"/><tag k="toilets_po" v="seated"/><tag k="wc_guide_i" v="16417"/><tag k="Cluster_ID" v="30"/><tag k="xyz" v="1067_1323_11"/></node><node lat="46.49596" lon="7.675403"  id="-6"  changeset="false" ><tag k="id" v="16706"/><tag k="amenity" v="toilets"/><tag k="municipali" v="Kandersteg"/><tag k="toilets_po" v="seated"/><tag k="wc_guide_i" v="16706"/><tag k="Cluster_ID" v="38"/><tag k="xyz" v="1067_1323_11"/></node><node lat="46.528912" lon="7.675289"  id="-7"  changeset="false" ><tag k="id" v="16881"/><tag k="amenity" v="toilets"/><tag k="municipali" v="Blausee Mitholz"/><tag k="name" v="Bahnhof"/><tag k="toilets_po" v="seated"/><tag k="wc_guide_i" v="16881"/><tag k="Cluster_ID" v="38"/><tag k="xyz" v="1067_1323_11"/></node><node lat="46.495625" lon="7.671567"  id="-8"  changeset="false" ><tag k="id" v="19428"/><tag k="amenity" v="toilets"/><tag k="municipali" v="Kandersteg"/><tag k="name" v="Bahnhof"/><tag k="toilets_po" v="seated"/><tag k="wc_guide_i" v="19428"/><tag k="Cluster_ID" v="38"/><tag k="xyz" v="1067_1323_11"/></node><node lat="46.492302" lon="7.568348"  id="-9"  changeset="false" ><tag k="id" v="21055"/><tag k="amenity" v="toilets"/><tag k="municipali" v="Adelboden"/><tag k="name" v="Bei Vogellisikreisel Rchtg Boden"/><tag k="toilets_po" v="seated"/><tag k="wc_guide_i" v="21055"/><tag k="Cluster_ID" v="30"/><tag k="xyz" v="1067_1323_11"/></node></osm>