<?xml version="1.0" encoding="UTF-8"?><osm version="0.6" generator="https://github.com/Rub21/geojson2osm"><node lat="46.925529" lon="8.997974"  id="-1"  changeset="false" ><tag k="id" v="1884"/><tag k="amenity" v="toilets"/><tag k="municipali" v="Linthal"/><tag k="toilets_po" v="seated"/><tag k="wc_guide_i" v="1884"/><tag k="Cluster_ID" v="12"/><tag k="xyz" v="1075_1327_11"/></node><node lat="46.955975" lon="8.984628"  id="-2"  changeset="false" ><tag k="id" v="4058"/><tag k="amenity" v="toilets"/><tag k="municipali" v="Braunwald"/><tag k="name" v="Gumen Bergstation"/><tag k="toilets_po" v="seated"/><tag k="wc_guide_i" v="4058"/><tag k="website" v="https://www.braunwald.ch/Attraktionen/Kombibahn-Gumen-Braunwald"/><tag k="Cluster_ID" v="12"/><tag k="xyz" v="1075_1327_11"/></node><node lat="46.938869" lon="8.986988"  id="-3"  changeset="false" ><tag k="id" v="4061"/><tag k="amenity" v="toilets"/><tag k="municipali" v="Braunwald"/><tag k="name" v="Gumen Sesselbahn Talstation"/><tag k="toilets_po" v="seated"/><tag k="wc_guide_i" v="4061"/><tag k="Cluster_ID" v="12"/><tag k="xyz" v="1075_1327_11"/></node><node lat="46.93866" lon="8.991108"  id="-4"  changeset="false" ><tag k="id" v="4104"/><tag k="amenity" v="toilets"/><tag k="municipali" v="Braunwald"/><tag k="name" v="Station H�ttenberg"/><tag k="toilets_po" v="seated"/><tag k="wc_guide_i" v="4104"/><tag k="Cluster_ID" v="12"/><tag k="xyz" v="1075_1327_11"/></node><node lat="46.928806" lon="9.002451"  id="-5"  changeset="false" ><tag k="id" v="16498"/><tag k="amenity" v="toilets"/><tag k="municipali" v="Glarus S�d"/><tag k="name" v="Braunwaldbahn"/><tag k="toilets_po" v="seated"/><tag k="wc_guide_i" v="16498"/><tag k="Cluster_ID" v="12"/><tag k="xyz" v="1075_1327_11"/></node><node lat="47.039917" lon="9.068122"  id="-6"  changeset="false" ><tag k="id" v="18495"/><tag k="amenity" v="toilets"/><tag k="municipali" v="Glarus"/><tag k="name" v="Nette Toilette"/><tag k="toilets_po" v="seated"/><tag k="wc_guide_i" v="18495"/><tag k="Cluster_ID" v="1"/><tag k="xyz" v="1075_1327_11"/></node><node lat="47.039619" lon="9.068138"  id="-7"  changeset="false" ><tag k="id" v="18496"/><tag k="amenity" v="toilets"/><tag k="municipali" v="Glarus"/><tag k="name" v="Nette Toilette"/><tag k="toilets_po" v="seated"/><tag k="wc_guide_i" v="18496"/><tag k="website" v="https://www.cornetto.ch/"/><tag k="Cluster_ID" v="1"/><tag k="xyz" v="1075_1327_11"/></node><node lat="47.039253" lon="9.069778"  id="-8"  changeset="false" ><tag k="id" v="18498"/><tag k="amenity" v="toilets"/><tag k="municipali" v="Glarus"/><tag k="name" v="Nette Toilette"/><tag k="toilets_po" v="seated"/><tag k="wc_guide_i" v="18498"/><tag k="website" v="https://www.hotel-stadthof-glarus.ch/"/><tag k="Cluster_ID" v="1"/><tag k="xyz" v="1075_1327_11"/></node><node lat="46.997383" lon="9.077476"  id="-9"  changeset="false" ><tag k="id" v="19345"/><tag k="amenity" v="toilets"/><tag k="municipali" v="Glarus S�d"/><tag k="toilets_po" v="seated"/><tag k="wc_guide_i" v="19345"/><tag k="Cluster_ID" v="12"/><tag k="xyz" v="1075_1327_11"/></node></osm>