<?xml version="1.0" encoding="UTF-8"?><osm version="0.6" generator="https://github.com/Rub21/geojson2osm"><node lat="47.13961" lon="9.122987"  id="-1"  changeset="false" ><tag k="id" v="486"/><tag k="amenity" v="toilets"/><tag k="municipali" v="Weesen"/><tag k="name" v="Anlage Lago-Mio"/><tag k="toilets_po" v="seated"/><tag k="wc_guide_i" v="486"/><tag k="Cluster_ID" v="1"/><tag k="xyz" v="1075_1328_11"/></node><node lat="47.138103" lon="9.108943"  id="-2"  changeset="false" ><tag k="id" v="487"/><tag k="amenity" v="toilets"/><tag k="municipali" v="Weesen"/><tag k="name" v="Fli"/><tag k="toilets_po" v="seated"/><tag k="wc_guide_i" v="487"/><tag k="Cluster_ID" v="1"/><tag k="xyz" v="1075_1328_11"/></node><node lat="47.137512" lon="9.049902"  id="-3"  changeset="false" ><tag k="id" v="1377"/><tag k="amenity" v="toilets"/><tag k="municipali" v="Niederurnen"/><tag k="name" v="Rastst�tte Glarnerland"/><tag k="toilets_po" v="seated"/><tag k="wc_guide_i" v="1377"/><tag k="Cluster_ID" v="1"/><tag k="xyz" v="1075_1328_11"/></node><node lat="47.064941" lon="9.059348"  id="-4"  changeset="false" ><tag k="id" v="1833"/><tag k="amenity" v="toilets"/><tag k="municipali" v="Netstal"/><tag k="name" v="Bahnhof"/><tag k="toilets_po" v="seated"/><tag k="wc_guide_i" v="1833"/><tag k="Cluster_ID" v="1"/><tag k="xyz" v="1075_1328_11"/></node><node lat="47.136051" lon="9.060137"  id="-5"  changeset="false" ><tag k="id" v="3428"/><tag k="amenity" v="toilets"/><tag k="municipali" v="Ziegelbr�cke"/><tag k="name" v="Bahnhof"/><tag k="toilets_po" v="seated"/><tag k="wc_guide_i" v="3428"/><tag k="Cluster_ID" v="1"/><tag k="xyz" v="1075_1328_11"/></node><node lat="47.098591" lon="9.069825"  id="-6"  changeset="false" ><tag k="id" v="3664"/><tag k="amenity" v="toilets"/><tag k="municipali" v="N�fels"/><tag k="name" v="Bahnhof"/><tag k="toilets_po" v="seated"/><tag k="wc_guide_i" v="3664"/><tag k="Cluster_ID" v="1"/><tag k="xyz" v="1075_1328_11"/></node><node lat="47.100632" lon="9.064189"  id="-7"  changeset="false" ><tag k="id" v="18220"/><tag k="amenity" v="toilets"/><tag k="descriptio" v="Kiesweg - Friedhof hinter Kirche, �ber zwei Treppen zum WC"/><tag k="municipali" v="N�fels"/><tag k="toilets_po" v="seated"/><tag k="wc_guide_i" v="18220"/><tag k="Cluster_ID" v="1"/><tag k="xyz" v="1075_1328_11"/></node><node lat="47.040871" lon="9.070795"  id="-8"  changeset="false" ><tag k="id" v="19501"/><tag k="amenity" v="toilets"/><tag k="descriptio" v="Lift in den 1. Stock"/><tag k="municipali" v="Glarus"/><tag k="name" v="MIGROS Glarus"/><tag k="toilets_po" v="seated"/><tag k="wc_guide_i" v="19501"/><tag k="Cluster_ID" v="1"/><tag k="xyz" v="1075_1328_11"/></node><node lat="47.121727" lon="9.053423"  id="-9"  changeset="false" ><tag k="id" v="20118"/><tag k="amenity" v="toilets"/><tag k="municipali" v="Niederurnen"/><tag k="name" v="Friedhof"/><tag k="toilets_po" v="seated"/><tag k="wc_guide_i" v="20118"/><tag k="Cluster_ID" v="1"/><tag k="xyz" v="1075_1328_11"/></node><node lat="47.129578" lon="9.050961"  id="-10"  changeset="false" ><tag k="id" v="20304"/><tag k="amenity" v="toilets"/><tag k="municipali" v="Niederurnen"/><tag k="name" v="Avia Tankstelle"/><tag k="toilets_po" v="seated"/><tag k="wc_guide_i" v="20304"/><tag k="Cluster_ID" v="1"/><tag k="xyz" v="1075_1328_11"/></node><node lat="47.116783" lon="9.126345"  id="-11"  changeset="false" ><tag k="id" v="20617"/><tag k="amenity" v="toilets"/><tag k="municipali" v="Filzbach"/><tag k="name" v="Talstation Bergbahn Filzbach-Habergschw�nd"/><tag k="toilets_po" v="seated"/><tag k="wc_guide_i" v="20617"/><tag k="Cluster_ID" v="1"/><tag k="xyz" v="1075_1328_11"/></node></osm>