<?xml version="1.0" encoding="UTF-8"?><osm version="0.6" generator="https://github.com/Rub21/geojson2osm"><node lat="47.147888" lon="8.50992"  id="-1"  changeset="false" ><tag k="id" v="321"/><tag k="amenity" v="toilets"/><tag k="municipali" v="Oberwil"/><tag k="name" v="SBB"/><tag k="toilets_po" v="seated"/><tag k="wc_guide_i" v="321"/><tag k="Cluster_ID" v="37"/><tag k="xyz" v="1072_1328_11"/></node><node lat="47.14999" lon="8.507516"  id="-2"  changeset="false" ><tag k="id" v="322"/><tag k="amenity" v="toilets"/><tag k="municipali" v="Oberwil"/><tag k="name" v="beim Tellen�rtli"/><tag k="toilets_po" v="seated"/><tag k="wc_guide_i" v="322"/><tag k="Cluster_ID" v="37"/><tag k="xyz" v="1072_1328_11"/></node><node lat="47.144344" lon="8.533716"  id="-3"  changeset="false" ><tag k="id" v="336"/><tag k="amenity" v="toilets"/><tag k="municipali" v="Zug"/><tag k="name" v="Zugerbergbahn, Station Zugerberg"/><tag k="toilets_po" v="seated"/><tag k="wc_guide_i" v="336"/><tag k="Cluster_ID" v="37"/><tag k="xyz" v="1072_1328_11"/></node><node lat="47.084587" lon="8.57749"  id="-4"  changeset="false" ><tag k="id" v="1511"/><tag k="amenity" v="toilets"/><tag k="descriptio" v="Winterraum"/><tag k="municipali" v="Steinerberg"/><tag k="toilets_po" v="seated"/><tag k="wc_guide_i" v="1511"/><tag k="Cluster_ID" v="37"/><tag k="xyz" v="1072_1328_11"/></node><node lat="47.13509" lon="8.610578"  id="-5"  changeset="false" ><tag k="id" v="1626"/><tag k="amenity" v="toilets"/><tag k="municipali" v="Ober�geri"/><tag k="name" v="zvb"/><tag k="toilets_po" v="seated"/><tag k="wc_guide_i" v="1626"/><tag k="Cluster_ID" v="37"/><tag k="xyz" v="1072_1328_11"/></node><node lat="47.091995" lon="8.461704"  id="-6"  changeset="false" ><tag k="id" v="1678"/><tag k="amenity" v="toilets"/><tag k="municipali" v="immensee"/><tag k="name" v="bahnhof"/><tag k="toilets_po" v="seated"/><tag k="wc_guide_i" v="1678"/><tag k="Cluster_ID" v="37"/><tag k="xyz" v="1072_1328_11"/></node><node lat="47.049458" lon="8.612466"  id="-7"  changeset="false" ><tag k="id" v="2323"/><tag k="amenity" v="toilets"/><tag k="municipali" v="Steinen"/><tag k="name" v="In der n�he der Kantonalbank"/><tag k="toilets_po" v="seated"/><tag k="wc_guide_i" v="2323"/><tag k="Cluster_ID" v="6"/><tag k="xyz" v="1072_1328_11"/></node><node lat="47.080441" lon="8.441083"  id="-8"  changeset="false" ><tag k="id" v="2333"/><tag k="amenity" v="toilets"/><tag k="descriptio" v="Vis � vis vom Museum"/><tag k="municipali" v="K�ssnacht"/><tag k="name" v="Heimatmuseum"/><tag k="toilets_po" v="seated"/><tag k="wc_guide_i" v="2333"/><tag k="Cluster_ID" v="37"/><tag k="xyz" v="1072_1328_11"/></node><node lat="47.046383" lon="8.544236"  id="-9"  changeset="false" ><tag k="id" v="3362"/><tag k="amenity" v="toilets"/><tag k="descriptio" v="Parkplatz vor der Kirche Seite Kehlmattliweg ben�tzen. Danach ca. 80 Meter zum Friedhof WC laufen."/><tag k="municipali" v="Arth"/><tag k="name" v="Friedhof Goldau"/><tag k="toilets_po" v="seated"/><tag k="wc_guide_i" v="3362"/><tag k="Cluster_ID" v="37"/><tag k="xyz" v="1072_1328_11"/></node><node lat="47.138191" lon="8.588784"  id="-10"  changeset="false" ><tag k="id" v="3890"/><tag k="amenity" v="toilets"/><tag k="descriptio" v="Beim Parkplatz Theresienheim"/><tag k="municipali" v="Unter�geri"/><tag k="name" v="Schiffssteg"/><tag k="toilets_po" v="seated"/><tag k="wc_guide_i" v="3890"/><tag k="Cluster_ID" v="37"/><tag k="xyz" v="1072_1328_11"/></node><node lat="47.084972" lon="8.445832"  id="-11"  changeset="false" ><tag k="id" v="3987"/><tag k="amenity" v="toilets"/><tag k="municipali" v="K�ssnacht"/><tag k="name" v="Friedhof"/><tag k="toilets_po" v="seated"/><tag k="wc_guide_i" v="3987"/><tag k="Cluster_ID" v="37"/><tag k="xyz" v="1072_1328_11"/></node><node lat="47.088379" lon="8.603572"  id="-12"  changeset="false" ><tag k="id" v="4358"/><tag k="amenity" v="toilets"/><tag k="municipali" v="Sattel"/><tag k="name" v="Halsegg"/><tag k="toilets_po" v="seated"/><tag k="wc_guide_i" v="4358"/><tag k="website" v="https://halsegg.ch/"/><tag k="Cluster_ID" v="37"/><tag k="xyz" v="1072_1328_11"/></node><node lat="47.100456" lon="8.450884"  id="-13"  changeset="false" ><tag k="id" v="16389"/><tag k="amenity" v="toilets"/><tag k="municipali" v="K�ssnacht"/><tag k="name" v="Avia Tanke"/><tag k="toilets_po" v="seated"/><tag k="wc_guide_i" v="16389"/><tag k="Cluster_ID" v="37"/><tag k="xyz" v="1072_1328_11"/></node><node lat="47.099289" lon="8.516441"  id="-14"  changeset="false" ><tag k="id" v="16585"/><tag k="amenity" v="toilets"/><tag k="municipali" v="Walchwil"/><tag k="name" v="Beim Banhof"/><tag k="toilets_po" v="seated"/><tag k="wc_guide_i" v="16585"/><tag k="Cluster_ID" v="37"/><tag k="xyz" v="1072_1328_11"/></node><node lat="47.102482" lon="8.451259"  id="-15"  changeset="false" ><tag k="id" v="20153"/><tag k="amenity" v="toilets"/><tag k="descriptio" v="Bei der Kasse fragen"/><tag k="municipali" v="K�ssnacht"/><tag k="name" v="Coop Pronti"/><tag k="toilets_po" v="seated"/><tag k="wc_guide_i" v="20153"/><tag k="Cluster_ID" v="37"/><tag k="xyz" v="1072_1328_11"/></node><node lat="47.069355" lon="8.465871"  id="-16"  changeset="false" ><tag k="id" v="20182"/><tag k="amenity" v="toilets"/><tag k="municipali" v="K�ssnacht am Rigi"/><tag k="name" v="Seilbahnstation"/><tag k="toilets_po" v="seated"/><tag k="wc_guide_i" v="20182"/><tag k="Cluster_ID" v="37"/><tag k="xyz" v="1072_1328_11"/></node><node lat="47.13245" lon="8.592846"  id="-17"  changeset="false" ><tag k="id" v="20597"/><tag k="amenity" v="toilets"/><tag k="municipali" v="Unter�geri"/><tag k="name" v="Badi"/><tag k="toilets_po" v="seated"/><tag k="wc_guide_i" v="20597"/><tag k="Cluster_ID" v="37"/><tag k="xyz" v="1072_1328_11"/></node><node lat="47.109509" lon="8.60303"  id="-18"  changeset="false" ><tag k="id" v="20740"/><tag k="amenity" v="toilets"/><tag k="descriptio" v="Ist ein blaues Froxy,"/><tag k="municipali" v="Unter�geri"/><tag k="name" v="Rossalmig"/><tag k="toilets_po" v="seated"/><tag k="wc_guide_i" v="20740"/><tag k="Cluster_ID" v="37"/><tag k="xyz" v="1072_1328_11"/></node></osm>