<?xml version="1.0" encoding="UTF-8"?><osm version="0.6" generator="https://github.com/Rub21/geojson2osm"><node lat="47.403984" lon="9.301901"  id="-1"  changeset="false" ><tag k="id" v="1732"/><tag k="amenity" v="toilets"/><tag k="descriptio" v="versenkbare Pissoirs nur bei Fussballspielen"/><tag k="municipali" v="St. Gallen"/><tag k="name" v="Bahnsteig Nord Bahnhof Winkeln"/><tag k="toilets_po" v="urinal"/><tag k="wc_guide_i" v="1732"/><tag k="Cluster_ID" v="29"/><tag k="xyz" v="1076_1331_11"/></node><node lat="47.413086" lon="9.184452"  id="-2"  changeset="false" ><tag k="id" v="2020"/><tag k="amenity" v="toilets"/><tag k="municipali" v="Flawil"/><tag k="name" v="Spielplatz"/><tag k="toilets_po" v="seated"/><tag k="wc_guide_i" v="2020"/><tag k="Cluster_ID" v="3"/><tag k="xyz" v="1076_1331_11"/></node><node lat="47.408394" lon="9.306028"  id="-3"  changeset="false" ><tag k="id" v="2305"/><tag k="amenity" v="toilets"/><tag k="municipali" v="St. Gallen"/><tag k="name" v="Shopping Arena"/><tag k="toilets_po" v="seated"/><tag k="wc_guide_i" v="2305"/><tag k="website" v="https://shopping-arena.ch/"/><tag k="Cluster_ID" v="29"/><tag k="xyz" v="1076_1331_11"/></node><node lat="47.415401" lon="9.18935"  id="-4"  changeset="false" ><tag k="id" v="3989"/><tag k="amenity" v="toilets"/><tag k="municipali" v="Flawil"/><tag k="name" v="Migrolino"/><tag k="toilets_po" v="seated"/><tag k="wc_guide_i" v="3989"/><tag k="Cluster_ID" v="3"/><tag k="xyz" v="1076_1331_11"/></node><node lat="47.47966" lon="9.254415"  id="-5"  changeset="false" ><tag k="id" v="4285"/><tag k="amenity" v="toilets"/><tag k="descriptio" v="50 Rappen"/><tag k="municipali" v="Hauptwil"/><tag k="name" v="Feuerwehrdepot"/><tag k="toilets_po" v="seated"/><tag k="wc_guide_i" v="4285"/><tag k="Cluster_ID" v="29"/><tag k="xyz" v="1076_1331_11"/></node><node lat="47.493668" lon="9.237935"  id="-6"  changeset="false" ><tag k="id" v="4487"/><tag k="amenity" v="toilets"/><tag k="descriptio" v="Gegen�ber Kirche"/><tag k="municipali" v="Bischofszell"/><tag k="toilets_po" v="seated"/><tag k="wc_guide_i" v="4487"/><tag k="Cluster_ID" v="29"/><tag k="xyz" v="1076_1331_11"/></node><node lat="47.491955" lon="9.24113"  id="-7"  changeset="false" ><tag k="id" v="4488"/><tag k="amenity" v="toilets"/><tag k="descriptio" v="Immer Offen"/><tag k="municipali" v="Bischofszell"/><tag k="name" v="Bahnhof"/><tag k="toilets_po" v="seated"/><tag k="wc_guide_i" v="4488"/><tag k="Cluster_ID" v="29"/><tag k="xyz" v="1076_1331_11"/></node><node lat="47.461941" lon="9.266174"  id="-8"  changeset="false" ><tag k="id" v="16598"/><tag k="amenity" v="toilets"/><tag k="municipali" v="Ronwil"/><tag k="toilets_po" v="seated"/><tag k="wc_guide_i" v="16598"/><tag k="Cluster_ID" v="29"/><tag k="xyz" v="1076_1331_11"/></node><node lat="47.445461" lon="9.142931"  id="-9"  changeset="false" ><tag k="id" v="20531"/><tag k="amenity" v="toilets"/><tag k="municipali" v="Niederuzwil"/><tag k="toilets_po" v="seated"/><tag k="wc_guide_i" v="20531"/><tag k="Cluster_ID" v="3"/><tag k="xyz" v="1076_1331_11"/></node><node lat="47.413967" lon="9.256042"  id="-10"  changeset="false" ><tag k="id" v="20589"/><tag k="amenity" v="toilets"/><tag k="municipali" v="Gossau"/><tag k="toilets_po" v="seated"/><tag k="wc_guide_i" v="20589"/><tag k="Cluster_ID" v="29"/><tag k="xyz" v="1076_1331_11"/></node></osm>