<?xml version="1.0" encoding="UTF-8"?><osm version="0.6" generator="https://github.com/Rub21/geojson2osm"><node lat="46.967106" lon="7.376547"  id="-1"  changeset="false" ><tag k="id" v="3956"/><tag k="amenity" v="toilets"/><tag k="municipali" v="Wohlen bei Bern"/><tag k="name" v="Migros"/><tag k="toilets_po" v="seated"/><tag k="wc_guide_i" v="3956"/><tag k="Cluster_ID" v="0"/><tag k="xyz" v="1065_1327_11"/></node><node lat="46.941807" lon="7.23432"  id="-2"  changeset="false" ><tag k="id" v="16846"/><tag k="amenity" v="toilets"/><tag k="municipali" v="Ferenbalm"/><tag k="name" v="Bahnhof G�mmenen"/><tag k="toilets_po" v="seated"/><tag k="wc_guide_i" v="16846"/><tag k="Cluster_ID" v="4"/><tag k="xyz" v="1065_1327_11"/></node><node lat="47.033226" lon="7.313198"  id="-3"  changeset="false" ><tag k="id" v="16847"/><tag k="amenity" v="toilets"/><tag k="municipali" v="Seedorf (BE)"/><tag k="name" v="Postautohaltestelle"/><tag k="toilets_po" v="seated"/><tag k="wc_guide_i" v="16847"/><tag k="Cluster_ID" v="11"/><tag k="xyz" v="1065_1327_11"/></node></osm>