<?xml version="1.0" encoding="UTF-8"?><osm version="0.6" generator="https://github.com/Rub21/geojson2osm"><node lat="47.670006" lon="9.085703"  id="-1"  changeset="false" ><tag k="id" v="1234"/><tag k="amenity" v="toilets"/><tag k="municipali" v="Ermatingen"/><tag k="name" v="Bahnhof"/><tag k="toilets_po" v="seated"/><tag k="wc_guide_i" v="1234"/><tag k="Cluster_ID" v="8"/><tag k="xyz" v="1075_1333_11"/></node><node lat="47.659645" lon="9.132986"  id="-2"  changeset="false" ><tag k="id" v="1768"/><tag k="amenity" v="toilets"/><tag k="municipali" v="T�gerwilen"/><tag k="name" v="Bahnhof T�gerwilen Gottlieben"/><tag k="toilets_po" v="seated"/><tag k="wc_guide_i" v="1768"/><tag k="Cluster_ID" v="8"/><tag k="xyz" v="1075_1333_11"/></node><node lat="47.667034" lon="8.984585"  id="-3"  changeset="false" ><tag k="id" v="4089"/><tag k="amenity" v="toilets"/><tag k="municipali" v="Steckborn"/><tag k="name" v="Friedhof"/><tag k="toilets_po" v="seated"/><tag k="wc_guide_i" v="4089"/><tag k="Cluster_ID" v="42"/><tag k="xyz" v="1075_1333_11"/></node><node lat="47.66948" lon="9.07082"  id="-4"  changeset="false" ><tag k="id" v="21203"/><tag k="amenity" v="toilets"/><tag k="municipali" v="Ermatingen"/><tag k="name" v="Friedhof Ermatingen"/><tag k="toilets_po" v="seated"/><tag k="wc_guide_i" v="21203"/><tag k="Cluster_ID" v="8"/><tag k="xyz" v="1075_1333_11"/></node></osm>