<?xml version="1.0" encoding="UTF-8"?><osm version="0.6" generator="https://github.com/Rub21/geojson2osm"><node lat="47.277946" lon="9.005914"  id="-1"  changeset="false" ><tag k="id" v="1173"/><tag k="amenity" v="toilets"/><tag k="municipali" v="St. Gallenkappel"/><tag k="name" v="Atzm�nnig"/><tag k="toilets_po" v="seated"/><tag k="wc_guide_i" v="1173"/><tag k="Cluster_ID" v="20"/><tag k="xyz" v="1075_1329_11"/></node><node lat="47.258633" lon="9.127192"  id="-2"  changeset="false" ><tag k="id" v="1720"/><tag k="amenity" v="toilets"/><tag k="municipali" v="Ebnat-Kappel"/><tag k="name" v="Kronenbr�cke"/><tag k="toilets_po" v="seated"/><tag k="wc_guide_i" v="1720"/><tag k="Cluster_ID" v="20"/><tag k="xyz" v="1075_1329_11"/></node><node lat="47.217861" lon="9.022608"  id="-3"  changeset="false" ><tag k="id" v="3195"/><tag k="amenity" v="toilets"/><tag k="municipali" v="Kaltbrunn"/><tag k="name" v="Bahnhof Kaltbrunn"/><tag k="toilets_po" v="seated"/><tag k="wc_guide_i" v="3195"/><tag k="Cluster_ID" v="20"/><tag k="xyz" v="1075_1329_11"/></node><node lat="47.244987" lon="8.96685"  id="-4"  changeset="false" ><tag k="id" v="4630"/><tag k="amenity" v="toilets"/><tag k="municipali" v="Sankt Gallenkappel"/><tag k="name" v="Spielplatz"/><tag k="toilets_po" v="seated"/><tag k="wc_guide_i" v="4630"/><tag k="Cluster_ID" v="20"/><tag k="xyz" v="1075_1329_11"/></node><node lat="47.167542" lon="8.979127"  id="-5"  changeset="false" ><tag k="id" v="16686"/><tag k="amenity" v="toilets"/><tag k="descriptio" v="1. Stock, Links, Damen-   Herrentoilette"/><tag k="municipali" v="Reichenburg"/><tag k="name" v="Hirzli Park Reichenburg"/><tag k="toilets_po" v="seated"/><tag k="wc_guide_i" v="16686"/><tag k="Cluster_ID" v="20"/><tag k="xyz" v="1075_1329_11"/></node><node lat="47.263" lon="9.125046"  id="-6"  changeset="false" ><tag k="id" v="19325"/><tag k="amenity" v="toilets"/><tag k="municipali" v="Ebnat-Kappel"/><tag k="name" v="Friedhof Ebnat"/><tag k="toilets_po" v="seated"/><tag k="wc_guide_i" v="19325"/><tag k="Cluster_ID" v="1"/><tag k="xyz" v="1075_1329_11"/></node><node lat="47.160126" lon="9.045869"  id="-7"  changeset="false" ><tag k="id" v="19341"/><tag k="amenity" v="toilets"/><tag k="municipali" v="Sch�nis"/><tag k="name" v="Bei Kirche"/><tag k="toilets_po" v="seated"/><tag k="wc_guide_i" v="19341"/><tag k="Cluster_ID" v="1"/><tag k="xyz" v="1075_1329_11"/></node><node lat="47.161358" lon="9.04202"  id="-8"  changeset="false" ><tag k="id" v="19342"/><tag k="amenity" v="toilets"/><tag k="municipali" v="Sch�nis"/><tag k="name" v="ToiToi"/><tag k="toilets_po" v="seated"/><tag k="wc_guide_i" v="19342"/><tag k="Cluster_ID" v="1"/><tag k="xyz" v="1075_1329_11"/></node><node lat="47.262451" lon="9.127358"  id="-9"  changeset="false" ><tag k="id" v="19801"/><tag k="amenity" v="toilets"/><tag k="municipali" v="Ebnat-Kappel"/><tag k="name" v="Friedhof Ebnat Steinfelsstrasse Ebnat-Kappel"/><tag k="toilets_po" v="seated"/><tag k="wc_guide_i" v="19801"/><tag k="Cluster_ID" v="1"/><tag k="xyz" v="1075_1329_11"/></node></osm>