<?xml version="1.0" encoding="UTF-8"?><osm version="0.6" generator="https://github.com/Rub21/geojson2osm"><node lat="47.011337" lon="8.644451"  id="-1"  changeset="false" ><tag k="id" v="1322"/><tag k="amenity" v="toilets"/><tag k="descriptio" v="Bei der Bruecke"/><tag k="municipali" v="Ibach"/><tag k="name" v="Muotabruecke"/><tag k="toilets_po" v="seated"/><tag k="wc_guide_i" v="1322"/><tag k="Cluster_ID" v="6"/><tag k="xyz" v="1073_1327_11"/></node><node lat="46.977085" lon="8.760014"  id="-2"  changeset="false" ><tag k="id" v="3420"/><tag k="amenity" v="toilets"/><tag k="municipali" v="Muotathal"/><tag k="name" v="WC Bogen"/><tag k="toilets_po" v="seated"/><tag k="wc_guide_i" v="3420"/><tag k="Cluster_ID" v="6"/><tag k="xyz" v="1073_1327_11"/></node><node lat="47.017418" lon="8.658592"  id="-3"  changeset="false" ><tag k="id" v="3442"/><tag k="amenity" v="toilets"/><tag k="municipali" v="Schwyz"/><tag k="name" v="Friedhof"/><tag k="toilets_po" v="seated"/><tag k="wc_guide_i" v="3442"/><tag k="Cluster_ID" v="6"/><tag k="xyz" v="1073_1327_11"/></node><node lat="47.020908" lon="8.655045"  id="-4"  changeset="false" ><tag k="id" v="3443"/><tag k="amenity" v="toilets"/><tag k="municipali" v="Schwyz"/><tag k="name" v="Parkhaus"/><tag k="toilets_po" v="seated"/><tag k="wc_guide_i" v="3443"/><tag k="Cluster_ID" v="6"/><tag k="xyz" v="1073_1327_11"/></node><node lat="46.999317" lon="8.617077"  id="-5"  changeset="false" ><tag k="id" v="3608"/><tag k="amenity" v="toilets"/><tag k="municipali" v="Ingenbohl"/><tag k="name" v="Bei der Krypta"/><tag k="toilets_po" v="seated"/><tag k="wc_guide_i" v="3608"/><tag k="Cluster_ID" v="6"/><tag k="xyz" v="1073_1327_11"/></node><node lat="46.98745" lon="8.723896"  id="-6"  changeset="false" ><tag k="id" v="3720"/><tag k="amenity" v="toilets"/><tag k="municipali" v="Illgau"/><tag k="name" v="Das Haus Vis A Vis Von Einem Bankautomaten"/><tag k="toilets_po" v="seated"/><tag k="wc_guide_i" v="3720"/><tag k="Cluster_ID" v="6"/><tag k="xyz" v="1073_1327_11"/></node><node lat="46.979992" lon="8.615165"  id="-7"  changeset="false" ><tag k="id" v="3973"/><tag k="amenity" v="toilets"/><tag k="municipali" v="Morschach"/><tag k="name" v="Beim Spielplatz"/><tag k="toilets_po" v="seated"/><tag k="wc_guide_i" v="3973"/><tag k="Cluster_ID" v="6"/><tag k="xyz" v="1073_1327_11"/></node><node lat="46.981834" lon="8.615527"  id="-8"  changeset="false" ><tag k="id" v="4681"/><tag k="amenity" v="toilets"/><tag k="municipali" v="Morschach"/><tag k="name" v="Wald Spielplatz Swiss Holidaypark"/><tag k="toilets_po" v="seated"/><tag k="wc_guide_i" v="4681"/><tag k="Cluster_ID" v="6"/><tag k="xyz" v="1073_1327_11"/></node><node lat="46.977074" lon="8.666379"  id="-9"  changeset="false" ><tag k="id" v="19810"/><tag k="amenity" v="toilets"/><tag k="municipali" v="Stoos SZ"/><tag k="name" v="Skilift Sternegg"/><tag k="toilets_po" v="seated"/><tag k="wc_guide_i" v="19810"/><tag k="Cluster_ID" v="6"/><tag k="xyz" v="1073_1327_11"/></node><node lat="46.990211" lon="8.638728"  id="-10"  changeset="false" ><tag k="id" v="19811"/><tag k="amenity" v="toilets"/><tag k="municipali" v="Morschach"/><tag k="name" v="Lufseilbahn Morschach-Stoos"/><tag k="toilets_po" v="seated"/><tag k="wc_guide_i" v="19811"/><tag k="Cluster_ID" v="6"/><tag k="xyz" v="1073_1327_11"/></node><node lat="47.020916" lon="8.649506"  id="-11"  changeset="false" ><tag k="id" v="19952"/><tag k="amenity" v="toilets"/><tag k="municipali" v="Schwyz"/><tag k="name" v="Steisteg bei Feuerwehrlokal"/><tag k="toilets_po" v="seated"/><tag k="wc_guide_i" v="19952"/><tag k="Cluster_ID" v="6"/><tag k="xyz" v="1073_1327_11"/></node><node lat="46.980579" lon="8.663102"  id="-12"  changeset="false" ><tag k="id" v="20097"/><tag k="amenity" v="toilets"/><tag k="municipali" v="Stoos SZ"/><tag k="name" v="Sesselbahn Fronalpstock"/><tag k="toilets_po" v="seated"/><tag k="wc_guide_i" v="20097"/><tag k="Cluster_ID" v="6"/><tag k="xyz" v="1073_1327_11"/></node><node lat="46.98217" lon="8.664336"  id="-13"  changeset="false" ><tag k="id" v="20100"/><tag k="amenity" v="toilets"/><tag k="municipali" v="Stoos SZ"/><tag k="name" v="Luftseilbahn Bergstation"/><tag k="toilets_po" v="seated"/><tag k="wc_guide_i" v="20100"/><tag k="Cluster_ID" v="6"/><tag k="xyz" v="1073_1327_11"/></node><node lat="46.998436" lon="8.631061"  id="-14"  changeset="false" ><tag k="id" v="20129"/><tag k="amenity" v="toilets"/><tag k="municipali" v="Brunnen"/><tag k="name" v="Wendelskappelle"/><tag k="toilets_po" v="seated"/><tag k="wc_guide_i" v="20129"/><tag k="Cluster_ID" v="6"/><tag k="xyz" v="1073_1327_11"/></node></osm>