<?xml version="1.0" encoding="UTF-8"?><osm version="0.6" generator="https://github.com/Rub21/geojson2osm"><node lat="47.167973" lon="9.478218"  id="-1"  changeset="false" ><tag k="id" v="572"/><tag k="amenity" v="toilets"/><tag k="municipali" v="Buchs SG"/><tag k="name" v="Bahnhof SBB"/><tag k="toilets_po" v="seated"/><tag k="wc_guide_i" v="572"/><tag k="Cluster_ID" v="2"/><tag k="xyz" v="1077_1329_11"/></node><node lat="47.169556" lon="9.474163"  id="-2"  changeset="false" ><tag k="id" v="1192"/><tag k="amenity" v="toilets"/><tag k="municipali" v="Buchs"/><tag k="name" v="Marktplatz"/><tag k="toilets_po" v="seated"/><tag k="wc_guide_i" v="1192"/><tag k="Cluster_ID" v="2"/><tag k="xyz" v="1077_1329_11"/></node><node lat="47.163895" lon="9.473648"  id="-3"  changeset="false" ><tag k="id" v="1294"/><tag k="amenity" v="toilets"/><tag k="municipali" v="Buchs"/><tag k="name" v="Migros Buchs"/><tag k="toilets_po" v="seated"/><tag k="wc_guide_i" v="1294"/><tag k="Cluster_ID" v="2"/><tag k="xyz" v="1077_1329_11"/></node><node lat="47.210209" lon="9.491844"  id="-4"  changeset="false" ><tag k="id" v="2228"/><tag k="amenity" v="toilets"/><tag k="descriptio" v="Im 1. Stock , lift"/><tag k="municipali" v="Haag"/><tag k="name" v="Dennerkomplex"/><tag k="toilets_po" v="seated"/><tag k="wc_guide_i" v="2228"/><tag k="Cluster_ID" v="2"/><tag k="xyz" v="1077_1329_11"/></node><node lat="47.209072" lon="9.489613"  id="-5"  changeset="false" ><tag k="id" v="3831"/><tag k="amenity" v="toilets"/><tag k="municipali" v="Haag"/><tag k="name" v="Haag Center"/><tag k="toilets_po" v="seated"/><tag k="wc_guide_i" v="3831"/><tag k="website" v="https://www.einkaufszentrum-haag.ch/"/><tag k="Cluster_ID" v="2"/><tag k="xyz" v="1077_1329_11"/></node><node lat="47.165695" lon="9.470864"  id="-6"  changeset="false" ><tag k="id" v="3983"/><tag k="amenity" v="toilets"/><tag k="municipali" v="Buchs"/><tag k="name" v="Rathaus"/><tag k="toilets_po" v="seated"/><tag k="wc_guide_i" v="3983"/><tag k="Cluster_ID" v="2"/><tag k="xyz" v="1077_1329_11"/></node><node lat="47.16394" lon="9.470944"  id="-7"  changeset="false" ><tag k="id" v="3984"/><tag k="amenity" v="toilets"/><tag k="municipali" v="Buchs"/><tag k="name" v="Kath. Pfarreiheim"/><tag k="toilets_po" v="seated"/><tag k="wc_guide_i" v="3984"/><tag k="Cluster_ID" v="2"/><tag k="xyz" v="1077_1329_11"/></node><node lat="47.199081" lon="9.341877"  id="-8"  changeset="false" ><tag k="id" v="4587"/><tag k="amenity" v="toilets"/><tag k="municipali" v="Wildhaus"/><tag k="name" v="Wildhaus Bergbahnen"/><tag k="toilets_po" v="seated"/><tag k="wc_guide_i" v="4587"/><tag k="Cluster_ID" v="2"/><tag k="xyz" v="1077_1329_11"/></node><node lat="47.203472" lon="9.442891"  id="-9"  changeset="false" ><tag k="id" v="19120"/><tag k="amenity" v="toilets"/><tag k="descriptio" v="�ffentl. WC zwischen Post"/><tag k="municipali" v="Gams"/><tag k="toilets_po" v="seated"/><tag k="wc_guide_i" v="19120"/><tag k="Cluster_ID" v="2"/><tag k="xyz" v="1077_1329_11"/></node><node lat="47.203941" lon="9.441916"  id="-10"  changeset="false" ><tag k="id" v="21006"/><tag k="amenity" v="toilets"/><tag k="municipali" v="Gams"/><tag k="name" v="Offendliches Wc"/><tag k="toilets_po" v="seated"/><tag k="wc_guide_i" v="21006"/><tag k="Cluster_ID" v="2"/><tag k="xyz" v="1077_1329_11"/></node></osm>