<?xml version="1.0" encoding="UTF-8"?><osm version="0.6" generator="https://github.com/Rub21/geojson2osm"><node lat="46.555252" lon="8.566868"  id="-1"  changeset="false" ><tag k="id" v="990"/><tag k="amenity" v="toilets"/><tag k="municipali" v="Gotthard"/><tag k="name" v="Pa�museum"/><tag k="toilets_po" v="seated"/><tag k="wc_guide_i" v="990"/><tag k="website" v="https://passosangottardo.ch/"/><tag k="Cluster_ID" v="49"/><tag k="xyz" v="1072_1323_11"/></node><node lat="46.534935" lon="8.575382"  id="-2"  changeset="false" ><tag k="id" v="16454"/><tag k="amenity" v="toilets"/><tag k="municipali" v="Airolo"/><tag k="name" v="Aussichtsterasse"/><tag k="toilets_po" v="seated"/><tag k="wc_guide_i" v="16454"/><tag k="Cluster_ID" v="49"/><tag k="xyz" v="1072_1323_11"/></node><node lat="46.527607" lon="8.608091"  id="-3"  changeset="false" ><tag k="id" v="18876"/><tag k="amenity" v="toilets"/><tag k="descriptio" v="Airolo Bahnhof"/><tag k="municipali" v="Airolo"/><tag k="name" v="Airolo"/><tag k="toilets_po" v="seated"/><tag k="wc_guide_i" v="18876"/><tag k="Cluster_ID" v="49"/><tag k="xyz" v="1072_1323_11"/></node></osm>