<?xml version="1.0" encoding="UTF-8"?><osm version="0.6" generator="https://github.com/Rub21/geojson2osm"><node lat="47.080132" lon="7.511322"  id="-1"  changeset="false" ><tag k="id" v="795"/><tag k="amenity" v="toilets"/><tag k="municipali" v="Grafenried"/><tag k="toilets_po" v="seated"/><tag k="wc_guide_i" v="795"/><tag k="Cluster_ID" v="0"/><tag k="xyz" v="1066_1328_11"/></node><node lat="47.058041" lon="7.549379"  id="-2"  changeset="false" ><tag k="id" v="1846"/><tag k="amenity" v="toilets"/><tag k="municipali" v="Kernenried"/><tag k="name" v="Rastplatz Hurst"/><tag k="toilets_po" v="seated"/><tag k="wc_guide_i" v="1846"/><tag k="Cluster_ID" v="0"/><tag k="xyz" v="1066_1328_11"/></node><node lat="47.135849" lon="7.550067"  id="-3"  changeset="false" ><tag k="id" v="2431"/><tag k="amenity" v="toilets"/><tag k="municipali" v="Utzenstorf"/><tag k="name" v="Schloss Landshut"/><tag k="toilets_po" v="seated"/><tag k="wc_guide_i" v="2431"/><tag k="website" v="https://www.schlosslandshut.ch/"/><tag k="Cluster_ID" v="34"/><tag k="xyz" v="1066_1328_11"/></node><node lat="47.129208" lon="7.553701"  id="-4"  changeset="false" ><tag k="id" v="2920"/><tag k="amenity" v="toilets"/><tag k="municipali" v="Utzenstorf"/><tag k="toilets_po" v="seated"/><tag k="wc_guide_i" v="2920"/><tag k="Cluster_ID" v="34"/><tag k="xyz" v="1066_1328_11"/></node><node lat="47.091614" lon="7.449112"  id="-5"  changeset="false" ><tag k="id" v="3952"/><tag k="amenity" v="toilets"/><tag k="municipali" v="Messen"/><tag k="name" v="gemeindehaus"/><tag k="toilets_po" v="seated"/><tag k="wc_guide_i" v="3952"/><tag k="Cluster_ID" v="11"/><tag k="xyz" v="1066_1328_11"/></node><node lat="47.052876" lon="7.512637"  id="-6"  changeset="false" ><tag k="id" v="18863"/><tag k="amenity" v="toilets"/><tag k="municipali" v="Jegenstorf"/><tag k="name" v="Friedhof"/><tag k="toilets_po" v="seated"/><tag k="wc_guide_i" v="18863"/><tag k="Cluster_ID" v="34"/><tag k="xyz" v="1066_1328_11"/></node><node lat="47.085758" lon="7.530011"  id="-7"  changeset="false" ><tag k="id" v="20793"/><tag k="amenity" v="toilets"/><tag k="municipali" v="Fraubrunnen"/><tag k="name" v="Bahnhof"/><tag k="toilets_po" v="seated"/><tag k="wc_guide_i" v="20793"/><tag k="Cluster_ID" v="34"/><tag k="xyz" v="1066_1328_11"/></node></osm>