<?xml version="1.0" encoding="UTF-8"?><osm version="0.6" generator="https://github.com/Rub21/geojson2osm"><node lat="46.625919" lon="7.05996"  id="-1"  changeset="false" ><tag k="id" v="3736"/><tag k="amenity" v="toilets"/><tag k="municipali" v="Bulle"/><tag k="name" v="centre coop"/><tag k="toilets_po" v="seated"/><tag k="wc_guide_i" v="3736"/><tag k="Cluster_ID" v="39"/><tag k="xyz" v="1064_1324_11"/></node><node lat="46.624001" lon="7.057774"  id="-2"  changeset="false" ><tag k="id" v="3737"/><tag k="amenity" v="toilets"/><tag k="municipali" v="Bulle"/><tag k="name" v="migros Gruy�re-centre"/><tag k="toilets_po" v="seated"/><tag k="wc_guide_i" v="3737"/><tag k="Cluster_ID" v="39"/><tag k="xyz" v="1064_1324_11"/></node><node lat="46.63343" lon="7.049109"  id="-3"  changeset="false" ><tag k="id" v="3738"/><tag k="amenity" v="toilets"/><tag k="municipali" v="Bulle"/><tag k="name" v="station essence coop pronto"/><tag k="toilets_po" v="seated"/><tag k="wc_guide_i" v="3738"/><tag k="Cluster_ID" v="39"/><tag k="xyz" v="1064_1324_11"/></node><node lat="46.618015" lon="7.054792"  id="-4"  changeset="false" ><tag k="id" v="4289"/><tag k="amenity" v="toilets"/><tag k="municipali" v="Bulle"/><tag k="name" v="Gare de Bulle"/><tag k="toilets_po" v="seated"/><tag k="wc_guide_i" v="4289"/><tag k="Cluster_ID" v="39"/><tag k="xyz" v="1064_1324_11"/></node><node lat="46.608902" lon="7.066892"  id="-5"  changeset="false" ><tag k="id" v="19139"/><tag k="amenity" v="toilets"/><tag k="municipali" v="Bulle"/><tag k="name" v="Centre Paroissiale"/><tag k="toilets_po" v="seated"/><tag k="wc_guide_i" v="19139"/><tag k="Cluster_ID" v="39"/><tag k="xyz" v="1064_1324_11"/></node><node lat="46.603535" lon="7.100158"  id="-6"  changeset="false" ><tag k="id" v="19140"/><tag k="amenity" v="toilets"/><tag k="municipali" v="Broc"/><tag k="name" v="Devant La Laiterie"/><tag k="toilets_po" v="seated"/><tag k="wc_guide_i" v="19140"/><tag k="Cluster_ID" v="39"/><tag k="xyz" v="1064_1324_11"/></node><node lat="46.600517" lon="7.075924"  id="-7"  changeset="false" ><tag k="id" v="19431"/><tag k="amenity" v="toilets"/><tag k="municipali" v="La Tour-de-Tr�me"/><tag k="name" v="Migros La Tour"/><tag k="toilets_po" v="seated"/><tag k="wc_guide_i" v="19431"/><tag k="Cluster_ID" v="39"/><tag k="xyz" v="1064_1324_11"/></node></osm>