<?xml version="1.0" encoding="UTF-8"?><osm version="0.6" generator="https://github.com/Rub21/geojson2osm"><node lat="46.316013" lon="7.9886"  id="-1"  changeset="false" ><tag k="id" v="1229"/><tag k="amenity" v="toilets"/><tag k="municipali" v="Brig-Glis"/><tag k="name" v="Parkhaus Weri"/><tag k="toilets_po" v="seated"/><tag k="wc_guide_i" v="1229"/><tag k="Cluster_ID" v="9"/><tag k="xyz" v="1069_1321_11"/></node><node lat="46.306389" lon="7.960148"  id="-2"  changeset="false" ><tag k="id" v="3521"/><tag k="amenity" v="toilets"/><tag k="municipali" v="Brig-Glis"/><tag k="name" v="Coop Pronto"/><tag k="toilets_po" v="seated"/><tag k="wc_guide_i" v="3521"/><tag k="Cluster_ID" v="9"/><tag k="xyz" v="1069_1321_11"/></node><node lat="46.282429" lon="8.052335"  id="-3"  changeset="false" ><tag k="id" v="4156"/><tag k="amenity" v="toilets"/><tag k="municipali" v="Ried-Brig"/><tag k="name" v="Berggasthaus Wasenalp"/><tag k="toilets_po" v="seated"/><tag k="wc_guide_i" v="4156"/><tag k="Cluster_ID" v="9"/><tag k="xyz" v="1069_1321_11"/></node><node lat="46.278927" lon="8.038216"  id="-4"  changeset="false" ><tag k="id" v="4157"/><tag k="amenity" v="toilets"/><tag k="municipali" v="Ried-Brig"/><tag k="name" v="Rothwald Schutzhaus"/><tag k="toilets_po" v="seated"/><tag k="wc_guide_i" v="4157"/><tag k="Cluster_ID" v="9"/><tag k="xyz" v="1069_1321_11"/></node></osm>