<?xml version="1.0" encoding="UTF-8"?><osm version="0.6" generator="https://github.com/Rub21/geojson2osm"><node lat="47.327332" lon="8.79986"  id="-1"  changeset="false" ><tag k="id" v="1868"/><tag k="amenity" v="toilets"/><tag k="municipali" v="Wetzikon"/><tag k="name" v="Einkaufszentrum"/><tag k="toilets_po" v="seated"/><tag k="wc_guide_i" v="1868"/><tag k="Cluster_ID" v="20"/><tag k="xyz" v="1074_1330_11"/></node><node lat="47.302341" lon="8.836613"  id="-2"  changeset="false" ><tag k="id" v="3302"/><tag k="amenity" v="toilets"/><tag k="municipali" v="Hinwil"/><tag k="toilets_po" v="seated"/><tag k="wc_guide_i" v="3302"/><tag k="Cluster_ID" v="20"/><tag k="xyz" v="1074_1330_11"/></node><node lat="47.325699" lon="8.797857"  id="-3"  changeset="false" ><tag k="id" v="18215"/><tag k="amenity" v="toilets"/><tag k="municipali" v="Wetzikon (ZH)"/><tag k="name" v="Coop Kirchgasse"/><tag k="toilets_po" v="seated"/><tag k="wc_guide_i" v="18215"/><tag k="Cluster_ID" v="40"/><tag k="xyz" v="1074_1330_11"/></node><node lat="47.299805" lon="8.850773"  id="-4"  changeset="false" ><tag k="id" v="18344"/><tag k="amenity" v="toilets"/><tag k="municipali" v="Hinwil"/><tag k="name" v="Friedhof"/><tag k="toilets_po" v="seated"/><tag k="wc_guide_i" v="18344"/><tag k="Cluster_ID" v="20"/><tag k="xyz" v="1074_1330_11"/></node><node lat="47.384735" lon="8.915435"  id="-5"  changeset="false" ><tag k="id" v="18471"/><tag k="amenity" v="toilets"/><tag k="municipali" v="Sternenberg"/><tag k="name" v="Feuerwehrgeb�ude"/><tag k="toilets_po" v="seated"/><tag k="wc_guide_i" v="18471"/><tag k="Cluster_ID" v="40"/><tag k="xyz" v="1074_1330_11"/></node><node lat="47.313904" lon="8.915624"  id="-6"  changeset="false" ><tag k="id" v="20407"/><tag k="amenity" v="toilets"/><tag k="descriptio" v="R�ckseite Bahnhof/Rampe"/><tag k="municipali" v="Gibswil-Ried"/><tag k="name" v="Bahnhof"/><tag k="toilets_po" v="seated"/><tag k="wc_guide_i" v="20407"/><tag k="Cluster_ID" v="20"/><tag k="xyz" v="1074_1330_11"/></node></osm>