<?xml version="1.0" encoding="UTF-8"?><osm version="0.6" generator="https://github.com/Rub21/geojson2osm"><node lat="47.18605" lon="7.70368"  id="-1"  changeset="false" ><tag k="id" v="953"/><tag k="amenity" v="toilets"/><tag k="municipali" v="Herzogenbuchsee"/><tag k="toilets_po" v="seated"/><tag k="wc_guide_i" v="953"/><tag k="Cluster_ID" v="34"/><tag k="xyz" v="1067_1329_11"/></node><node lat="47.201355" lon="7.56899"  id="-2"  changeset="false" ><tag k="id" v="3675"/><tag k="amenity" v="toilets"/><tag k="municipali" v="Zuchwil"/><tag k="name" v="Einkaufscenter Birchi Center"/><tag k="toilets_po" v="seated"/><tag k="wc_guide_i" v="3675"/><tag k="website" v="https://www.birchicenter.ch"/><tag k="Cluster_ID" v="34"/><tag k="xyz" v="1067_1329_11"/></node><node lat="47.183613" lon="7.558808"  id="-3"  changeset="false" ><tag k="id" v="4236"/><tag k="amenity" v="toilets"/><tag k="municipali" v="Biberist"/><tag k="name" v="Friedhof"/><tag k="toilets_po" v="seated"/><tag k="wc_guide_i" v="4236"/><tag k="Cluster_ID" v="34"/><tag k="xyz" v="1067_1329_11"/></node><node lat="47.212742" lon="7.582328"  id="-4"  changeset="false" ><tag k="id" v="18201"/><tag k="amenity" v="toilets"/><tag k="municipali" v="Wasseramt"/><tag k="name" v="Friedhof"/><tag k="toilets_po" v="seated"/><tag k="wc_guide_i" v="18201"/><tag k="Cluster_ID" v="34"/><tag k="xyz" v="1067_1329_11"/></node><node lat="47.181313" lon="7.660924"  id="-5"  changeset="false" ><tag k="id" v="18315"/><tag k="amenity" v="toilets"/><tag k="municipali" v="Aeschi (SO)"/><tag k="name" v="Hinter der Kirche"/><tag k="toilets_po" v="seated"/><tag k="wc_guide_i" v="18315"/><tag k="Cluster_ID" v="34"/><tag k="xyz" v="1067_1329_11"/></node><node lat="47.188007" lon="7.701853"  id="-6"  changeset="false" ><tag k="id" v="18382"/><tag k="amenity" v="toilets"/><tag k="municipali" v="Herzogenbuchsee"/><tag k="name" v="Bahnhof Herzogenbuchsee"/><tag k="toilets_po" v="seated"/><tag k="wc_guide_i" v="18382"/><tag k="Cluster_ID" v="34"/><tag k="xyz" v="1067_1329_11"/></node><node lat="47.263824" lon="7.599645"  id="-7"  changeset="false" ><tag k="id" v="19094"/><tag k="amenity" v="toilets"/><tag k="municipali" v="Attiswil"/><tag k="name" v="Toitoi Reckenacher"/><tag k="toilets_po" v="urinal"/><tag k="wc_guide_i" v="19094"/><tag k="Cluster_ID" v="34"/><tag k="xyz" v="1067_1329_11"/></node><node lat="47.245956" lon="7.610781"  id="-8"  changeset="false" ><tag k="id" v="19096"/><tag k="amenity" v="toilets"/><tag k="municipali" v="Attiswil"/><tag k="name" v="Bistro"/><tag k="toilets_po" v="seated"/><tag k="wc_guide_i" v="19096"/><tag k="website" v="https://www.margots-l�deli.ch/bistro"/><tag k="Cluster_ID" v="34"/><tag k="xyz" v="1067_1329_11"/></node><node lat="47.180637" lon="7.566108"  id="-9"  changeset="false" ><tag k="id" v="19202"/><tag k="amenity" v="toilets"/><tag k="descriptio" v="Nur ge�ffnet wenn Bahnschalter bedient ist."/><tag k="municipali" v="Biberist"/><tag k="name" v="Bahnhof"/><tag k="toilets_po" v="seated"/><tag k="wc_guide_i" v="19202"/><tag k="Cluster_ID" v="34"/><tag k="xyz" v="1067_1329_11"/></node></osm>