<?xml version="1.0" encoding="UTF-8"?><osm version="0.6" generator="https://github.com/Rub21/geojson2osm"><node lat="47.393639" lon="7.609098"  id="-1"  changeset="false" ><tag k="id" v="4386"/><tag k="amenity" v="toilets"/><tag k="municipali" v="Nunningen"/><tag k="name" v="Pfarramt"/><tag k="toilets_po" v="seated"/><tag k="wc_guide_i" v="4386"/><tag k="Cluster_ID" v="41"/><tag k="xyz" v="1067_1330_11"/></node><node lat="47.316032" lon="7.651612"  id="-2"  changeset="false" ><tag k="id" v="16754"/><tag k="amenity" v="toilets"/><tag k="municipali" v="Laupersdorf"/><tag k="name" v="Friedhof"/><tag k="toilets_po" v="seated"/><tag k="wc_guide_i" v="16754"/><tag k="Cluster_ID" v="46"/><tag k="xyz" v="1067_1330_11"/></node><node lat="47.388676" lon="7.676218"  id="-3"  changeset="false" ><tag k="id" v="16812"/><tag k="amenity" v="toilets"/><tag k="municipali" v="Lauwil"/><tag k="name" v="Gemeindeverwaltung Lauwil"/><tag k="toilets_po" v="seated"/><tag k="wc_guide_i" v="16812"/><tag k="Cluster_ID" v="46"/><tag k="xyz" v="1067_1330_11"/></node><node lat="47.396839" lon="7.693078"  id="-4"  changeset="false" ><tag k="id" v="19494"/><tag k="amenity" v="toilets"/><tag k="municipali" v="Reigoldswil"/><tag k="name" v="Friedhof"/><tag k="toilets_po" v="seated"/><tag k="wc_guide_i" v="19494"/><tag k="Cluster_ID" v="46"/><tag k="xyz" v="1067_1330_11"/></node><node lat="47.304688" lon="7.606854"  id="-5"  changeset="false" ><tag k="id" v="19654"/><tag k="amenity" v="toilets"/><tag k="descriptio" v="Bei Friedhofhaus"/><tag k="municipali" v="Aedermannsdorf"/><tag k="name" v="Kirche"/><tag k="toilets_po" v="seated"/><tag k="wc_guide_i" v="19654"/><tag k="Cluster_ID" v="34"/><tag k="xyz" v="1067_1330_11"/></node><node lat="47.30424" lon="7.69467"  id="-6"  changeset="false" ><tag k="id" v="21207"/><tag k="amenity" v="toilets"/><tag k="descriptio" v="Kann idR kostenlos benutzt werden"/><tag k="municipali" v="Balsthal"/><tag k="name" v="Coop Tankstelle"/><tag k="toilets_po" v="seated"/><tag k="wc_guide_i" v="21207"/><tag k="Cluster_ID" v="46"/><tag k="xyz" v="1067_1330_11"/></node></osm>