<?xml version="1.0" encoding="UTF-8"?><osm version="0.6" generator="https://github.com/Rub21/geojson2osm"><node lat="47.05069" lon="8.257256"  id="-1"  changeset="false" ><tag k="id" v="1131"/><tag k="amenity" v="toilets"/><tag k="municipali" v="Luzern"/><tag k="name" v="Friedhof"/><tag k="toilets_po" v="seated"/><tag k="wc_guide_i" v="1131"/><tag k="Cluster_ID" v="37"/><tag k="xyz" v="1070_1328_11"/></node><node lat="47.157711" lon="8.116322"  id="-2"  changeset="false" ><tag k="id" v="1483"/><tag k="amenity" v="toilets"/><tag k="municipali" v="Oberkirch"/><tag k="name" v="Friedhof Oberkirch"/><tag k="toilets_po" v="seated"/><tag k="wc_guide_i" v="1483"/><tag k="Cluster_ID" v="46"/><tag k="xyz" v="1070_1328_11"/></node><node lat="47.114601" lon="8.093834"  id="-3"  changeset="false" ><tag k="id" v="1757"/><tag k="amenity" v="toilets"/><tag k="municipali" v="Buttisholz"/><tag k="name" v="Friedhof"/><tag k="toilets_po" v="seated"/><tag k="wc_guide_i" v="1757"/><tag k="Cluster_ID" v="46"/><tag k="xyz" v="1070_1328_11"/></node><node lat="47.116375" lon="8.090696"  id="-4"  changeset="false" ><tag k="id" v="1758"/><tag k="amenity" v="toilets"/><tag k="municipali" v="Buttisholz"/><tag k="toilets_po" v="seated"/><tag k="wc_guide_i" v="1758"/><tag k="Cluster_ID" v="46"/><tag k="xyz" v="1070_1328_11"/></node><node lat="47.063389" lon="8.135035"  id="-5"  changeset="false" ><tag k="id" v="1826"/><tag k="amenity" v="toilets"/><tag k="municipali" v="Ruswil"/><tag k="toilets_po" v="seated"/><tag k="wc_guide_i" v="1826"/><tag k="Cluster_ID" v="37"/><tag k="xyz" v="1070_1328_11"/></node><node lat="47.140499" lon="8.137033"  id="-6"  changeset="false" ><tag k="id" v="3121"/><tag k="amenity" v="toilets"/><tag k="municipali" v="Nottwil"/><tag k="name" v="Seebad"/><tag k="toilets_po" v="seated"/><tag k="wc_guide_i" v="3121"/><tag k="Cluster_ID" v="46"/><tag k="xyz" v="1070_1328_11"/></node><node lat="47.132294" lon="8.138745"  id="-7"  changeset="false" ><tag k="id" v="3516"/><tag k="amenity" v="toilets"/><tag k="municipali" v="Nottwil"/><tag k="name" v="Friedhof / Kirche"/><tag k="toilets_po" v="seated"/><tag k="wc_guide_i" v="3516"/><tag k="Cluster_ID" v="46"/><tag k="xyz" v="1070_1328_11"/></node><node lat="47.157169" lon="8.106438"  id="-8"  changeset="false" ><tag k="id" v="4298"/><tag k="amenity" v="toilets"/><tag k="descriptio" v="Geh�rt zum Golfpark Oberkirch, ist aber �ffentlich zug�nglich"/><tag k="municipali" v="Oberkirch"/><tag k="name" v="Migros Golfpark"/><tag k="toilets_po" v="seated"/><tag k="wc_guide_i" v="4298"/><tag k="Cluster_ID" v="46"/><tag k="xyz" v="1070_1328_11"/></node><node lat="47.070244" lon="8.198281"  id="-9"  changeset="false" ><tag k="id" v="16863"/><tag k="amenity" v="toilets"/><tag k="municipali" v="Hellb�hl"/><tag k="name" v="Friedhof"/><tag k="toilets_po" v="seated"/><tag k="wc_guide_i" v="16863"/><tag k="Cluster_ID" v="37"/><tag k="xyz" v="1070_1328_11"/></node><node lat="47.129311" lon="8.258649"  id="-10"  changeset="false" ><tag k="id" v="19092"/><tag k="amenity" v="toilets"/><tag k="descriptio" v="Gegen�ber der Kirche, beim kl. Spielplatz"/><tag k="municipali" v="Rain"/><tag k="toilets_po" v="seated"/><tag k="wc_guide_i" v="19092"/><tag k="Cluster_ID" v="37"/><tag k="xyz" v="1070_1328_11"/></node><node lat="47.151005" lon="8.229947"  id="-11"  changeset="false" ><tag k="id" v="19217"/><tag k="amenity" v="toilets"/><tag k="municipali" v="Hildisrieden"/><tag k="name" v="Friedhof"/><tag k="toilets_po" v="seated"/><tag k="wc_guide_i" v="19217"/><tag k="Cluster_ID" v="46"/><tag k="xyz" v="1070_1328_11"/></node><node lat="47.116356" lon="8.200192"  id="-12"  changeset="false" ><tag k="id" v="20056"/><tag k="amenity" v="toilets"/><tag k="descriptio" v="Bei der Kasse fragen"/><tag k="municipali" v="Sempach Station"/><tag k="name" v="TopShop / Landi"/><tag k="toilets_po" v="seated"/><tag k="wc_guide_i" v="20056"/><tag k="Cluster_ID" v="37"/><tag k="xyz" v="1070_1328_11"/></node><node lat="47.097893" lon="8.206734"  id="-13"  changeset="false" ><tag k="id" v="20142"/><tag k="amenity" v="toilets"/><tag k="municipali" v="Neuenkirch"/><tag k="name" v="Tankstelle"/><tag k="toilets_po" v="seated"/><tag k="wc_guide_i" v="20142"/><tag k="Cluster_ID" v="37"/><tag k="xyz" v="1070_1328_11"/></node><node lat="47.103592" lon="8.201624"  id="-14"  changeset="false" ><tag k="id" v="20143"/><tag k="amenity" v="toilets"/><tag k="descriptio" v="In der Tiefgarage."/><tag k="municipali" v="Neuenkirch"/><tag k="name" v="Spar"/><tag k="toilets_po" v="seated"/><tag k="wc_guide_i" v="20143"/><tag k="Cluster_ID" v="37"/><tag k="xyz" v="1070_1328_11"/></node><node lat="47.144337" lon="8.184046"  id="-15"  changeset="false" ><tag k="id" v="20145"/><tag k="amenity" v="toilets"/><tag k="municipali" v="Sempach Stadt"/><tag k="name" v="Rastplatz"/><tag k="toilets_po" v="seated"/><tag k="wc_guide_i" v="20145"/><tag k="Cluster_ID" v="46"/><tag k="xyz" v="1070_1328_11"/></node><node lat="47.155628" lon="8.157638"  id="-16"  changeset="false" ><tag k="id" v="20146"/><tag k="amenity" v="toilets"/><tag k="municipali" v="Eich"/><tag k="name" v="Rastplatz"/><tag k="toilets_po" v="seated"/><tag k="wc_guide_i" v="20146"/><tag k="Cluster_ID" v="46"/><tag k="xyz" v="1070_1328_11"/></node></osm>