<?xml version="1.0" encoding="UTF-8"?><osm version="0.6" generator="https://github.com/Rub21/geojson2osm"><node lat="46.385159" lon="6.8574"  id="-1"  changeset="false" ><tag k="id" v="690"/><tag k="amenity" v="toilets"/><tag k="municipali" v="Bouveret"/><tag k="toilets_po" v="seated"/><tag k="wc_guide_i" v="690"/><tag k="Cluster_ID" v="24"/><tag k="xyz" v="1063_1322_11"/></node><node lat="46.436623" lon="6.908523"  id="-2"  changeset="false" ><tag k="id" v="1870"/><tag k="amenity" v="toilets"/><tag k="municipali" v="Montreux"/><tag k="name" v="Parking du March�"/><tag k="toilets_po" v="seated"/><tag k="wc_guide_i" v="1870"/><tag k="Cluster_ID" v="24"/><tag k="xyz" v="1063_1322_11"/></node><node lat="46.434261" lon="6.915872"  id="-3"  changeset="false" ><tag k="id" v="2264"/><tag k="amenity" v="toilets"/><tag k="municipali" v="Montreux"/><tag k="toilets_po" v="seated"/><tag k="wc_guide_i" v="2264"/><tag k="Cluster_ID" v="24"/><tag k="xyz" v="1063_1322_11"/></node><node lat="46.344383" lon="7.008776"  id="-4"  changeset="false" ><tag k="id" v="3975"/><tag k="amenity" v="toilets"/><tag k="municipali" v="Leysin"/><tag k="name" v="Gare Du Feydey"/><tag k="toilets_po" v="seated"/><tag k="wc_guide_i" v="3975"/><tag k="Cluster_ID" v="24"/><tag k="xyz" v="1063_1322_11"/></node><node lat="46.339462" lon="7.006145"  id="-5"  changeset="false" ><tag k="id" v="4048"/><tag k="amenity" v="toilets"/><tag k="municipali" v="Leysin"/><tag k="name" v="Gare"/><tag k="toilets_po" v="seated"/><tag k="wc_guide_i" v="4048"/><tag k="Cluster_ID" v="24"/><tag k="xyz" v="1063_1322_11"/></node><node lat="46.422089" lon="6.928307"  id="-6"  changeset="false" ><tag k="id" v="4363"/><tag k="amenity" v="toilets"/><tag k="descriptio" v="Flambant Neuves"/><tag k="municipali" v="Veytaux"/><tag k="name" v="Place Du Village, Veytaux"/><tag k="toilets_po" v="seated"/><tag k="wc_guide_i" v="4363"/><tag k="Cluster_ID" v="24"/><tag k="xyz" v="1063_1322_11"/></node><node lat="46.432083" lon="6.925665"  id="-7"  changeset="false" ><tag k="id" v="18364"/><tag k="amenity" v="toilets"/><tag k="descriptio" v="Toilettes Turques ;)"/><tag k="municipali" v="Glion"/><tag k="name" v="A Cot� De L'eglise Catholique"/><tag k="toilets_po" v="seated"/><tag k="wc_guide_i" v="18364"/><tag k="Cluster_ID" v="24"/><tag k="xyz" v="1063_1322_11"/></node><node lat="46.431004" lon="6.919112"  id="-8"  changeset="false" ><tag k="id" v="18366"/><tag k="amenity" v="toilets"/><tag k="municipali" v="Montreux"/><tag k="name" v="Temple"/><tag k="toilets_po" v="seated"/><tag k="wc_guide_i" v="18366"/><tag k="Cluster_ID" v="24"/><tag k="xyz" v="1063_1322_11"/></node><node lat="46.432281" lon="6.924117"  id="-9"  changeset="false" ><tag k="id" v="18458"/><tag k="amenity" v="toilets"/><tag k="municipali" v="Glion"/><tag k="name" v="Gare"/><tag k="toilets_po" v="seated"/><tag k="wc_guide_i" v="18458"/><tag k="Cluster_ID" v="24"/><tag k="xyz" v="1063_1322_11"/></node><node lat="46.362041" lon="6.877431"  id="-10"  changeset="false" ><tag k="id" v="18543"/><tag k="amenity" v="toilets"/><tag k="descriptio" v="Vis-�-vis fontaine"/><tag k="municipali" v="Les Evouettes"/><tag k="name" v="Parking"/><tag k="toilets_po" v="seated"/><tag k="wc_guide_i" v="18543"/><tag k="Cluster_ID" v="24"/><tag k="xyz" v="1063_1322_11"/></node><node lat="46.396004" lon="6.921679"  id="-11"  changeset="false" ><tag k="id" v="18867"/><tag k="amenity" v="toilets"/><tag k="municipali" v="Villeneuve"/><tag k="toilets_po" v="seated"/><tag k="wc_guide_i" v="18867"/><tag k="Cluster_ID" v="24"/><tag k="xyz" v="1063_1322_11"/></node><node lat="46.37199" lon="6.871236"  id="-12"  changeset="false" ><tag k="id" v="19409"/><tag k="amenity" v="toilets"/><tag k="municipali" v="Port-Valais"/><tag k="name" v="Cimetiere"/><tag k="toilets_po" v="seated"/><tag k="wc_guide_i" v="19409"/><tag k="Cluster_ID" v="24"/><tag k="xyz" v="1063_1322_11"/></node><node lat="46.32053" lon="6.967923"  id="-13"  changeset="false" ><tag k="id" v="19438"/><tag k="amenity" v="toilets"/><tag k="municipali" v="Aigle"/><tag k="name" v="Place Alphonse Mex"/><tag k="toilets_po" v="seated"/><tag k="wc_guide_i" v="19438"/><tag k="Cluster_ID" v="24"/><tag k="xyz" v="1063_1322_11"/></node><node lat="46.431973" lon="6.91025"  id="-14"  changeset="false" ><tag k="id" v="19641"/><tag k="amenity" v="toilets"/><tag k="descriptio" v="Sous Arret De Bus"/><tag k="municipali" v="Montreux"/><tag k="name" v="Sous terrain Forum"/><tag k="toilets_po" v="seated"/><tag k="wc_guide_i" v="19641"/><tag k="Cluster_ID" v="24"/><tag k="xyz" v="1063_1322_11"/></node><node lat="46.398445" lon="6.926754"  id="-15"  changeset="false" ><tag k="id" v="20275"/><tag k="amenity" v="toilets"/><tag k="municipali" v="Villeneuve"/><tag k="toilets_po" v="seated"/><tag k="wc_guide_i" v="20275"/><tag k="Cluster_ID" v="24"/><tag k="xyz" v="1063_1322_11"/></node><node lat="46.425438" lon="6.925607"  id="-16"  changeset="false" ><tag k="id" v="20794"/><tag k="amenity" v="toilets"/><tag k="municipali" v="Territet"/><tag k="toilets_po" v="seated"/><tag k="wc_guide_i" v="20794"/><tag k="Cluster_ID" v="24"/><tag k="xyz" v="1063_1322_11"/></node></osm>