<?xml version="1.0" encoding="UTF-8"?><osm version="0.6" generator="https://github.com/Rub21/geojson2osm"><node lat="47.537457" lon="9.397516"  id="-1"  changeset="false" ><tag k="id" v="1652"/><tag k="amenity" v="toilets"/><tag k="municipali" v="Egnach"/><tag k="name" v="Camping Seehorn"/><tag k="toilets_po" v="seated"/><tag k="wc_guide_i" v="1652"/><tag k="Cluster_ID" v="29"/><tag k="xyz" v="1077_1332_11"/></node><node lat="47.518665" lon="9.43511"  id="-2"  changeset="false" ><tag k="id" v="2888"/><tag k="amenity" v="toilets"/><tag k="municipali" v="Arbon"/><tag k="name" v="Badi Arbon"/><tag k="toilets_po" v="seated"/><tag k="wc_guide_i" v="2888"/><tag k="Cluster_ID" v="29"/><tag k="xyz" v="1077_1332_11"/></node><node lat="47.597614" lon="9.318115"  id="-3"  changeset="false" ><tag k="id" v="3278"/><tag k="amenity" v="toilets"/><tag k="descriptio" v="Nur im Sommer ge�ffnet."/><tag k="municipali" v="Kesswil"/><tag k="name" v="Badeplatz Kesswil"/><tag k="toilets_po" v="seated"/><tag k="wc_guide_i" v="3278"/><tag k="Cluster_ID" v="8"/><tag k="xyz" v="1077_1332_11"/></node><node lat="47.528385" lon="9.369364"  id="-4"  changeset="false" ><tag k="id" v="4206"/><tag k="amenity" v="toilets"/><tag k="name" v="Friedhof"/><tag k="toilets_po" v="seated"/><tag k="wc_guide_i" v="4206"/><tag k="Cluster_ID" v="29"/><tag k="xyz" v="1077_1332_11"/></node><node lat="47.517536" lon="9.336653"  id="-5"  changeset="false" ><tag k="id" v="16795"/><tag k="amenity" v="toilets"/><tag k="municipali" v="Muolen"/><tag k="name" v="Bahnhof"/><tag k="toilets_po" v="seated"/><tag k="wc_guide_i" v="16795"/><tag k="Cluster_ID" v="29"/><tag k="xyz" v="1077_1332_11"/></node><node lat="47.585686" lon="9.34304"  id="-6"  changeset="false" ><tag k="id" v="18290"/><tag k="amenity" v="toilets"/><tag k="descriptio" v="Gegen�ber Rest. Pier"/><tag k="municipali" v="Uttwil"/><tag k="toilets_po" v="seated"/><tag k="wc_guide_i" v="18290"/><tag k="Cluster_ID" v="8"/><tag k="xyz" v="1077_1332_11"/></node><node lat="47.550777" lon="9.38572"  id="-7"  changeset="false" ><tag k="id" v="18751"/><tag k="amenity" v="toilets"/><tag k="municipali" v="Egnach"/><tag k="name" v="Strandbad Egnach"/><tag k="toilets_po" v="seated"/><tag k="wc_guide_i" v="18751"/><tag k="Cluster_ID" v="29"/><tag k="xyz" v="1077_1332_11"/></node><node lat="47.579281" lon="9.365561"  id="-8"  changeset="false" ><tag k="id" v="19128"/><tag k="amenity" v="toilets"/><tag k="municipali" v="Romanshorn"/><tag k="name" v="Holzensteiner Badi"/><tag k="toilets_po" v="seated"/><tag k="wc_guide_i" v="19128"/><tag k="Cluster_ID" v="8"/><tag k="xyz" v="1077_1332_11"/></node><node lat="47.544373" lon="9.375232"  id="-9"  changeset="false" ><tag k="id" v="20683"/><tag k="amenity" v="toilets"/><tag k="descriptio" v="Egnach"/><tag k="municipali" v="Egnach"/><tag k="name" v="Arbon"/><tag k="toilets_po" v="seated"/><tag k="wc_guide_i" v="20683"/><tag k="Cluster_ID" v="29"/><tag k="xyz" v="1077_1332_11"/></node><node lat="47.540737" lon="9.380915"  id="-10"  changeset="false" ><tag k="id" v="20734"/><tag k="amenity" v="toilets"/><tag k="municipali" v="Egnach"/><tag k="name" v="Egnach Bahnhof"/><tag k="toilets_po" v="seated"/><tag k="wc_guide_i" v="20734"/><tag k="Cluster_ID" v="29"/><tag k="xyz" v="1077_1332_11"/></node></osm>