<?xml version="1.0" encoding="UTF-8"?><osm version="0.6" generator="https://github.com/Rub21/geojson2osm"><node lat="47.369141" lon="8.521346"  id="-1"  changeset="false" ><tag k="id" v="153"/><tag k="amenity" v="toilets"/><tag k="municipali" v="Z�rich"/><tag k="toilets_po" v="seated"/><tag k="wc_guide_i" v="153"/><tag k="Cluster_ID" v="40"/><tag k="xyz" v="1072_1330_11"/></node><node lat="47.36348" lon="8.53524"  id="-2"  changeset="false" ><tag k="id" v="159"/><tag k="amenity" v="toilets"/><tag k="municipali" v="Z�rich"/><tag k="name" v="Arboretum"/><tag k="toilets_po" v="seated"/><tag k="wc_guide_i" v="159"/><tag k="Cluster_ID" v="40"/><tag k="xyz" v="1072_1330_11"/></node><node lat="47.355267" lon="8.551183"  id="-3"  changeset="false" ><tag k="id" v="169"/><tag k="amenity" v="toilets"/><tag k="descriptio" v="Spielplatz b. Chinagarten"/><tag k="municipali" v="Z�rich"/><tag k="name" v="Blatterwiese"/><tag k="toilets_po" v="seated"/><tag k="wc_guide_i" v="169"/><tag k="Cluster_ID" v="40"/><tag k="xyz" v="1072_1330_11"/></node><node lat="47.39817" lon="8.533181"  id="-4"  changeset="false" ><tag k="id" v="170"/><tag k="amenity" v="toilets"/><tag k="descriptio" v="Seitlich im Kioskh�uschen."/><tag k="municipali" v="Z�rich"/><tag k="name" v="Bucheggplatz"/><tag k="toilets_po" v="seated"/><tag k="wc_guide_i" v="170"/><tag k="Cluster_ID" v="40"/><tag k="xyz" v="1072_1330_11"/></node><node lat="47.366516" lon="8.540518"  id="-5"  changeset="false" ><tag k="id" v="174"/><tag k="amenity" v="toilets"/><tag k="municipali" v="Z�rich"/><tag k="name" v="Stadthausanlage / Bahnhhofstrasse"/><tag k="toilets_po" v="seated"/><tag k="wc_guide_i" v="174"/><tag k="Cluster_ID" v="40"/><tag k="xyz" v="1072_1330_11"/></node><node lat="47.353035" lon="8.551161"  id="-6"  changeset="false" ><tag k="id" v="180"/><tag k="amenity" v="toilets"/><tag k="descriptio" v="Beim Restaurant Fischstube"/><tag k="municipali" v="Z�rich"/><tag k="toilets_po" v="seated"/><tag k="wc_guide_i" v="180"/><tag k="Cluster_ID" v="40"/><tag k="xyz" v="1072_1330_11"/></node><node lat="47.345551" lon="8.536698"  id="-7"  changeset="false" ><tag k="id" v="187"/><tag k="amenity" v="toilets"/><tag k="descriptio" v="Schiffssteg: Toiletten nur mit Schiffsfahrt!"/><tag k="municipali" v="Z�rich"/><tag k="name" v="Hafen Wollishofen"/><tag k="toilets_po" v="seated"/><tag k="wc_guide_i" v="187"/><tag k="Cluster_ID" v="40"/><tag k="xyz" v="1072_1330_11"/></node><node lat="47.382324" lon="8.514267"  id="-8"  changeset="false" ><tag k="id" v="188"/><tag k="amenity" v="toilets"/><tag k="descriptio" v="Kiosk"/><tag k="municipali" v="Z�rich"/><tag k="name" v="Unter der Hardbr�cke"/><tag k="toilets_po" v="seated"/><tag k="wc_guide_i" v="188"/><tag k="Cluster_ID" v="40"/><tag k="xyz" v="1072_1330_11"/></node><node lat="47.375744" lon="8.525391"  id="-9"  changeset="false" ><tag k="id" v="191"/><tag k="amenity" v="toilets"/><tag k="municipali" v="Z�rich"/><tag k="name" v="Helvetiaplatz"/><tag k="toilets_po" v="urinal"/><tag k="wc_guide_i" v="191"/><tag k="Cluster_ID" v="40"/><tag k="xyz" v="1072_1330_11"/></node><node lat="47.368549" lon="8.518556"  id="-10"  changeset="false" ><tag k="id" v="195"/><tag k="amenity" v="toilets"/><tag k="descriptio" v="Spielplatz"/><tag k="municipali" v="Z�rich"/><tag k="name" v="Kollerwiese"/><tag k="toilets_po" v="seated"/><tag k="wc_guide_i" v="195"/><tag k="Cluster_ID" v="40"/><tag k="xyz" v="1072_1330_11"/></node><node lat="47.397507" lon="8.541859"  id="-11"  changeset="false" ><tag k="id" v="206"/><tag k="amenity" v="toilets"/><tag k="municipali" v="Z�rich"/><tag k="name" v="Milchbuck Traminsel"/><tag k="toilets_po" v="seated"/><tag k="wc_guide_i" v="206"/><tag k="Cluster_ID" v="40"/><tag k="xyz" v="1072_1330_11"/></node><node lat="47.358303" lon="8.535916"  id="-12"  changeset="false" ><tag k="id" v="207"/><tag k="amenity" v="toilets"/><tag k="municipali" v="Z�rich"/><tag k="name" v="Seepolizei"/><tag k="toilets_po" v="urinal"/><tag k="wc_guide_i" v="207"/><tag k="Cluster_ID" v="40"/><tag k="xyz" v="1072_1330_11"/></node><node lat="47.360775" lon="8.557813"  id="-13"  changeset="false" ><tag k="id" v="208"/><tag k="amenity" v="toilets"/><tag k="municipali" v="Z�rich"/><tag k="name" v="Park Neum�nsterstrasse"/><tag k="toilets_po" v="seated"/><tag k="wc_guide_i" v="208"/><tag k="Cluster_ID" v="40"/><tag k="xyz" v="1072_1330_11"/></node><node lat="47.376015" lon="8.525637"  id="-14"  changeset="false" ><tag k="id" v="209"/><tag k="amenity" v="toilets"/><tag k="municipali" v="Z�rich"/><tag k="name" v="Kanzleischulhaus"/><tag k="toilets_po" v="urinal"/><tag k="wc_guide_i" v="209"/><tag k="Cluster_ID" v="40"/><tag k="xyz" v="1072_1330_11"/></node><node lat="47.375534" lon="8.538769"  id="-15"  changeset="false" ><tag k="id" v="212"/><tag k="amenity" v="toilets"/><tag k="descriptio" v="Automat"/><tag k="municipali" v="Z�rich"/><tag k="name" v="Pestalozziwiese"/><tag k="toilets_po" v="seated"/><tag k="wc_guide_i" v="212"/><tag k="Cluster_ID" v="40"/><tag k="xyz" v="1072_1330_11"/></node><node lat="47.375027" lon="8.552663"  id="-16"  changeset="false" ><tag k="id" v="213"/><tag k="amenity" v="toilets"/><tag k="municipali" v="Z�rich"/><tag k="name" v="Tramhaltestelle, Take Away"/><tag k="toilets_po" v="seated"/><tag k="wc_guide_i" v="213"/><tag k="Cluster_ID" v="40"/><tag k="xyz" v="1072_1330_11"/></node><node lat="47.371815" lon="8.542128"  id="-17"  changeset="false" ><tag k="id" v="215"/><tag k="amenity" v="toilets"/><tag k="municipali" v="Z�rich"/><tag k="name" v="Gem�sebr�cke, Polizeiposten"/><tag k="toilets_po" v="seated"/><tag k="wc_guide_i" v="215"/><tag k="Cluster_ID" v="40"/><tag k="xyz" v="1072_1330_11"/></node><node lat="47.351036" lon="8.582978"  id="-18"  changeset="false" ><tag k="id" v="216"/><tag k="amenity" v="toilets"/><tag k="municipali" v="Z�rich"/><tag k="name" v="Rehalp, Endstation Tram 11"/><tag k="toilets_po" v="seated"/><tag k="wc_guide_i" v="216"/><tag k="Cluster_ID" v="40"/><tag k="xyz" v="1072_1330_11"/></node><node lat="47.384861" lon="8.547878"  id="-19"  changeset="false" ><tag k="id" v="217"/><tag k="amenity" v="toilets"/><tag k="descriptio" v="Automat"/><tag k="municipali" v="Z�rich"/><tag k="name" v="Ottiker-/Cullmannstrasse"/><tag k="toilets_po" v="seated"/><tag k="wc_guide_i" v="217"/><tag k="Cluster_ID" v="40"/><tag k="xyz" v="1072_1330_11"/></node><node lat="47.368195" lon="8.560474"  id="-20"  changeset="false" ><tag k="id" v="218"/><tag k="amenity" v="toilets"/><tag k="descriptio" v="Automat"/><tag k="municipali" v="Z�rich"/><tag k="name" v="R�merhof"/><tag k="toilets_po" v="seated"/><tag k="wc_guide_i" v="218"/><tag k="Cluster_ID" v="40"/><tag k="xyz" v="1072_1330_11"/></node><node lat="47.391842" lon="8.538458"  id="-21"  changeset="false" ><tag k="id" v="221"/><tag k="amenity" v="toilets"/><tag k="descriptio" v="Automat"/><tag k="municipali" v="Z�rich"/><tag k="name" v="Schaffhauserplatz, Ecke Seminarstrasse"/><tag k="toilets_po" v="seated"/><tag k="wc_guide_i" v="221"/><tag k="Cluster_ID" v="40"/><tag k="xyz" v="1072_1330_11"/></node><node lat="47.369026" lon="8.526082"  id="-22"  changeset="false" ><tag k="id" v="225"/><tag k="amenity" v="toilets"/><tag k="municipali" v="Z�rich"/><tag k="name" v="Sihlh�lzli-Anlage"/><tag k="toilets_po" v="seated"/><tag k="wc_guide_i" v="225"/><tag k="Cluster_ID" v="40"/><tag k="xyz" v="1072_1330_11"/></node><node lat="47.373432" lon="8.529248"  id="-23"  changeset="false" ><tag k="id" v="226"/><tag k="amenity" v="toilets"/><tag k="descriptio" v="Automat"/><tag k="municipali" v="Z�rich"/><tag k="name" v="Stauffacher, Tramhaltest. stadtausw�rts"/><tag k="toilets_po" v="seated"/><tag k="wc_guide_i" v="226"/><tag k="Cluster_ID" v="40"/><tag k="xyz" v="1072_1330_11"/></node><node lat="47.365032" lon="8.508804"  id="-24"  changeset="false" ><tag k="id" v="235"/><tag k="amenity" v="toilets"/><tag k="municipali" v="Z�rich"/><tag k="name" v="Wassersch�pfi"/><tag k="toilets_po" v="seated"/><tag k="wc_guide_i" v="235"/><tag k="Cluster_ID" v="40"/><tag k="xyz" v="1072_1330_11"/></node><node lat="47.397842" lon="8.482017"  id="-25"  changeset="false" ><tag k="id" v="236"/><tag k="amenity" v="toilets"/><tag k="municipali" v="Z�rich"/><tag k="name" v="Endstation Tram 4"/><tag k="toilets_po" v="seated"/><tag k="wc_guide_i" v="236"/><tag k="Cluster_ID" v="40"/><tag k="xyz" v="1072_1330_11"/></node><node lat="47.391956" lon="8.523245"  id="-26"  changeset="false" ><tag k="id" v="238"/><tag k="amenity" v="toilets"/><tag k="municipali" v="Z�rich"/><tag k="name" v="GZ Wipkingen/Schule f. Haushalt SHL"/><tag k="toilets_po" v="seated"/><tag k="wc_guide_i" v="238"/><tag k="Cluster_ID" v="40"/><tag k="xyz" v="1072_1330_11"/></node><node lat="47.376804" lon="8.531817"  id="-27"  changeset="false" ><tag k="id" v="241"/><tag k="amenity" v="toilets"/><tag k="municipali" v="Z�rich"/><tag k="name" v="Kasernenareal"/><tag k="toilets_po" v="urinal"/><tag k="wc_guide_i" v="241"/><tag k="Cluster_ID" v="40"/><tag k="xyz" v="1072_1330_11"/></node><node lat="47.360935" lon="8.584217"  id="-28"  changeset="false" ><tag k="id" v="244"/><tag k="amenity" v="toilets"/><tag k="municipali" v="Z�rich"/><tag k="name" v="Spielplatz"/><tag k="toilets_po" v="seated"/><tag k="wc_guide_i" v="244"/><tag k="Cluster_ID" v="40"/><tag k="xyz" v="1072_1330_11"/></node><node lat="47.377445" lon="8.539896"  id="-29"  changeset="false" ><tag k="id" v="810"/><tag k="amenity" v="toilets"/><tag k="descriptio" v="Z�riWC"/><tag k="municipali" v="Z�rich"/><tag k="name" v="Bahnhof UG"/><tag k="toilets_po" v="seated"/><tag k="wc_guide_i" v="810"/><tag k="Cluster_ID" v="40"/><tag k="xyz" v="1072_1330_11"/></node><node lat="47.34029" lon="8.573091"  id="-30"  changeset="false" ><tag k="id" v="1058"/><tag k="amenity" v="toilets"/><tag k="municipali" v="Zollikon"/><tag k="name" v="Kreisel Dufourplatz"/><tag k="toilets_po" v="seated"/><tag k="wc_guide_i" v="1058"/><tag k="Cluster_ID" v="40"/><tag k="xyz" v="1072_1330_11"/></node><node lat="47.362011" lon="8.517623"  id="-31"  changeset="false" ><tag k="id" v="1232"/><tag k="amenity" v="toilets"/><tag k="municipali" v="Z�rich"/><tag k="name" v="Bahnhof"/><tag k="toilets_po" v="seated"/><tag k="wc_guide_i" v="1232"/><tag k="Cluster_ID" v="40"/><tag k="xyz" v="1072_1330_11"/></node><node lat="47.385647" lon="8.532987"  id="-32"  changeset="false" ><tag k="id" v="1243"/><tag k="amenity" v="toilets"/><tag k="descriptio" v="ToiToi WC-Anlage"/><tag k="municipali" v="Z�rich"/><tag k="name" v="Sihlquai Unter Kornhausbr�cke"/><tag k="toilets_po" v="seated"/><tag k="wc_guide_i" v="1243"/><tag k="Cluster_ID" v="40"/><tag k="xyz" v="1072_1330_11"/></node><node lat="47.319469" lon="8.580794"  id="-33"  changeset="false" ><tag k="id" v="1292"/><tag k="amenity" v="toilets"/><tag k="municipali" v="8700 K�snacht ZH"/><tag k="name" v="Bahnhof"/><tag k="toilets_po" v="seated"/><tag k="wc_guide_i" v="1292"/><tag k="Cluster_ID" v="40"/><tag k="xyz" v="1072_1330_11"/></node><node lat="47.337746" lon="8.569583"  id="-34"  changeset="false" ><tag k="id" v="1418"/><tag k="amenity" v="toilets"/><tag k="municipali" v="Zollikon"/><tag k="name" v="Bahnhof Zollikon"/><tag k="toilets_po" v="seated"/><tag k="wc_guide_i" v="1418"/><tag k="Cluster_ID" v="40"/><tag k="xyz" v="1072_1330_11"/></node><node lat="47.39431" lon="8.504276"  id="-35"  changeset="false" ><tag k="id" v="1444"/><tag k="amenity" v="toilets"/><tag k="descriptio" v="WC im Parking"/><tag k="municipali" v="Z�rich"/><tag k="name" v="Parking"/><tag k="toilets_po" v="seated"/><tag k="wc_guide_i" v="1444"/><tag k="Cluster_ID" v="40"/><tag k="xyz" v="1072_1330_11"/></node><node lat="47.287766" lon="8.562911"  id="-36"  changeset="false" ><tag k="id" v="1520"/><tag k="amenity" v="toilets"/><tag k="municipali" v="Thalwil"/><tag k="name" v="Dorfstrasse 63, 8800"/><tag k="toilets_po" v="seated"/><tag k="wc_guide_i" v="1520"/><tag k="Cluster_ID" v="40"/><tag k="xyz" v="1072_1330_11"/></node><node lat="47.281826" lon="8.612706"  id="-37"  changeset="false" ><tag k="id" v="1698"/><tag k="amenity" v="toilets"/><tag k="descriptio" v="Befindet sich in der Unterf�hrung"/><tag k="municipali" v="Herrliberg-Feldmeilen"/><tag k="name" v="Bahnhof"/><tag k="toilets_po" v="seated"/><tag k="wc_guide_i" v="1698"/><tag k="Cluster_ID" v="40"/><tag k="xyz" v="1072_1330_11"/></node><node lat="47.386234" lon="8.499126"  id="-38"  changeset="false" ><tag k="id" v="2075"/><tag k="amenity" v="toilets"/><tag k="municipali" v="Z�rich"/><tag k="name" v="Letzipark"/><tag k="toilets_po" v="seated"/><tag k="wc_guide_i" v="2075"/><tag k="Cluster_ID" v="40"/><tag k="xyz" v="1072_1330_11"/></node><node lat="47.375828" lon="8.526992"  id="-39"  changeset="false" ><tag k="id" v="2354"/><tag k="amenity" v="toilets"/><tag k="descriptio" v="2 WC vorhanden"/><tag k="municipali" v="Z�rich"/><tag k="name" v="Helvetia Platz"/><tag k="toilets_po" v="seated"/><tag k="wc_guide_i" v="2354"/><tag k="Cluster_ID" v="40"/><tag k="xyz" v="1072_1330_11"/></node><node lat="47.324875" lon="8.491058"  id="-40"  changeset="false" ><tag k="id" v="2355"/><tag k="amenity" v="toilets"/><tag k="municipali" v="Stallikon"/><tag k="name" v="Dorfplatz"/><tag k="toilets_po" v="seated"/><tag k="wc_guide_i" v="2355"/><tag k="Cluster_ID" v="40"/><tag k="xyz" v="1072_1330_11"/></node><node lat="47.39257" lon="8.448808"  id="-41"  changeset="false" ><tag k="id" v="2717"/><tag k="amenity" v="toilets"/><tag k="municipali" v="Schlieren"/><tag k="name" v="Holzh�uschen"/><tag k="toilets_po" v="seated"/><tag k="wc_guide_i" v="2717"/><tag k="Cluster_ID" v="40"/><tag k="xyz" v="1072_1330_11"/></node><node lat="47.378456" lon="8.535658"  id="-42"  changeset="false" ><tag k="id" v="2723"/><tag k="amenity" v="toilets"/><tag k="descriptio" v="Automat, im Bahnhof"/><tag k="municipali" v="Z�rich"/><tag k="name" v="Pestalozziwiese"/><tag k="toilets_po" v="seated"/><tag k="wc_guide_i" v="2723"/><tag k="Cluster_ID" v="40"/><tag k="xyz" v="1072_1330_11"/></node><node lat="47.367104" lon="8.545855"  id="-43"  changeset="false" ><tag k="id" v="2843"/><tag k="amenity" v="toilets"/><tag k="descriptio" v="Im 3. Obergeschoss des Coop City."/><tag k="municipali" v="Z�rich"/><tag k="name" v="Coop City Bellevue"/><tag k="toilets_po" v="seated"/><tag k="wc_guide_i" v="2843"/><tag k="Cluster_ID" v="40"/><tag k="xyz" v="1072_1330_11"/></node><node lat="47.286865" lon="8.544048"  id="-44"  changeset="false" ><tag k="id" v="2884"/><tag k="amenity" v="toilets"/><tag k="municipali" v="Langnau am Albis"/><tag k="name" v="Bahnhof Langnau-gattikon"/><tag k="toilets_po" v="seated"/><tag k="wc_guide_i" v="2884"/><tag k="Cluster_ID" v="40"/><tag k="xyz" v="1072_1330_11"/></node><node lat="47.397926" lon="8.449589"  id="-45"  changeset="false" ><tag k="id" v="2981"/><tag k="amenity" v="toilets"/><tag k="descriptio" v="Schliesst um 22:00 Uhr"/><tag k="municipali" v="Schlieren"/><tag k="name" v="Parkplatz gege�ber Coop"/><tag k="toilets_po" v="seated"/><tag k="wc_guide_i" v="2981"/><tag k="Cluster_ID" v="40"/><tag k="xyz" v="1072_1330_11"/></node><node lat="47.297165" lon="8.599015"  id="-46"  changeset="false" ><tag k="id" v="3065"/><tag k="amenity" v="toilets"/><tag k="municipali" v="Erlenbach"/><tag k="name" v="Bahnhof"/><tag k="toilets_po" v="seated"/><tag k="wc_guide_i" v="3065"/><tag k="Cluster_ID" v="40"/><tag k="xyz" v="1072_1330_11"/></node><node lat="47.300232" lon="8.551063"  id="-47"  changeset="false" ><tag k="id" v="3263"/><tag k="amenity" v="toilets"/><tag k="municipali" v="Thalwil"/><tag k="name" v="Park im Gr�nen"/><tag k="toilets_po" v="seated"/><tag k="wc_guide_i" v="3263"/><tag k="Cluster_ID" v="40"/><tag k="xyz" v="1072_1330_11"/></node><node lat="47.296165" lon="8.56792"  id="-48"  changeset="false" ><tag k="id" v="3271"/><tag k="amenity" v="toilets"/><tag k="municipali" v="Thalwil"/><tag k="name" v="Schiffstation"/><tag k="toilets_po" v="seated"/><tag k="wc_guide_i" v="3271"/><tag k="Cluster_ID" v="40"/><tag k="xyz" v="1072_1330_11"/></node><node lat="47.309692" lon="8.558245"  id="-49"  changeset="false" ><tag k="id" v="3364"/><tag k="amenity" v="toilets"/><tag k="descriptio" v="Am schiffsteg"/><tag k="municipali" v="R�schlikon"/><tag k="name" v="Schiffsteg"/><tag k="toilets_po" v="seated"/><tag k="wc_guide_i" v="3364"/><tag k="Cluster_ID" v="40"/><tag k="xyz" v="1072_1330_11"/></node><node lat="47.36694" lon="8.541289"  id="-50"  changeset="false" ><tag k="id" v="3579"/><tag k="amenity" v="toilets"/><tag k="municipali" v="Z�rich"/><tag k="name" v="B�rkliplatz"/><tag k="toilets_po" v="urinal"/><tag k="wc_guide_i" v="3579"/><tag k="Cluster_ID" v="40"/><tag k="xyz" v="1072_1330_11"/></node><node lat="47.374641" lon="8.508491"  id="-51"  changeset="false" ><tag k="id" v="3625"/><tag k="amenity" v="toilets"/><tag k="descriptio" v="Kapelle Verl�ngerung Zypressenallee"/><tag k="municipali" v="Z�rich"/><tag k="name" v="Im Friedhof Sihlfeld"/><tag k="toilets_po" v="seated"/><tag k="wc_guide_i" v="3625"/><tag k="Cluster_ID" v="40"/><tag k="xyz" v="1072_1330_11"/></node><node lat="47.35791" lon="8.501315"  id="-52"  changeset="false" ><tag k="id" v="3657"/><tag k="amenity" v="toilets"/><tag k="municipali" v="Z�rich"/><tag k="name" v="Friedhof �etliberg"/><tag k="toilets_po" v="seated"/><tag k="wc_guide_i" v="3657"/><tag k="Cluster_ID" v="40"/><tag k="xyz" v="1072_1330_11"/></node><node lat="47.366829" lon="8.547505"  id="-53"  changeset="false" ><tag k="id" v="3805"/><tag k="amenity" v="toilets"/><tag k="municipali" v="Z�rich"/><tag k="name" v="Sozialarchiv"/><tag k="toilets_po" v="seated"/><tag k="wc_guide_i" v="3805"/><tag k="Cluster_ID" v="40"/><tag k="xyz" v="1072_1330_11"/></node><node lat="47.325756" lon="8.468206"  id="-54"  changeset="false" ><tag k="id" v="3839"/><tag k="amenity" v="toilets"/><tag k="descriptio" v="Schl�ssel am Bahnschalter/Avec-Laden verlangen,"/><tag k="municipali" v="Bonstetten"/><tag k="name" v="Bahnhof SBB / Avec"/><tag k="toilets_po" v="seated"/><tag k="wc_guide_i" v="3839"/><tag k="Cluster_ID" v="40"/><tag k="xyz" v="1072_1330_11"/></node><node lat="47.396992" lon="8.44615"  id="-55"  changeset="false" ><tag k="id" v="3868"/><tag k="amenity" v="toilets"/><tag k="descriptio" v="Immer"/><tag k="municipali" v="Schlieren"/><tag k="name" v="Stadtpark"/><tag k="toilets_po" v="seated"/><tag k="wc_guide_i" v="3868"/><tag k="Cluster_ID" v="40"/><tag k="xyz" v="1072_1330_11"/></node><node lat="47.365814" lon="8.465939"  id="-56"  changeset="false" ><tag k="id" v="4080"/><tag k="amenity" v="toilets"/><tag k="municipali" v="Uitikon Waldegg"/><tag k="name" v="Bahnhof"/><tag k="toilets_po" v="seated"/><tag k="wc_guide_i" v="4080"/><tag k="Cluster_ID" v="40"/><tag k="xyz" v="1072_1330_11"/></node><node lat="47.388443" lon="8.487132"  id="-57"  changeset="false" ><tag k="id" v="4110"/><tag k="amenity" v="toilets"/><tag k="municipali" v="Z�rich"/><tag k="name" v="Neumarkt Altstetten"/><tag k="toilets_po" v="seated"/><tag k="wc_guide_i" v="4110"/><tag k="Cluster_ID" v="40"/><tag k="xyz" v="1072_1330_11"/></node><node lat="47.326118" lon="8.514823"  id="-58"  changeset="false" ><tag k="id" v="4334"/><tag k="amenity" v="toilets"/><tag k="descriptio" v="Parterre"/><tag k="municipali" v="Z�rich"/><tag k="name" v="Einkaufszentrum"/><tag k="toilets_po" v="seated"/><tag k="wc_guide_i" v="4334"/><tag k="Cluster_ID" v="40"/><tag k="xyz" v="1072_1330_11"/></node><node lat="47.358303" lon="8.52273"  id="-59"  changeset="false" ><tag k="id" v="4335"/><tag k="amenity" v="toilets"/><tag k="descriptio" v="mit Lift ins Untergeschoss"/><tag k="municipali" v="Z�rich"/><tag k="name" v="Sihlcity"/><tag k="toilets_po" v="seated"/><tag k="wc_guide_i" v="4335"/><tag k="website" v="https://sihlcity.ch/de/home"/><tag k="Cluster_ID" v="40"/><tag k="xyz" v="1072_1330_11"/></node><node lat="47.391251" lon="8.518567"  id="-60"  changeset="false" ><tag k="id" v="4355"/><tag k="amenity" v="toilets"/><tag k="municipali" v="Z�rich"/><tag k="name" v="Migros, Take-away und Laden"/><tag k="toilets_po" v="seated"/><tag k="wc_guide_i" v="4355"/><tag k="Cluster_ID" v="40"/><tag k="xyz" v="1072_1330_11"/></node><node lat="47.35358" lon="8.519662"  id="-61"  changeset="false" ><tag k="id" v="14501"/><tag k="amenity" v="toilets"/><tag k="municipali" v="Z�rich"/><tag k="toilets_po" v="seated"/><tag k="wc_guide_i" v="14501"/><tag k="Cluster_ID" v="40"/><tag k="xyz" v="1072_1330_11"/></node><node lat="47.338196" lon="8.485325"  id="-62"  changeset="false" ><tag k="id" v="16459"/><tag k="amenity" v="toilets"/><tag k="municipali" v="Stallikon"/><tag k="name" v="Busbahnhof"/><tag k="toilets_po" v="seated"/><tag k="wc_guide_i" v="16459"/><tag k="Cluster_ID" v="40"/><tag k="xyz" v="1072_1330_11"/></node><node lat="47.31982" lon="8.55223"  id="-63"  changeset="false" ><tag k="id" v="16488"/><tag k="amenity" v="toilets"/><tag k="municipali" v="Kilchberg ZH"/><tag k="name" v="Navil Gut"/><tag k="toilets_po" v="seated"/><tag k="wc_guide_i" v="16488"/><tag k="Cluster_ID" v="40"/><tag k="xyz" v="1072_1330_11"/></node><node lat="47.37989" lon="8.55168"  id="-64"  changeset="false" ><tag k="id" v="16785"/><tag k="amenity" v="toilets"/><tag k="municipali" v="Z�rich"/><tag k="name" v="Parkplatz"/><tag k="toilets_po" v="seated"/><tag k="wc_guide_i" v="16785"/><tag k="Cluster_ID" v="40"/><tag k="xyz" v="1072_1330_11"/></node><node lat="47.324951" lon="8.594384"  id="-65"  changeset="false" ><tag k="id" v="18224"/><tag k="amenity" v="toilets"/><tag k="descriptio" v="Bushaltestelle T�germoos"/><tag k="municipali" v="K�snacht (ZH)"/><tag k="toilets_po" v="seated"/><tag k="wc_guide_i" v="18224"/><tag k="Cluster_ID" v="40"/><tag k="xyz" v="1072_1330_11"/></node><node lat="47.39814" lon="8.444225"  id="-66"  changeset="false" ><tag k="id" v="18226"/><tag k="amenity" v="toilets"/><tag k="municipali" v="Schlieren"/><tag k="name" v="Chilbiplatz"/><tag k="toilets_po" v="seated"/><tag k="wc_guide_i" v="18226"/><tag k="Cluster_ID" v="40"/><tag k="xyz" v="1072_1330_11"/></node><node lat="47.363483" lon="8.546335"  id="-67"  changeset="false" ><tag k="id" v="18661"/><tag k="amenity" v="toilets"/><tag k="municipali" v="Z�rich"/><tag k="toilets_po" v="seated"/><tag k="wc_guide_i" v="18661"/><tag k="Cluster_ID" v="40"/><tag k="xyz" v="1072_1330_11"/></node><node lat="47.317795" lon="8.541862"  id="-68"  changeset="false" ><tag k="id" v="18880"/><tag k="amenity" v="toilets"/><tag k="municipali" v="Kilchberg ZH"/><tag k="name" v="Kirche Kilchberg"/><tag k="toilets_po" v="seated"/><tag k="wc_guide_i" v="18880"/><tag k="Cluster_ID" v="40"/><tag k="xyz" v="1072_1330_11"/></node><node lat="47.317219" lon="8.541715"  id="-69"  changeset="false" ><tag k="id" v="18976"/><tag k="amenity" v="toilets"/><tag k="municipali" v="Kilchberg ZH"/><tag k="name" v="Kirche, Busstation"/><tag k="toilets_po" v="seated"/><tag k="wc_guide_i" v="18976"/><tag k="Cluster_ID" v="40"/><tag k="xyz" v="1072_1330_11"/></node><node lat="47.306629" lon="8.549362"  id="-70"  changeset="false" ><tag k="id" v="18978"/><tag k="amenity" v="toilets"/><tag k="municipali" v="R�schlikon"/><tag k="name" v="Busstation"/><tag k="toilets_po" v="seated"/><tag k="wc_guide_i" v="18978"/><tag k="Cluster_ID" v="40"/><tag k="xyz" v="1072_1330_11"/></node><node lat="47.343979" lon="8.472755"  id="-71"  changeset="false" ><tag k="id" v="19028"/><tag k="amenity" v="toilets"/><tag k="municipali" v="Wettswil am Albis"/><tag k="name" v="Friedhof"/><tag k="toilets_po" v="seated"/><tag k="wc_guide_i" v="19028"/><tag k="Cluster_ID" v="40"/><tag k="xyz" v="1072_1330_11"/></node><node lat="47.39817" lon="8.604792"  id="-72"  changeset="false" ><tag k="id" v="19077"/><tag k="amenity" v="toilets"/><tag k="municipali" v="D�bendorf"/><tag k="name" v="Tankstelle"/><tag k="toilets_po" v="seated"/><tag k="wc_guide_i" v="19077"/><tag k="Cluster_ID" v="40"/><tag k="xyz" v="1072_1330_11"/></node><node lat="47.396851" lon="8.59603"  id="-73"  changeset="false" ><tag k="id" v="19078"/><tag k="amenity" v="toilets"/><tag k="municipali" v="Z�rich"/><tag k="name" v="Stettbach"/><tag k="toilets_po" v="seated"/><tag k="wc_guide_i" v="19078"/><tag k="Cluster_ID" v="40"/><tag k="xyz" v="1072_1330_11"/></node><node lat="47.365604" lon="8.465771"  id="-74"  changeset="false" ><tag k="id" v="19222"/><tag k="amenity" v="toilets"/><tag k="municipali" v="Waldegg bei Uitikon"/><tag k="toilets_po" v="seated"/><tag k="wc_guide_i" v="19222"/><tag k="Cluster_ID" v="40"/><tag k="xyz" v="1072_1330_11"/></node><node lat="47.288464" lon="8.532835"  id="-75"  changeset="false" ><tag k="id" v="19223"/><tag k="amenity" v="toilets"/><tag k="municipali" v="Langnau am Albis"/><tag k="name" v="Friedhof"/><tag k="toilets_po" v="seated"/><tag k="wc_guide_i" v="19223"/><tag k="Cluster_ID" v="40"/><tag k="xyz" v="1072_1330_11"/></node><node lat="47.380661" lon="8.548015"  id="-76"  changeset="false" ><tag k="id" v="19246"/><tag k="amenity" v="toilets"/><tag k="municipali" v="Z�rich"/><tag k="name" v="Uni-Point Imbiss"/><tag k="toilets_po" v="seated"/><tag k="wc_guide_i" v="19246"/><tag k="Cluster_ID" v="40"/><tag k="xyz" v="1072_1330_11"/></node><node lat="47.383202" lon="8.539602"  id="-77"  changeset="false" ><tag k="id" v="19333"/><tag k="amenity" v="toilets"/><tag k="municipali" v="Z�rich"/><tag k="name" v="Bahnhof"/><tag k="toilets_po" v="urinal"/><tag k="wc_guide_i" v="19333"/><tag k="Cluster_ID" v="40"/><tag k="xyz" v="1072_1330_11"/></node><node lat="47.368023" lon="8.523843"  id="-78"  changeset="false" ><tag k="id" v="19394"/><tag k="amenity" v="toilets"/><tag k="municipali" v="Z�rich"/><tag k="toilets_po" v="seated"/><tag k="wc_guide_i" v="19394"/><tag k="Cluster_ID" v="40"/><tag k="xyz" v="1072_1330_11"/></node><node lat="47.287827" lon="8.562623"  id="-79"  changeset="false" ><tag k="id" v="19485"/><tag k="amenity" v="toilets"/><tag k="municipali" v="Thalwil"/><tag k="name" v="Sch�tzenhaus"/><tag k="toilets_po" v="seated"/><tag k="wc_guide_i" v="19485"/><tag k="Cluster_ID" v="40"/><tag k="xyz" v="1072_1330_11"/></node><node lat="47.363316" lon="8.603134"  id="-80"  changeset="false" ><tag k="id" v="19498"/><tag k="amenity" v="toilets"/><tag k="municipali" v="Z�rich"/><tag k="name" v="Friedhof"/><tag k="toilets_po" v="seated"/><tag k="wc_guide_i" v="19498"/><tag k="Cluster_ID" v="40"/><tag k="xyz" v="1072_1330_11"/></node><node lat="47.333248" lon="8.489644"  id="-81"  changeset="false" ><tag k="id" v="19518"/><tag k="amenity" v="toilets"/><tag k="municipali" v="Z�rich"/><tag k="name" v="Z�rich"/><tag k="toilets_po" v="seated"/><tag k="wc_guide_i" v="19518"/><tag k="Cluster_ID" v="40"/><tag k="xyz" v="1072_1330_11"/></node><node lat="47.367107" lon="8.545175"  id="-82"  changeset="false" ><tag k="id" v="19618"/><tag k="amenity" v="toilets"/><tag k="municipali" v="Z�rich"/><tag k="toilets_po" v="seated"/><tag k="wc_guide_i" v="19618"/><tag k="Cluster_ID" v="40"/><tag k="xyz" v="1072_1330_11"/></node><node lat="47.375168" lon="8.536045"  id="-83"  changeset="false" ><tag k="id" v="20070"/><tag k="amenity" v="toilets"/><tag k="municipali" v="Z�rich"/><tag k="name" v="Migros Take Awax"/><tag k="toilets_po" v="seated"/><tag k="wc_guide_i" v="20070"/><tag k="Cluster_ID" v="40"/><tag k="xyz" v="1072_1330_11"/></node><node lat="47.398121" lon="8.450474"  id="-84"  changeset="false" ><tag k="id" v="20242"/><tag k="amenity" v="toilets"/><tag k="municipali" v="Schlieren"/><tag k="name" v="Nette Toilette"/><tag k="toilets_po" v="seated"/><tag k="wc_guide_i" v="20242"/><tag k="Cluster_ID" v="40"/><tag k="xyz" v="1072_1330_11"/></node><node lat="47.393951" lon="8.44579"  id="-85"  changeset="false" ><tag k="id" v="20244"/><tag k="amenity" v="toilets"/><tag k="municipali" v="Schlieren"/><tag k="name" v="Nette Toilette"/><tag k="toilets_po" v="seated"/><tag k="wc_guide_i" v="20244"/><tag k="website" v="https://muehleacker.ch/"/><tag k="Cluster_ID" v="40"/><tag k="xyz" v="1072_1330_11"/></node><node lat="47.397247" lon="8.439725"  id="-86"  changeset="false" ><tag k="id" v="20246"/><tag k="amenity" v="toilets"/><tag k="municipali" v="Schlieren"/><tag k="name" v="Nette Toilette"/><tag k="toilets_po" v="seated"/><tag k="wc_guide_i" v="20246"/><tag k="website" v="http://www.trattoria-italiana.ch/"/><tag k="Cluster_ID" v="40"/><tag k="xyz" v="1072_1330_11"/></node><node lat="47.395206" lon="8.441744"  id="-87"  changeset="false" ><tag k="id" v="20249"/><tag k="amenity" v="toilets"/><tag k="municipali" v="Schlieren"/><tag k="name" v="Nette Toilette"/><tag k="toilets_po" v="seated"/><tag k="wc_guide_i" v="20249"/><tag k="website" v="http://restaurant-nassacker.ch/"/><tag k="Cluster_ID" v="40"/><tag k="xyz" v="1072_1330_11"/></node><node lat="47.360741" lon="8.548007"  id="-88"  changeset="false" ><tag k="id" v="20402"/><tag k="amenity" v="toilets"/><tag k="municipali" v="Zuerich"/><tag k="name" v="Uto"/><tag k="toilets_po" v="urinal"/><tag k="wc_guide_i" v="20402"/><tag k="Cluster_ID" v="40"/><tag k="xyz" v="1072_1330_11"/></node><node lat="47.351978" lon="8.487565"  id="-89"  changeset="false" ><tag k="id" v="20442"/><tag k="amenity" v="toilets"/><tag k="municipali" v="Stallikon"/><tag k="name" v="Bahnhof �etliberg"/><tag k="toilets_po" v="seated"/><tag k="wc_guide_i" v="20442"/><tag k="Cluster_ID" v="40"/><tag k="xyz" v="1072_1330_11"/></node><node lat="47.326336" lon="8.607725"  id="-90"  changeset="false" ><tag k="id" v="20451"/><tag k="amenity" v="toilets"/><tag k="municipali" v="K�snacht"/><tag k="name" v="Robinson Spielplatz / Schrebergarten"/><tag k="toilets_po" v="seated"/><tag k="wc_guide_i" v="20451"/><tag k="Cluster_ID" v="40"/><tag k="xyz" v="1072_1330_11"/></node><node lat="47.317329" lon="8.578305"  id="-91"  changeset="false" ><tag k="id" v="20452"/><tag k="amenity" v="toilets"/><tag k="municipali" v="K�snacht"/><tag k="name" v="Spielplatz Hornanlage"/><tag k="toilets_po" v="seated"/><tag k="wc_guide_i" v="20452"/><tag k="Cluster_ID" v="40"/><tag k="xyz" v="1072_1330_11"/></node><node lat="47.381531" lon="8.494482"  id="-92"  changeset="false" ><tag k="id" v="20529"/><tag k="amenity" v="toilets"/><tag k="descriptio" v="Kompotoi, Komposttoilette"/><tag k="municipali" v="Z�rich"/><tag k="toilets_po" v="seated"/><tag k="wc_guide_i" v="20529"/><tag k="website" v="https://www.kompotoi.ch/"/><tag k="Cluster_ID" v="40"/><tag k="xyz" v="1072_1330_11"/></node><node lat="47.307438" lon="8.587366"  id="-93"  changeset="false" ><tag k="id" v="20893"/><tag k="amenity" v="toilets"/><tag k="municipali" v="Erlenbach ZH"/><tag k="name" v="Badi WC"/><tag k="toilets_po" v="seated"/><tag k="wc_guide_i" v="20893"/><tag k="Cluster_ID" v="40"/><tag k="xyz" v="1072_1330_11"/></node><node lat="47.34343" lon="8.53053"  id="-94"  changeset="false" ><tag k="id" v="21149"/><tag k="amenity" v="toilets"/><tag k="municipali" v="Z�rich"/><tag k="name" v="Bei der Kirche"/><tag k="toilets_po" v="seated"/><tag k="wc_guide_i" v="21149"/><tag k="Cluster_ID" v="40"/><tag k="xyz" v="1072_1330_11"/></node></osm>