<?xml version="1.0" encoding="UTF-8"?><osm version="0.6" generator="https://github.com/Rub21/geojson2osm"><node lat="47.64719" lon="9.17573"  id="-1"  changeset="false" ><tag k="id" v="1161"/><tag k="amenity" v="toilets"/><tag k="municipali" v="Kreuzlingen"/><tag k="name" v="B�renplatz"/><tag k="toilets_po" v="seated"/><tag k="wc_guide_i" v="1161"/><tag k="Cluster_ID" v="8"/><tag k="xyz" v="1076_1333_11"/></node><node lat="47.64706" lon="9.195492"  id="-2"  changeset="false" ><tag k="id" v="1441"/><tag k="amenity" v="toilets"/><tag k="municipali" v="Kreuzlingen"/><tag k="name" v="Hafen Kreuzlingen"/><tag k="toilets_po" v="seated"/><tag k="wc_guide_i" v="1441"/><tag k="Cluster_ID" v="8"/><tag k="xyz" v="1076_1333_11"/></node><node lat="47.648003" lon="9.175457"  id="-3"  changeset="false" ><tag k="id" v="2168"/><tag k="amenity" v="toilets"/><tag k="descriptio" v="WC-Anlage im 1. OG rechts hinter dem Black Out"/><tag k="municipali" v="Kreuzlingen"/><tag k="name" v="EKZ Ceha!"/><tag k="toilets_po" v="seated"/><tag k="wc_guide_i" v="2168"/><tag k="Cluster_ID" v="8"/><tag k="xyz" v="1076_1333_11"/></node><node lat="47.650234" lon="9.173241"  id="-4"  changeset="false" ><tag k="id" v="2170"/><tag k="amenity" v="toilets"/><tag k="descriptio" v="Im 1. OG rechts hinter dem Coiffeur Pierre"/><tag k="municipali" v="Kreuzlingen"/><tag k="name" v="EKZ Karussell"/><tag k="toilets_po" v="seated"/><tag k="wc_guide_i" v="2170"/><tag k="Cluster_ID" v="8"/><tag k="xyz" v="1076_1333_11"/></node><node lat="47.642262" lon="9.213238"  id="-5"  changeset="false" ><tag k="id" v="3847"/><tag k="amenity" v="toilets"/><tag k="municipali" v="Bottighofen"/><tag k="name" v="Badi Bottigofen"/><tag k="toilets_po" v="seated"/><tag k="wc_guide_i" v="3847"/><tag k="Cluster_ID" v="8"/><tag k="xyz" v="1076_1333_11"/></node><node lat="47.651043" lon="9.181459"  id="-6"  changeset="false" ><tag k="id" v="4009"/><tag k="amenity" v="toilets"/><tag k="municipali" v="Kreuzlingen"/><tag k="name" v="Spielplatz"/><tag k="toilets_po" v="seated"/><tag k="wc_guide_i" v="4009"/><tag k="Cluster_ID" v="8"/><tag k="xyz" v="1076_1333_11"/></node><node lat="47.637516" lon="9.210703"  id="-7"  changeset="false" ><tag k="id" v="21073"/><tag k="amenity" v="toilets"/><tag k="municipali" v="Bottighofen"/><tag k="name" v="Sportplatz"/><tag k="toilets_po" v="seated"/><tag k="wc_guide_i" v="21073"/><tag k="Cluster_ID" v="8"/><tag k="xyz" v="1076_1333_11"/></node></osm>