<?xml version="1.0" encoding="UTF-8"?><osm version="0.6" generator="https://github.com/Rub21/geojson2osm"><node lat="46.926994" lon="6.811518"  id="-1"  changeset="false" ><tag k="id" v="18722"/><tag k="amenity" v="toilets"/><tag k="municipali" v="Bevaix"/><tag k="name" v="Commun De Bevaix"/><tag k="toilets_po" v="seated"/><tag k="wc_guide_i" v="18722"/><tag k="Cluster_ID" v="27"/><tag k="xyz" v="1062_1327_11"/></node><node lat="46.929794" lon="6.814539"  id="-2"  changeset="false" ><tag k="id" v="18724"/><tag k="amenity" v="toilets"/><tag k="municipali" v="Bevaix"/><tag k="name" v="Commune De Bevaix"/><tag k="toilets_po" v="seated"/><tag k="wc_guide_i" v="18724"/><tag k="Cluster_ID" v="27"/><tag k="xyz" v="1062_1327_11"/></node><node lat="46.955147" lon="6.722622"  id="-3"  changeset="false" ><tag k="id" v="19425"/><tag k="amenity" v="toilets"/><tag k="municipali" v="Noiraigue"/><tag k="name" v="Bahnhof"/><tag k="toilets_po" v="seated"/><tag k="wc_guide_i" v="19425"/><tag k="Cluster_ID" v="27"/><tag k="xyz" v="1062_1327_11"/></node><node lat="46.996155" lon="6.729875"  id="-4"  changeset="false" ><tag k="id" v="19573"/><tag k="amenity" v="toilets"/><tag k="descriptio" v="?"/><tag k="municipali" v="Les Ponts-de-Martel"/><tag k="name" v="Patinoire"/><tag k="toilets_po" v="seated"/><tag k="wc_guide_i" v="19573"/><tag k="Cluster_ID" v="23"/><tag k="xyz" v="1062_1327_11"/></node><node lat="46.942722" lon="6.84661"  id="-5"  changeset="false" ><tag k="id" v="20768"/><tag k="amenity" v="toilets"/><tag k="municipali" v="Cortaillod"/><tag k="toilets_po" v="seated"/><tag k="wc_guide_i" v="20768"/><tag k="Cluster_ID" v="23"/><tag k="xyz" v="1062_1327_11"/></node></osm>