<?xml version="1.0" encoding="UTF-8"?><osm version="0.6" generator="https://github.com/Rub21/geojson2osm"><node lat="46.875687" lon="8.662933"  id="-1"  changeset="false" ><tag k="id" v="1092"/><tag k="amenity" v="toilets"/><tag k="descriptio" v="Beim Parkplatz"/><tag k="municipali" v="B�rglen"/><tag k="name" v="Kirchgemeinde"/><tag k="toilets_po" v="seated"/><tag k="wc_guide_i" v="1092"/><tag k="Cluster_ID" v="6"/><tag k="xyz" v="1073_1326_11"/></node><node lat="46.864555" lon="8.654441"  id="-2"  changeset="false" ><tag k="id" v="1231"/><tag k="amenity" v="toilets"/><tag k="municipali" v="Schattdorf"/><tag k="name" v="Bushaltestelle"/><tag k="toilets_po" v="seated"/><tag k="wc_guide_i" v="1231"/><tag k="Cluster_ID" v="6"/><tag k="xyz" v="1073_1326_11"/></node><node lat="46.820339" lon="8.650419"  id="-3"  changeset="false" ><tag k="id" v="1592"/><tag k="amenity" v="toilets"/><tag k="municipali" v="Erstfeld"/><tag k="name" v="Bahnhof"/><tag k="toilets_po" v="seated"/><tag k="wc_guide_i" v="1592"/><tag k="Cluster_ID" v="6"/><tag k="xyz" v="1073_1326_11"/></node><node lat="46.881161" lon="8.642979"  id="-4"  changeset="false" ><tag k="id" v="1612"/><tag k="amenity" v="toilets"/><tag k="municipali" v="Altdorf"/><tag k="name" v="Beim Parkplatz"/><tag k="toilets_po" v="seated"/><tag k="wc_guide_i" v="1612"/><tag k="Cluster_ID" v="6"/><tag k="xyz" v="1073_1326_11"/></node><node lat="46.865246" lon="8.655939"  id="-5"  changeset="false" ><tag k="id" v="2698"/><tag k="amenity" v="toilets"/><tag k="municipali" v="Schattdorf"/><tag k="name" v="Seilbahn"/><tag k="toilets_po" v="seated"/><tag k="wc_guide_i" v="2698"/><tag k="Cluster_ID" v="6"/><tag k="xyz" v="1073_1326_11"/></node><node lat="46.893394" lon="8.627885"  id="-6"  changeset="false" ><tag k="id" v="4712"/><tag k="amenity" v="toilets"/><tag k="municipali" v="Altdorf (UR)"/><tag k="name" v="Eggbergseilbahn"/><tag k="toilets_po" v="seated"/><tag k="wc_guide_i" v="4712"/><tag k="Cluster_ID" v="6"/><tag k="xyz" v="1073_1326_11"/></node><node lat="46.863728" lon="8.629905"  id="-7"  changeset="false" ><tag k="id" v="16432"/><tag k="amenity" v="toilets"/><tag k="municipali" v="Attinghausen"/><tag k="name" v="Bei Kirche"/><tag k="toilets_po" v="seated"/><tag k="wc_guide_i" v="16432"/><tag k="Cluster_ID" v="6"/><tag k="xyz" v="1073_1326_11"/></node><node lat="46.879745" lon="8.64258"  id="-8"  changeset="false" ><tag k="id" v="18459"/><tag k="amenity" v="toilets"/><tag k="municipali" v="Altdorf (UR)"/><tag k="name" v="Spielplatz"/><tag k="toilets_po" v="seated"/><tag k="wc_guide_i" v="18459"/><tag k="Cluster_ID" v="6"/><tag k="xyz" v="1073_1326_11"/></node><node lat="46.872395" lon="8.651037"  id="-9"  changeset="false" ><tag k="id" v="18460"/><tag k="amenity" v="toilets"/><tag k="municipali" v="B�rglen (UR)"/><tag k="name" v="Urnertor"/><tag k="toilets_po" v="seated"/><tag k="wc_guide_i" v="18460"/><tag k="Cluster_ID" v="6"/><tag k="xyz" v="1073_1326_11"/></node><node lat="46.883244" lon="8.642059"  id="-10"  changeset="false" ><tag k="id" v="18634"/><tag k="amenity" v="toilets"/><tag k="municipali" v="Altdorf (UR)"/><tag k="name" v="Friedhof hinter Kirche"/><tag k="toilets_po" v="seated"/><tag k="wc_guide_i" v="18634"/><tag k="Cluster_ID" v="6"/><tag k="xyz" v="1073_1326_11"/></node><node lat="46.863007" lon="8.656274"  id="-11"  changeset="false" ><tag k="id" v="18889"/><tag k="amenity" v="toilets"/><tag k="municipali" v="Schattdorf"/><tag k="name" v="Friedhof"/><tag k="toilets_po" v="seated"/><tag k="wc_guide_i" v="18889"/><tag k="Cluster_ID" v="6"/><tag k="xyz" v="1073_1326_11"/></node><node lat="46.846397" lon="8.632782"  id="-12"  changeset="false" ><tag k="id" v="18891"/><tag k="amenity" v="toilets"/><tag k="municipali" v="Schattdorf"/><tag k="name" v="Gotthardrastst�tte"/><tag k="toilets_po" v="seated"/><tag k="wc_guide_i" v="18891"/><tag k="Cluster_ID" v="6"/><tag k="xyz" v="1073_1326_11"/></node><node lat="46.869434" lon="8.650872"  id="-13"  changeset="false" ><tag k="id" v="18893"/><tag k="amenity" v="toilets"/><tag k="municipali" v="Schattdorf"/><tag k="name" v="Coop Tankstelle"/><tag k="toilets_po" v="seated"/><tag k="wc_guide_i" v="18893"/><tag k="Cluster_ID" v="6"/><tag k="xyz" v="1073_1326_11"/></node><node lat="46.862221" lon="8.677334"  id="-14"  changeset="false" ><tag k="id" v="19653"/><tag k="amenity" v="toilets"/><tag k="municipali" v="Haldi bei Schattdorf"/><tag k="name" v="Haldi"/><tag k="toilets_po" v="seated"/><tag k="wc_guide_i" v="19653"/><tag k="Cluster_ID" v="6"/><tag k="xyz" v="1073_1326_11"/></node><node lat="46.880917" lon="8.645545"  id="-15"  changeset="false" ><tag k="id" v="19667"/><tag k="amenity" v="toilets"/><tag k="municipali" v="Altdorf UR"/><tag k="name" v="Coop"/><tag k="toilets_po" v="seated"/><tag k="wc_guide_i" v="19667"/><tag k="Cluster_ID" v="6"/><tag k="xyz" v="1073_1326_11"/></node></osm>