<?xml version="1.0" encoding="UTF-8"?><osm version="0.6" generator="https://github.com/Rub21/geojson2osm"><node lat="46.486191" lon="6.45421"  id="-1"  changeset="false" ><tag k="id" v="3827"/><tag k="amenity" v="toilets"/><tag k="municipali" v="Saint-Prex"/><tag k="toilets_po" v="seated"/><tag k="wc_guide_i" v="3827"/><tag k="Cluster_ID" v="36"/><tag k="xyz" v="1060_1323_11"/></node><node lat="46.551559" lon="6.428784"  id="-2"  changeset="false" ><tag k="id" v="4153"/><tag k="amenity" v="toilets"/><tag k="descriptio" v="Condamn�"/><tag k="municipali" v="Apples"/><tag k="name" v="Apples"/><tag k="toilets_po" v="seated"/><tag k="wc_guide_i" v="4153"/><tag k="Cluster_ID" v="36"/><tag k="xyz" v="1060_1323_11"/></node><node lat="46.484699" lon="6.461731"  id="-3"  changeset="false" ><tag k="id" v="4273"/><tag k="amenity" v="toilets"/><tag k="municipali" v="Saint-Prex"/><tag k="name" v="Port"/><tag k="toilets_po" v="seated"/><tag k="wc_guide_i" v="4273"/><tag k="Cluster_ID" v="36"/><tag k="xyz" v="1060_1323_11"/></node><node lat="46.480457" lon="6.461205"  id="-4"  changeset="false" ><tag k="id" v="4274"/><tag k="amenity" v="toilets"/><tag k="municipali" v="Saint-Prex"/><tag k="name" v="Place d'Armes"/><tag k="toilets_po" v="seated"/><tag k="wc_guide_i" v="4274"/><tag k="Cluster_ID" v="36"/><tag k="xyz" v="1060_1323_11"/></node><node lat="46.47514" lon="6.449189"  id="-5"  changeset="false" ><tag k="id" v="4275"/><tag k="amenity" v="toilets"/><tag k="municipali" v="Saint-Prex"/><tag k="name" v="STEP"/><tag k="toilets_po" v="seated"/><tag k="wc_guide_i" v="4275"/><tag k="Cluster_ID" v="36"/><tag k="xyz" v="1060_1323_11"/></node><node lat="46.481411" lon="6.457268"  id="-6"  changeset="false" ><tag k="id" v="4277"/><tag k="amenity" v="toilets"/><tag k="municipali" v="Saint-Prex"/><tag k="toilets_po" v="seated"/><tag k="wc_guide_i" v="4277"/><tag k="Cluster_ID" v="36"/><tag k="xyz" v="1060_1323_11"/></node><node lat="46.480972" lon="6.434407"  id="-7"  changeset="false" ><tag k="id" v="4421"/><tag k="amenity" v="toilets"/><tag k="municipali" v="St-Prex Direction Lausanne"/><tag k="name" v="Aire aubonne"/><tag k="toilets_po" v="seated"/><tag k="wc_guide_i" v="4421"/><tag k="Cluster_ID" v="36"/><tag k="xyz" v="1060_1323_11"/></node><node lat="46.461643" lon="6.350489"  id="-8"  changeset="false" ><tag k="id" v="19797"/><tag k="amenity" v="toilets"/><tag k="municipali" v="Rolle"/><tag k="name" v="Plage"/><tag k="toilets_po" v="seated"/><tag k="wc_guide_i" v="19797"/><tag k="Cluster_ID" v="45"/><tag k="xyz" v="1060_1323_11"/></node><node lat="46.478771" lon="6.458555"  id="-9"  changeset="false" ><tag k="id" v="21110"/><tag k="amenity" v="toilets"/><tag k="municipali" v="St-Prex"/><tag k="name" v="Bord du lac"/><tag k="toilets_po" v="seated"/><tag k="wc_guide_i" v="21110"/><tag k="Cluster_ID" v="36"/><tag k="xyz" v="1060_1323_11"/></node></osm>