<?xml version="1.0" encoding="UTF-8"?><osm version="0.6" generator="https://github.com/Rub21/geojson2osm"><node lat="47.202923" lon="8.777733"  id="-1"  changeset="false" ><tag k="id" v="1817"/><tag k="amenity" v="toilets"/><tag k="municipali" v="Pf�ffikon SZ"/><tag k="name" v="Toillette beim Bahnhof"/><tag k="toilets_po" v="seated"/><tag k="wc_guide_i" v="1817"/><tag k="Cluster_ID" v="20"/><tag k="xyz" v="1073_1329_11"/></node><node lat="47.197754" lon="8.734718"  id="-2"  changeset="false" ><tag k="id" v="1962"/><tag k="amenity" v="toilets"/><tag k="municipali" v="Wilen SZ"/><tag k="name" v="Robinsonspielplatz"/><tag k="toilets_po" v="seated"/><tag k="wc_guide_i" v="1962"/><tag k="Cluster_ID" v="20"/><tag k="xyz" v="1073_1329_11"/></node><node lat="47.19632" lon="8.720125"  id="-3"  changeset="false" ><tag k="id" v="1979"/><tag k="amenity" v="toilets"/><tag k="municipali" v="Wollerau"/><tag k="name" v="Bushaltestelle"/><tag k="toilets_po" v="seated"/><tag k="wc_guide_i" v="1979"/><tag k="Cluster_ID" v="20"/><tag k="xyz" v="1073_1329_11"/></node><node lat="47.272102" lon="8.628473"  id="-4"  changeset="false" ><tag k="id" v="2073"/><tag k="amenity" v="toilets"/><tag k="municipali" v="Meilen"/><tag k="name" v="Horn"/><tag k="toilets_po" v="seated"/><tag k="wc_guide_i" v="2073"/><tag k="Cluster_ID" v="40"/><tag k="xyz" v="1073_1329_11"/></node><node lat="47.267742" lon="8.640276"  id="-5"  changeset="false" ><tag k="id" v="2393"/><tag k="amenity" v="toilets"/><tag k="municipali" v="Meilen"/><tag k="name" v="Schiffstation"/><tag k="toilets_po" v="seated"/><tag k="wc_guide_i" v="2393"/><tag k="Cluster_ID" v="20"/><tag k="xyz" v="1073_1329_11"/></node><node lat="47.219658" lon="8.661475"  id="-6"  changeset="false" ><tag k="id" v="2689"/><tag k="amenity" v="toilets"/><tag k="descriptio" v="Eingang �ber Cindys Diner"/><tag k="municipali" v="W�denswil"/><tag k="name" v="Rastst�tte Herrlisberg-S�d"/><tag k="toilets_po" v="seated"/><tag k="wc_guide_i" v="2689"/><tag k="Cluster_ID" v="20"/><tag k="xyz" v="1073_1329_11"/></node><node lat="47.196411" lon="8.721113"  id="-7"  changeset="false" ><tag k="id" v="3414"/><tag k="amenity" v="toilets"/><tag k="municipali" v="Wollerau"/><tag k="name" v="Parkhaus Wollerau"/><tag k="toilets_po" v="seated"/><tag k="wc_guide_i" v="3414"/><tag k="Cluster_ID" v="20"/><tag k="xyz" v="1073_1329_11"/></node><node lat="47.201126" lon="8.727576"  id="-8"  changeset="false" ><tag k="id" v="3484"/><tag k="amenity" v="toilets"/><tag k="municipali" v="B�ch"/><tag k="name" v="Bahnhof B�ch"/><tag k="toilets_po" v="seated"/><tag k="wc_guide_i" v="3484"/><tag k="Cluster_ID" v="20"/><tag k="xyz" v="1073_1329_11"/></node><node lat="47.192192" lon="8.681431"  id="-9"  changeset="false" ><tag k="id" v="3792"/><tag k="amenity" v="toilets"/><tag k="descriptio" v="�ffnungszeiten"/><tag k="municipali" v="Samstagern"/><tag k="name" v="Bahnhof"/><tag k="toilets_po" v="seated"/><tag k="wc_guide_i" v="3792"/><tag k="Cluster_ID" v="20"/><tag k="xyz" v="1073_1329_11"/></node><node lat="47.177593" lon="8.76724"  id="-10"  changeset="false" ><tag k="id" v="3912"/><tag k="amenity" v="toilets"/><tag k="municipali" v="Einsiedeln"/><tag k="name" v="Berggasthaus Etzel-Kulm"/><tag k="toilets_po" v="seated"/><tag k="wc_guide_i" v="3912"/><tag k="Cluster_ID" v="20"/><tag k="xyz" v="1073_1329_11"/></node><node lat="47.174576" lon="8.744854"  id="-11"  changeset="false" ><tag k="id" v="3913"/><tag k="amenity" v="toilets"/><tag k="municipali" v="Feusisberg"/><tag k="toilets_po" v="seated"/><tag k="wc_guide_i" v="3913"/><tag k="Cluster_ID" v="20"/><tag k="xyz" v="1073_1329_11"/></node><node lat="47.197323" lon="8.724003"  id="-12"  changeset="false" ><tag k="id" v="3943"/><tag k="amenity" v="toilets"/><tag k="municipali" v="Wollerau"/><tag k="name" v="Bushaltestelle"/><tag k="toilets_po" v="seated"/><tag k="wc_guide_i" v="3943"/><tag k="Cluster_ID" v="20"/><tag k="xyz" v="1073_1329_11"/></node><node lat="47.229263" lon="8.675233"  id="-13"  changeset="false" ><tag k="id" v="4038"/><tag k="amenity" v="toilets"/><tag k="municipali" v="W�denswil"/><tag k="name" v="Bahnhof, hinter avec"/><tag k="toilets_po" v="seated"/><tag k="wc_guide_i" v="4038"/><tag k="Cluster_ID" v="20"/><tag k="xyz" v="1073_1329_11"/></node><node lat="47.268471" lon="8.645667"  id="-14"  changeset="false" ><tag k="id" v="4439"/><tag k="amenity" v="toilets"/><tag k="descriptio" v="Laden �ffnungszeiten Migros"/><tag k="municipali" v="Meilen"/><tag k="name" v="Migros"/><tag k="toilets_po" v="seated"/><tag k="wc_guide_i" v="4439"/><tag k="Cluster_ID" v="20"/><tag k="xyz" v="1073_1329_11"/></node><node lat="47.238583" lon="8.719163"  id="-15"  changeset="false" ><tag k="id" v="16640"/><tag k="amenity" v="toilets"/><tag k="municipali" v="St�fa"/><tag k="name" v="Schiffstation am See"/><tag k="toilets_po" v="seated"/><tag k="wc_guide_i" v="16640"/><tag k="Cluster_ID" v="20"/><tag k="xyz" v="1073_1329_11"/></node><node lat="47.234264" lon="8.766314"  id="-16"  changeset="false" ><tag k="id" v="16880"/><tag k="amenity" v="toilets"/><tag k="descriptio" v="Im Kiosk-Haus"/><tag k="municipali" v="St�fa"/><tag k="toilets_po" v="seated"/><tag k="wc_guide_i" v="16880"/><tag k="Cluster_ID" v="20"/><tag k="xyz" v="1073_1329_11"/></node><node lat="47.253956" lon="8.69714"  id="-17"  changeset="false" ><tag k="id" v="19225"/><tag k="amenity" v="toilets"/><tag k="descriptio" v="Im Haus hinter der  Kirche im Erdgeschoss"/><tag k="municipali" v="M�nnedorf"/><tag k="name" v="Kirche"/><tag k="toilets_po" v="seated"/><tag k="wc_guide_i" v="19225"/><tag k="Cluster_ID" v="20"/><tag k="xyz" v="1073_1329_11"/></node><node lat="47.211765" lon="8.671831"  id="-18"  changeset="false" ><tag k="id" v="19309"/><tag k="amenity" v="toilets"/><tag k="municipali" v="W�denswil"/><tag k="name" v="Rastst�tte"/><tag k="toilets_po" v="urinal"/><tag k="wc_guide_i" v="19309"/><tag k="Cluster_ID" v="20"/><tag k="xyz" v="1073_1329_11"/></node><node lat="47.211754" lon="8.671842"  id="-19"  changeset="false" ><tag k="id" v="19310"/><tag k="amenity" v="toilets"/><tag k="municipali" v="W�denswil"/><tag k="name" v="Rastst�tte"/><tag k="toilets_po" v="seated"/><tag k="wc_guide_i" v="19310"/><tag k="Cluster_ID" v="20"/><tag k="xyz" v="1073_1329_11"/></node><node lat="47.191605" lon="8.686119"  id="-20"  changeset="false" ><tag k="id" v="19901"/><tag k="amenity" v="toilets"/><tag k="municipali" v="Samstagern"/><tag k="name" v="Bahnhof"/><tag k="toilets_po" v="seated"/><tag k="wc_guide_i" v="19901"/><tag k="Cluster_ID" v="20"/><tag k="xyz" v="1073_1329_11"/></node><node lat="47.207348" lon="8.710734"  id="-21"  changeset="false" ><tag k="id" v="20399"/><tag k="amenity" v="toilets"/><tag k="municipali" v="Richterswil"/><tag k="name" v="offen w�hrend Badesaison"/><tag k="toilets_po" v="seated"/><tag k="wc_guide_i" v="20399"/><tag k="Cluster_ID" v="20"/><tag k="xyz" v="1073_1329_11"/></node></osm>