<?xml version="1.0" encoding="UTF-8"?><osm version="0.6" generator="https://github.com/Rub21/geojson2osm"><node lat="46.967587" lon="9.5548"  id="-1"  changeset="false" ><tag k="id" v="1727"/><tag k="amenity" v="toilets"/><tag k="municipali" v="Landquart"/><tag k="name" v="Bahnhof"/><tag k="toilets_po" v="seated"/><tag k="wc_guide_i" v="1727"/><tag k="Cluster_ID" v="48"/><tag k="xyz" v="1078_1327_11"/></node><node lat="46.999004" lon="9.504664"  id="-2"  changeset="false" ><tag k="id" v="2950"/><tag k="amenity" v="toilets"/><tag k="municipali" v="Bad Ragaz"/><tag k="name" v="Parkgarage Casino"/><tag k="toilets_po" v="seated"/><tag k="wc_guide_i" v="2950"/><tag k="Cluster_ID" v="2"/><tag k="xyz" v="1078_1327_11"/></node><node lat="46.982517" lon="9.576086"  id="-3"  changeset="false" ><tag k="id" v="3207"/><tag k="amenity" v="toilets"/><tag k="municipali" v="Malans"/><tag k="name" v="Dorfplatz"/><tag k="toilets_po" v="seated"/><tag k="wc_guide_i" v="3207"/><tag k="Cluster_ID" v="48"/><tag k="xyz" v="1078_1327_11"/></node><node lat="46.999718" lon="9.500599"  id="-4"  changeset="false" ><tag k="id" v="3724"/><tag k="amenity" v="toilets"/><tag k="municipali" v="Bad Ragaz"/><tag k="name" v="Gemeindebibliothek"/><tag k="toilets_po" v="seated"/><tag k="wc_guide_i" v="3724"/><tag k="Cluster_ID" v="48"/><tag k="xyz" v="1078_1327_11"/></node><node lat="47.007977" lon="9.496769"  id="-5"  changeset="false" ><tag k="id" v="3793"/><tag k="amenity" v="toilets"/><tag k="descriptio" v="Schl�ssel Im Shop Abholen"/><tag k="municipali" v="Bad Ragaz"/><tag k="name" v="Coop Tankstelle"/><tag k="toilets_po" v="seated"/><tag k="wc_guide_i" v="3793"/><tag k="Cluster_ID" v="2"/><tag k="xyz" v="1078_1327_11"/></node><node lat="46.989288" lon="9.637474"  id="-6"  changeset="false" ><tag k="id" v="4084"/><tag k="amenity" v="toilets"/><tag k="descriptio" v="treppe rechts runter"/><tag k="municipali" v="Seewis im Pr�ttigau"/><tag k="name" v="postplatz seewis"/><tag k="toilets_po" v="seated"/><tag k="wc_guide_i" v="4084"/><tag k="Cluster_ID" v="48"/><tag k="xyz" v="1078_1327_11"/></node><node lat="46.984657" lon="9.666735"  id="-7"  changeset="false" ><tag k="id" v="4539"/><tag k="amenity" v="toilets"/><tag k="descriptio" v="neben der Kirche"/><tag k="municipali" v="Fanas"/><tag k="name" v="vor Eingang Gemeindehaus"/><tag k="toilets_po" v="seated"/><tag k="wc_guide_i" v="4539"/><tag k="Cluster_ID" v="48"/><tag k="xyz" v="1078_1327_11"/></node><node lat="46.967758" lon="9.562397"  id="-8"  changeset="false" ><tag k="id" v="18697"/><tag k="amenity" v="toilets"/><tag k="municipali" v="Landquart Fabriken"/><tag k="name" v="Socar Tankstelle"/><tag k="toilets_po" v="seated"/><tag k="wc_guide_i" v="18697"/><tag k="Cluster_ID" v="48"/><tag k="xyz" v="1078_1327_11"/></node><node lat="46.971127" lon="9.551394"  id="-9"  changeset="false" ><tag k="id" v="18848"/><tag k="amenity" v="toilets"/><tag k="municipali" v="Maienfeld"/><tag k="name" v="Coop Pronto"/><tag k="toilets_po" v="seated"/><tag k="wc_guide_i" v="18848"/><tag k="Cluster_ID" v="48"/><tag k="xyz" v="1078_1327_11"/></node><node lat="46.980556" lon="9.645873"  id="-10"  changeset="false" ><tag k="id" v="19508"/><tag k="amenity" v="toilets"/><tag k="municipali" v="Gr�sch"/><tag k="name" v="Bahnhof"/><tag k="toilets_po" v="seated"/><tag k="wc_guide_i" v="19508"/><tag k="Cluster_ID" v="48"/><tag k="xyz" v="1078_1327_11"/></node><node lat="47.011032" lon="9.496106"  id="-11"  changeset="false" ><tag k="id" v="19644"/><tag k="amenity" v="toilets"/><tag k="municipali" v="Sargans"/><tag k="name" v="Kirche"/><tag k="toilets_po" v="seated"/><tag k="wc_guide_i" v="19644"/><tag k="Cluster_ID" v="2"/><tag k="xyz" v="1078_1327_11"/></node><node lat="47.001133" lon="9.555296"  id="-12"  changeset="false" ><tag k="id" v="20624"/><tag k="amenity" v="toilets"/><tag k="municipali" v="Jenins"/><tag k="name" v="Gemeinehaus"/><tag k="toilets_po" v="seated"/><tag k="wc_guide_i" v="20624"/><tag k="Cluster_ID" v="48"/><tag k="xyz" v="1078_1327_11"/></node><node lat="46.98518" lon="9.492321"  id="-13"  changeset="false" ><tag k="id" v="21042"/><tag k="amenity" v="toilets"/><tag k="descriptio" v="Toitoi"/><tag k="municipali" v="Pf�fers"/><tag k="name" v="Schwattenfall"/><tag k="toilets_po" v="seated"/><tag k="wc_guide_i" v="21042"/><tag k="Cluster_ID" v="48"/><tag k="xyz" v="1078_1327_11"/></node></osm>