<?xml version="1.0" encoding="UTF-8"?><osm version="0.6" generator="https://github.com/Rub21/geojson2osm"><node lat="47.211185" lon="8.018389"  id="-1"  changeset="false" ><tag k="id" v="1595"/><tag k="amenity" v="toilets"/><tag k="municipali" v="Uffikon"/><tag k="name" v="Friedhof"/><tag k="toilets_po" v="seated"/><tag k="wc_guide_i" v="1595"/><tag k="Cluster_ID" v="46"/><tag k="xyz" v="1069_1329_11"/></node><node lat="47.233654" lon="8.07718"  id="-2"  changeset="false" ><tag k="id" v="1970"/><tag k="amenity" v="toilets"/><tag k="municipali" v="Triengen"/><tag k="name" v="bei der Kirche"/><tag k="toilets_po" v="seated"/><tag k="wc_guide_i" v="1970"/><tag k="Cluster_ID" v="46"/><tag k="xyz" v="1069_1329_11"/></node><node lat="47.243542" lon="7.969229"  id="-3"  changeset="false" ><tag k="id" v="2336"/><tag k="amenity" v="toilets"/><tag k="municipali" v="Reiden"/><tag k="name" v="Friedhof"/><tag k="toilets_po" v="seated"/><tag k="wc_guide_i" v="2336"/><tag k="Cluster_ID" v="46"/><tag k="xyz" v="1069_1329_11"/></node><node lat="47.169884" lon="7.989127"  id="-4"  changeset="false" ><tag k="id" v="3330"/><tag k="amenity" v="toilets"/><tag k="municipali" v="Sch�tz"/><tag k="name" v="Pfarramt"/><tag k="toilets_po" v="seated"/><tag k="wc_guide_i" v="3330"/><tag k="Cluster_ID" v="46"/><tag k="xyz" v="1069_1329_11"/></node><node lat="47.230862" lon="7.963736"  id="-5"  changeset="false" ><tag k="id" v="3655"/><tag k="amenity" v="toilets"/><tag k="municipali" v="Reiden"/><tag k="name" v="Friedhof Langnau"/><tag k="toilets_po" v="seated"/><tag k="wc_guide_i" v="3655"/><tag k="Cluster_ID" v="46"/><tag k="xyz" v="1069_1329_11"/></node><node lat="47.213631" lon="7.990661"  id="-6"  changeset="false" ><tag k="id" v="4226"/><tag k="amenity" v="toilets"/><tag k="municipali" v="Dagmersellen"/><tag k="name" v="Bei Kirche"/><tag k="toilets_po" v="seated"/><tag k="wc_guide_i" v="4226"/><tag k="Cluster_ID" v="46"/><tag k="xyz" v="1069_1329_11"/></node><node lat="47.279213" lon="7.927318"  id="-7"  changeset="false" ><tag k="id" v="4237"/><tag k="amenity" v="toilets"/><tag k="municipali" v="Strengelbach"/><tag k="name" v="Friedhof Strengelbach"/><tag k="toilets_po" v="seated"/><tag k="wc_guide_i" v="4237"/><tag k="Cluster_ID" v="46"/><tag k="xyz" v="1069_1329_11"/></node><node lat="47.184551" lon="8.013116"  id="-8"  changeset="false" ><tag k="id" v="4603"/><tag k="amenity" v="toilets"/><tag k="descriptio" v="neben Bahhof Gleis 1"/><tag k="municipali" v="Wauwil"/><tag k="name" v="Parkplatz"/><tag k="toilets_po" v="seated"/><tag k="wc_guide_i" v="4603"/><tag k="Cluster_ID" v="46"/><tag k="xyz" v="1069_1329_11"/></node><node lat="47.262897" lon="7.945442"  id="-9"  changeset="false" ><tag k="id" v="4608"/><tag k="amenity" v="toilets"/><tag k="municipali" v="Brittnau"/><tag k="name" v="Friedhof Brittnau"/><tag k="toilets_po" v="seated"/><tag k="wc_guide_i" v="4608"/><tag k="Cluster_ID" v="46"/><tag k="xyz" v="1069_1329_11"/></node><node lat="47.183983" lon="8.018948"  id="-10"  changeset="false" ><tag k="id" v="4739"/><tag k="amenity" v="toilets"/><tag k="municipali" v="Wauwil"/><tag k="name" v="Bahnhof"/><tag k="toilets_po" v="seated"/><tag k="wc_guide_i" v="4739"/><tag k="Cluster_ID" v="46"/><tag k="xyz" v="1069_1329_11"/></node><node lat="47.200153" lon="8.033202"  id="-11"  changeset="false" ><tag k="id" v="16418"/><tag k="amenity" v="toilets"/><tag k="municipali" v="Buchs LU"/><tag k="name" v="Kapelle"/><tag k="toilets_po" v="seated"/><tag k="wc_guide_i" v="16418"/><tag k="Cluster_ID" v="46"/><tag k="xyz" v="1069_1329_11"/></node><node lat="47.23695" lon="8.049307"  id="-12"  changeset="false" ><tag k="id" v="16551"/><tag k="amenity" v="toilets"/><tag k="municipali" v="Winikon"/><tag k="name" v="Friedhof"/><tag k="toilets_po" v="seated"/><tag k="wc_guide_i" v="16551"/><tag k="Cluster_ID" v="46"/><tag k="xyz" v="1069_1329_11"/></node><node lat="47.192574" lon="7.977428"  id="-13"  changeset="false" ><tag k="id" v="18318"/><tag k="amenity" v="toilets"/><tag k="municipali" v="Nebikon"/><tag k="name" v="Bahnhof"/><tag k="toilets_po" v="seated"/><tag k="wc_guide_i" v="18318"/><tag k="Cluster_ID" v="46"/><tag k="xyz" v="1069_1329_11"/></node><node lat="47.241772" lon="7.96891"  id="-14"  changeset="false" ><tag k="id" v="20008"/><tag k="amenity" v="toilets"/><tag k="municipali" v="6260 Reiden"/><tag k="name" v="Bahnhof Migrolino"/><tag k="toilets_po" v="seated"/><tag k="wc_guide_i" v="20008"/><tag k="Cluster_ID" v="46"/><tag k="xyz" v="1069_1329_11"/></node><node lat="47.19759" lon="8.064999"  id="-15"  changeset="false" ><tag k="id" v="20147"/><tag k="amenity" v="toilets"/><tag k="municipali" v="Knutwil"/><tag k="name" v="Rastplatz Knutwil-Nord"/><tag k="toilets_po" v="seated"/><tag k="wc_guide_i" v="20147"/><tag k="Cluster_ID" v="46"/><tag k="xyz" v="1069_1329_11"/></node><node lat="47.189213" lon="8.076559"  id="-16"  changeset="false" ><tag k="id" v="20148"/><tag k="amenity" v="toilets"/><tag k="municipali" v="Knutwil"/><tag k="name" v="Rastplatz"/><tag k="toilets_po" v="seated"/><tag k="wc_guide_i" v="20148"/><tag k="Cluster_ID" v="46"/><tag k="xyz" v="1069_1329_11"/></node></osm>