<?xml version="1.0" encoding="UTF-8"?><osm version="0.6" generator="https://github.com/Rub21/geojson2osm"><node lat="46.862331" lon="9.514096"  id="-1"  changeset="false" ><tag k="id" v="254"/><tag k="amenity" v="toilets"/><tag k="municipali" v="Chur"/><tag k="name" v="Altes Gaswerk"/><tag k="toilets_po" v="seated"/><tag k="wc_guide_i" v="254"/><tag k="Cluster_ID" v="48"/><tag k="xyz" v="1078_1326_11"/></node><node lat="46.871517" lon="9.543643"  id="-2"  changeset="false" ><tag k="id" v="264"/><tag k="amenity" v="toilets"/><tag k="municipali" v="Chur"/><tag k="name" v="Friedhofanlage F�rstenwald"/><tag k="toilets_po" v="seated"/><tag k="wc_guide_i" v="264"/><tag k="Cluster_ID" v="48"/><tag k="xyz" v="1078_1326_11"/></node><node lat="46.876778" lon="9.532485"  id="-3"  changeset="false" ><tag k="id" v="279"/><tag k="amenity" v="toilets"/><tag k="municipali" v="Chur"/><tag k="name" v="Spielplatz Haldenstein"/><tag k="toilets_po" v="seated"/><tag k="wc_guide_i" v="279"/><tag k="Cluster_ID" v="48"/><tag k="xyz" v="1078_1326_11"/></node><node lat="46.847168" lon="9.530404"  id="-4"  changeset="false" ><tag k="id" v="286"/><tag k="amenity" v="toilets"/><tag k="municipali" v="Chur"/><tag k="name" v="Car-Haltestelle Lindenquai"/><tag k="toilets_po" v="seated"/><tag k="wc_guide_i" v="286"/><tag k="Cluster_ID" v="48"/><tag k="xyz" v="1078_1326_11"/></node><node lat="46.859715" lon="9.537849"  id="-5"  changeset="false" ><tag k="id" v="291"/><tag k="amenity" v="toilets"/><tag k="municipali" v="Chur"/><tag k="name" v="Bushaltestelle Kreuzspital"/><tag k="toilets_po" v="seated"/><tag k="wc_guide_i" v="291"/><tag k="Cluster_ID" v="48"/><tag k="xyz" v="1078_1326_11"/></node><node lat="46.869228" lon="9.533826"  id="-6"  changeset="false" ><tag k="id" v="294"/><tag k="amenity" v="toilets"/><tag k="descriptio" v="Die Anlage ist klein und schwer auffindbar"/><tag k="municipali" v="Chur"/><tag k="name" v="Geb�ude Feuerwehrdepot Masans"/><tag k="toilets_po" v="seated"/><tag k="wc_guide_i" v="294"/><tag k="Cluster_ID" v="48"/><tag k="xyz" v="1078_1326_11"/></node><node lat="46.853413" lon="9.534792"  id="-7"  changeset="false" ><tag k="id" v="301"/><tag k="amenity" v="toilets"/><tag k="municipali" v="Chur"/><tag k="name" v="Torhaus Quaderplatz"/><tag k="toilets_po" v="seated"/><tag k="wc_guide_i" v="301"/><tag k="Cluster_ID" v="48"/><tag k="xyz" v="1078_1326_11"/></node><node lat="46.847248" lon="9.525447"  id="-8"  changeset="false" ><tag k="id" v="303"/><tag k="amenity" v="toilets"/><tag k="descriptio" v="Unterirdisch"/><tag k="municipali" v="Chur"/><tag k="name" v="Parkplatz Stadthalle"/><tag k="toilets_po" v="seated"/><tag k="wc_guide_i" v="303"/><tag k="Cluster_ID" v="48"/><tag k="xyz" v="1078_1326_11"/></node><node lat="46.856815" lon="9.534845"  id="-9"  changeset="false" ><tag k="id" v="304"/><tag k="amenity" v="toilets"/><tag k="descriptio" v="unter Bushaltest. Masanserstr"/><tag k="municipali" v="Chur"/><tag k="name" v="Turnerwiese"/><tag k="toilets_po" v="seated"/><tag k="wc_guide_i" v="304"/><tag k="Cluster_ID" v="48"/><tag k="xyz" v="1078_1326_11"/></node><node lat="46.851341" lon="9.531434"  id="-10"  changeset="false" ><tag k="id" v="1272"/><tag k="amenity" v="toilets"/><tag k="descriptio" v="1. Stock"/><tag k="municipali" v="Chur"/><tag k="name" v="Manor"/><tag k="toilets_po" v="seated"/><tag k="wc_guide_i" v="1272"/><tag k="Cluster_ID" v="48"/><tag k="xyz" v="1078_1326_11"/></node><node lat="46.817478" lon="9.606342"  id="-11"  changeset="false" ><tag k="id" v="1492"/><tag k="amenity" v="toilets"/><tag k="municipali" v="Tschiertschen"/><tag k="name" v="Altes Schulhaus"/><tag k="toilets_po" v="seated"/><tag k="wc_guide_i" v="1492"/><tag k="Cluster_ID" v="48"/><tag k="xyz" v="1078_1326_11"/></node><node lat="46.842403" lon="9.654751"  id="-12"  changeset="false" ><tag k="id" v="1667"/><tag k="amenity" v="toilets"/><tag k="descriptio" v="Beim kassenhaus"/><tag k="municipali" v="St. Peter"/><tag k="name" v="Talstation Sessellift"/><tag k="toilets_po" v="seated"/><tag k="wc_guide_i" v="1667"/><tag k="Cluster_ID" v="48"/><tag k="xyz" v="1078_1326_11"/></node><node lat="46.847065" lon="9.508581"  id="-13"  changeset="false" ><tag k="id" v="3728"/><tag k="amenity" v="toilets"/><tag k="municipali" v="Chur"/><tag k="name" v="City West Einkaufscenter"/><tag k="toilets_po" v="seated"/><tag k="wc_guide_i" v="3728"/><tag k="website" v="https://citywest-chur.ch"/><tag k="Cluster_ID" v="48"/><tag k="xyz" v="1078_1326_11"/></node><node lat="46.852818" lon="9.531748"  id="-14"  changeset="false" ><tag k="id" v="4323"/><tag k="amenity" v="toilets"/><tag k="descriptio" v="2.Stock"/><tag k="municipali" v="Chur"/><tag k="name" v="Coop City"/><tag k="toilets_po" v="seated"/><tag k="wc_guide_i" v="4323"/><tag k="Cluster_ID" v="48"/><tag k="xyz" v="1078_1326_11"/></node><node lat="46.853149" lon="9.52942"  id="-15"  changeset="false" ><tag k="id" v="4747"/><tag k="amenity" v="toilets"/><tag k="municipali" v="Chur"/><tag k="name" v="Bahnhof Chur"/><tag k="toilets_po" v="seated"/><tag k="wc_guide_i" v="4747"/><tag k="Cluster_ID" v="48"/><tag k="xyz" v="1078_1326_11"/></node><node lat="46.838879" lon="9.525627"  id="-16"  changeset="false" ><tag k="id" v="16456"/><tag k="amenity" v="toilets"/><tag k="municipali" v="Chur"/><tag k="name" v="K�nzeli Seilbahnstation UG"/><tag k="toilets_po" v="seated"/><tag k="wc_guide_i" v="16456"/><tag k="Cluster_ID" v="48"/><tag k="xyz" v="1078_1326_11"/></node><node lat="46.8316" lon="9.613368"  id="-17"  changeset="false" ><tag k="id" v="18206"/><tag k="amenity" v="toilets"/><tag k="municipali" v="L�en"/><tag k="name" v="Bahnhof L�en-Castiel"/><tag k="toilets_po" v="seated"/><tag k="wc_guide_i" v="18206"/><tag k="Cluster_ID" v="48"/><tag k="xyz" v="1078_1326_11"/></node><node lat="46.815376" lon="9.607323"  id="-18"  changeset="false" ><tag k="id" v="19109"/><tag k="amenity" v="toilets"/><tag k="municipali" v="Tschiertschen-Praden"/><tag k="name" v="Bergbahnen Tschiertschen"/><tag k="toilets_po" v="seated"/><tag k="wc_guide_i" v="19109"/><tag k="Cluster_ID" v="48"/><tag k="xyz" v="1078_1326_11"/></node><node lat="46.859272" lon="9.52215"  id="-19"  changeset="false" ><tag k="id" v="19419"/><tag k="amenity" v="toilets"/><tag k="municipali" v="Chur"/><tag k="name" v="Migros"/><tag k="toilets_po" v="seated"/><tag k="wc_guide_i" v="19419"/><tag k="Cluster_ID" v="48"/><tag k="xyz" v="1078_1326_11"/></node><node lat="46.832592" lon="9.617922"  id="-20"  changeset="false" ><tag k="id" v="20388"/><tag k="amenity" v="toilets"/><tag k="municipali" v="L�en"/><tag k="name" v="Bahnhof"/><tag k="toilets_po" v="seated"/><tag k="wc_guide_i" v="20388"/><tag k="Cluster_ID" v="48"/><tag k="xyz" v="1078_1326_11"/></node></osm>