<?xml version="1.0" encoding="UTF-8"?><osm version="0.6" generator="https://github.com/Rub21/geojson2osm"><node lat="46.781143" lon="8.668284"  id="-1"  changeset="false" ><tag k="id" v="19401"/><tag k="amenity" v="toilets"/><tag k="municipali" v="Silenen"/><tag k="name" v="Rastplatz Amsteg"/><tag k="toilets_po" v="seated"/><tag k="wc_guide_i" v="19401"/><tag k="Cluster_ID" v="49"/><tag k="xyz" v="1073_1325_11"/></node><node lat="46.77198" lon="8.641349"  id="-2"  changeset="false" ><tag k="id" v="19547"/><tag k="amenity" v="toilets"/><tag k="municipali" v="Intschi"/><tag k="name" v="Am See"/><tag k="toilets_po" v="seated"/><tag k="wc_guide_i" v="19547"/><tag k="Cluster_ID" v="49"/><tag k="xyz" v="1073_1325_11"/></node><node lat="46.760654" lon="8.649765"  id="-3"  changeset="false" ><tag k="id" v="19548"/><tag k="amenity" v="toilets"/><tag k="municipali" v="Intschi"/><tag k="name" v="Seilbahn"/><tag k="toilets_po" v="seated"/><tag k="wc_guide_i" v="19548"/><tag k="Cluster_ID" v="49"/><tag k="xyz" v="1073_1325_11"/></node></osm>