<?xml version="1.0" encoding="UTF-8"?><osm version="0.6" generator="https://github.com/Rub21/geojson2osm"><node lat="46.595573" lon="9.600849"  id="-1"  changeset="false" ><tag k="id" v="1684"/><tag k="amenity" v="toilets"/><tag k="descriptio" v="kostet 1.-"/><tag k="municipali" v="Savognin"/><tag k="name" v="Post"/><tag k="toilets_po" v="seated"/><tag k="wc_guide_i" v="1684"/><tag k="Cluster_ID" v="22"/><tag k="xyz" v="1078_1324_11"/></node><node lat="46.626366" lon="9.575531"  id="-2"  changeset="false" ><tag k="id" v="4239"/><tag k="amenity" v="toilets"/><tag k="municipali" v="Salux"/><tag k="name" v="Veia Prinzipala"/><tag k="toilets_po" v="seated"/><tag k="wc_guide_i" v="4239"/><tag k="Cluster_ID" v="22"/><tag k="xyz" v="1078_1324_11"/></node><node lat="46.596531" lon="9.591843"  id="-3"  changeset="false" ><tag k="id" v="4497"/><tag k="amenity" v="toilets"/><tag k="descriptio" v="Tempor�r verf�gbar"/><tag k="municipali" v="Savognin"/><tag k="name" v="Talstation Sesselbahn Savognin"/><tag k="toilets_po" v="seated"/><tag k="wc_guide_i" v="4497"/><tag k="Cluster_ID" v="22"/><tag k="xyz" v="1078_1324_11"/></node></osm>