<?xml version="1.0" encoding="UTF-8"?><osm version="0.6" generator="https://github.com/Rub21/geojson2osm"><node lat="47.496471" lon="8.272587"  id="-1"  changeset="false" ><tag k="id" v="691"/><tag k="amenity" v="toilets"/><tag k="municipali" v="Kirchdorf AG"/><tag k="name" v="Beim Friedhof"/><tag k="toilets_po" v="seated"/><tag k="wc_guide_i" v="691"/><tag k="Cluster_ID" v="28"/><tag k="xyz" v="1071_1331_11"/></node><node lat="47.424053" lon="8.304205"  id="-2"  changeset="false" ><tag k="id" v="1133"/><tag k="amenity" v="toilets"/><tag k="descriptio" v="Nur offen wenn auch das Gemeindezentrum ge�ffnet hat."/><tag k="municipali" v="Niederrohrdorf"/><tag k="name" v="Gemeinde Wc"/><tag k="toilets_po" v="seated"/><tag k="wc_guide_i" v="1133"/><tag k="website" v="https://www.niederrohrdorf.ch"/><tag k="Cluster_ID" v="28"/><tag k="xyz" v="1071_1331_11"/></node><node lat="47.453514" lon="8.436499"  id="-3"  changeset="false" ><tag k="id" v="1375"/><tag k="amenity" v="toilets"/><tag k="municipali" v="Buchs"/><tag k="name" v="Bahnhof"/><tag k="toilets_po" v="seated"/><tag k="wc_guide_i" v="1375"/><tag k="Cluster_ID" v="40"/><tag k="xyz" v="1071_1331_11"/></node><node lat="47.445759" lon="8.357699"  id="-4"  changeset="false" ><tag k="id" v="1539"/><tag k="amenity" v="toilets"/><tag k="municipali" v="W�renlos"/><tag k="name" v="Bahnhof W�renlos"/><tag k="toilets_po" v="seated"/><tag k="wc_guide_i" v="1539"/><tag k="Cluster_ID" v="28"/><tag k="xyz" v="1071_1331_11"/></node><node lat="47.419285" lon="8.315043"  id="-5"  changeset="false" ><tag k="id" v="1766"/><tag k="amenity" v="toilets"/><tag k="municipali" v="Oberrohrdorf"/><tag k="name" v="Kirche St. Martin"/><tag k="toilets_po" v="seated"/><tag k="wc_guide_i" v="1766"/><tag k="Cluster_ID" v="28"/><tag k="xyz" v="1071_1331_11"/></node><node lat="47.443005" lon="8.362398"  id="-6"  changeset="false" ><tag k="id" v="1882"/><tag k="amenity" v="toilets"/><tag k="municipali" v="W�renlos"/><tag k="name" v="Neben Coop"/><tag k="toilets_po" v="seated"/><tag k="wc_guide_i" v="1882"/><tag k="Cluster_ID" v="28"/><tag k="xyz" v="1071_1331_11"/></node><node lat="47.402184" lon="8.400217"  id="-7"  changeset="false" ><tag k="id" v="1978"/><tag k="amenity" v="toilets"/><tag k="municipali" v="Dietikon"/><tag k="name" v="Zelgliplatz"/><tag k="toilets_po" v="seated"/><tag k="wc_guide_i" v="1978"/><tag k="Cluster_ID" v="40"/><tag k="xyz" v="1071_1331_11"/></node><node lat="47.470875" lon="8.307185"  id="-8"  changeset="false" ><tag k="id" v="2016"/><tag k="amenity" v="toilets"/><tag k="descriptio" v="Zugang mit Lift - 1. UG"/><tag k="municipali" v="Baden"/><tag k="name" v="Parkhaus L�ndli"/><tag k="toilets_po" v="seated"/><tag k="wc_guide_i" v="2016"/><tag k="Cluster_ID" v="28"/><tag k="xyz" v="1071_1331_11"/></node><node lat="47.471737" lon="8.30889"  id="-9"  changeset="false" ><tag k="id" v="2017"/><tag k="amenity" v="toilets"/><tag k="municipali" v="Baden"/><tag k="name" v="Spielplatz untere Halde"/><tag k="toilets_po" v="seated"/><tag k="wc_guide_i" v="2017"/><tag k="Cluster_ID" v="28"/><tag k="xyz" v="1071_1331_11"/></node><node lat="47.474186" lon="8.309068"  id="-10"  changeset="false" ><tag k="id" v="2018"/><tag k="amenity" v="toilets"/><tag k="descriptio" v="1.UG"/><tag k="municipali" v="Baden"/><tag k="name" v="Parkhaus Theaterplatz"/><tag k="toilets_po" v="seated"/><tag k="wc_guide_i" v="2018"/><tag k="Cluster_ID" v="28"/><tag k="xyz" v="1071_1331_11"/></node><node lat="47.472569" lon="8.309172"  id="-11"  changeset="false" ><tag k="id" v="2326"/><tag k="amenity" v="toilets"/><tag k="municipali" v="Baden"/><tag k="toilets_po" v="seated"/><tag k="wc_guide_i" v="2326"/><tag k="Cluster_ID" v="28"/><tag k="xyz" v="1071_1331_11"/></node><node lat="47.402836" lon="8.401537"  id="-12"  changeset="false" ><tag k="id" v="2825"/><tag k="amenity" v="toilets"/><tag k="descriptio" v="M�nner WC, vis a vis Stadthaus"/><tag k="municipali" v="Dietikon"/><tag k="name" v="Stadthaus"/><tag k="toilets_po" v="urinal"/><tag k="wc_guide_i" v="2825"/><tag k="Cluster_ID" v="28"/><tag k="xyz" v="1071_1331_11"/></node><node lat="47.475357" lon="8.30707"  id="-13"  changeset="false" ><tag k="id" v="3446"/><tag k="amenity" v="toilets"/><tag k="municipali" v="Baden"/><tag k="name" v="Bahnhof"/><tag k="toilets_po" v="seated"/><tag k="wc_guide_i" v="3446"/><tag k="Cluster_ID" v="28"/><tag k="xyz" v="1071_1331_11"/></node><node lat="47.438511" lon="8.348494"  id="-14"  changeset="false" ><tag k="id" v="3580"/><tag k="amenity" v="toilets"/><tag k="municipali" v="W�renlos"/><tag k="name" v="Rastst�tte"/><tag k="toilets_po" v="seated"/><tag k="wc_guide_i" v="3580"/><tag k="Cluster_ID" v="28"/><tag k="xyz" v="1071_1331_11"/></node><node lat="47.460667" lon="8.314934"  id="-15"  changeset="false" ><tag k="id" v="3661"/><tag k="amenity" v="toilets"/><tag k="municipali" v="Wettingen"/><tag k="name" v="Bahnhof"/><tag k="toilets_po" v="seated"/><tag k="wc_guide_i" v="3661"/><tag k="Cluster_ID" v="28"/><tag k="xyz" v="1071_1331_11"/></node><node lat="47.466309" lon="8.310685"  id="-16"  changeset="false" ><tag k="id" v="3662"/><tag k="amenity" v="toilets"/><tag k="municipali" v="Wettingen"/><tag k="name" v="Schwimmbad"/><tag k="toilets_po" v="seated"/><tag k="wc_guide_i" v="3662"/><tag k="Cluster_ID" v="28"/><tag k="xyz" v="1071_1331_11"/></node><node lat="47.472221" lon="8.310288"  id="-17"  changeset="false" ><tag k="id" v="4214"/><tag k="amenity" v="toilets"/><tag k="municipali" v="Baden"/><tag k="toilets_po" v="seated"/><tag k="wc_guide_i" v="4214"/><tag k="Cluster_ID" v="28"/><tag k="xyz" v="1071_1331_11"/></node><node lat="47.476334" lon="8.308099"  id="-18"  changeset="false" ><tag k="id" v="4382"/><tag k="amenity" v="toilets"/><tag k="municipali" v="Baden"/><tag k="name" v="Migros Takeaway"/><tag k="toilets_po" v="seated"/><tag k="wc_guide_i" v="4382"/><tag k="Cluster_ID" v="28"/><tag k="xyz" v="1071_1331_11"/></node><node lat="47.406963" lon="8.396738"  id="-19"  changeset="false" ><tag k="id" v="4509"/><tag k="amenity" v="toilets"/><tag k="descriptio" v="Schl�ssel an der Kasse holen"/><tag k="municipali" v="Dietikon"/><tag k="name" v="Tamoil Tankstelle"/><tag k="toilets_po" v="seated"/><tag k="wc_guide_i" v="4509"/><tag k="Cluster_ID" v="28"/><tag k="xyz" v="1071_1331_11"/></node><node lat="47.452293" lon="8.289894"  id="-20"  changeset="false" ><tag k="id" v="4653"/><tag k="amenity" v="toilets"/><tag k="descriptio" v="Nicht immer offen"/><tag k="municipali" v="Baden"/><tag k="name" v="Neben MC Donald"/><tag k="toilets_po" v="seated"/><tag k="wc_guide_i" v="4653"/><tag k="Cluster_ID" v="28"/><tag k="xyz" v="1071_1331_11"/></node><node lat="47.456829" lon="8.282611"  id="-21"  changeset="false" ><tag k="id" v="4654"/><tag k="amenity" v="toilets"/><tag k="municipali" v="Schweiz"/><tag k="name" v="Shell Tankstelle"/><tag k="toilets_po" v="seated"/><tag k="wc_guide_i" v="4654"/><tag k="Cluster_ID" v="28"/><tag k="xyz" v="1071_1331_11"/></node><node lat="47.498219" lon="8.347516"  id="-22"  changeset="false" ><tag k="id" v="4718"/><tag k="amenity" v="toilets"/><tag k="municipali" v="Ehrendingen"/><tag k="name" v="Friedhof Gehrenhag"/><tag k="toilets_po" v="seated"/><tag k="wc_guide_i" v="4718"/><tag k="Cluster_ID" v="28"/><tag k="xyz" v="1071_1331_11"/></node><node lat="47.511734" lon="8.368018"  id="-23"  changeset="false" ><tag k="id" v="4736"/><tag k="amenity" v="toilets"/><tag k="descriptio" v="Schl�ssel verlangen"/><tag k="municipali" v="Schneisingen"/><tag k="name" v="Bahnhof, MIGROLINO"/><tag k="toilets_po" v="seated"/><tag k="wc_guide_i" v="4736"/><tag k="Cluster_ID" v="40"/><tag k="xyz" v="1071_1331_11"/></node><node lat="47.475643" lon="8.307927"  id="-24"  changeset="false" ><tag k="id" v="16526"/><tag k="amenity" v="toilets"/><tag k="descriptio" v="Im Restaurant im 2. Stock"/><tag k="municipali" v="Baden"/><tag k="name" v="Coop City"/><tag k="toilets_po" v="seated"/><tag k="wc_guide_i" v="16526"/><tag k="Cluster_ID" v="28"/><tag k="xyz" v="1071_1331_11"/></node><node lat="47.473625" lon="8.359591"  id="-25"  changeset="false" ><tag k="id" v="18717"/><tag k="amenity" v="toilets"/><tag k="municipali" v="Wettingen"/><tag k="name" v="Forsthaus"/><tag k="toilets_po" v="seated"/><tag k="wc_guide_i" v="18717"/><tag k="Cluster_ID" v="28"/><tag k="xyz" v="1071_1331_11"/></node><node lat="47.468521" lon="8.319448"  id="-26"  changeset="false" ><tag k="id" v="19033"/><tag k="amenity" v="toilets"/><tag k="municipali" v="Wettingen"/><tag k="toilets_po" v="seated"/><tag k="wc_guide_i" v="19033"/><tag k="Cluster_ID" v="28"/><tag k="xyz" v="1071_1331_11"/></node><node lat="47.478832" lon="8.318585"  id="-27"  changeset="false" ><tag k="id" v="19127"/><tag k="amenity" v="toilets"/><tag k="municipali" v="Ennetbaden"/><tag k="name" v="Friedhof"/><tag k="toilets_po" v="seated"/><tag k="wc_guide_i" v="19127"/><tag k="Cluster_ID" v="28"/><tag k="xyz" v="1071_1331_11"/></node><node lat="47.41925" lon="8.408491"  id="-28"  changeset="false" ><tag k="id" v="19500"/><tag k="amenity" v="toilets"/><tag k="municipali" v="Geroldswil"/><tag k="toilets_po" v="seated"/><tag k="wc_guide_i" v="19500"/><tag k="Cluster_ID" v="40"/><tag k="xyz" v="1071_1331_11"/></node><node lat="47.425938" lon="8.395757"  id="-29"  changeset="false" ><tag k="id" v="19988"/><tag k="amenity" v="toilets"/><tag k="municipali" v="Geroldswil"/><tag k="name" v="Fussballplatz"/><tag k="toilets_po" v="seated"/><tag k="wc_guide_i" v="19988"/><tag k="Cluster_ID" v="40"/><tag k="xyz" v="1071_1331_11"/></node><node lat="47.425873" lon="8.395817"  id="-30"  changeset="false" ><tag k="id" v="19989"/><tag k="amenity" v="toilets"/><tag k="municipali" v="W�renlos"/><tag k="name" v="Rastst�tte"/><tag k="toilets_po" v="seated"/><tag k="wc_guide_i" v="19989"/><tag k="Cluster_ID" v="40"/><tag k="xyz" v="1071_1331_11"/></node><node lat="47.41951" lon="8.311653"  id="-31"  changeset="false" ><tag k="id" v="20160"/><tag k="amenity" v="toilets"/><tag k="municipali" v="Niederrohrdorf"/><tag k="name" v="Friedhof"/><tag k="toilets_po" v="seated"/><tag k="wc_guide_i" v="20160"/><tag k="Cluster_ID" v="28"/><tag k="xyz" v="1071_1331_11"/></node><node lat="47.424957" lon="8.31336"  id="-32"  changeset="false" ><tag k="id" v="20969"/><tag k="amenity" v="toilets"/><tag k="municipali" v="Niederrohrdorf"/><tag k="toilets_po" v="seated"/><tag k="wc_guide_i" v="20969"/><tag k="Cluster_ID" v="28"/><tag k="xyz" v="1071_1331_11"/></node></osm>