<?xml version="1.0" encoding="UTF-8"?><osm version="0.6" generator="https://github.com/Rub21/geojson2osm"><node lat="47.052406" lon="7.035697"  id="-1"  changeset="false" ><tag k="id" v="3798"/><tag k="amenity" v="toilets"/><tag k="municipali" v="Cressier"/><tag k="toilets_po" v="seated"/><tag k="wc_guide_i" v="3798"/><tag k="Cluster_ID" v="23"/><tag k="xyz" v="1064_1328_11"/></node><node lat="47.08868" lon="7.203716"  id="-2"  changeset="false" ><tag k="id" v="3845"/><tag k="amenity" v="toilets"/><tag k="municipali" v="M�rigen"/><tag k="name" v="Camping M�rigen"/><tag k="toilets_po" v="seated"/><tag k="wc_guide_i" v="3845"/><tag k="Cluster_ID" v="11"/><tag k="xyz" v="1064_1328_11"/></node><node lat="47.061825" lon="7.093324"  id="-3"  changeset="false" ><tag k="id" v="3992"/><tag k="amenity" v="toilets"/><tag k="municipali" v="Neuenstadt"/><tag k="name" v="Schiffsanlegestelle"/><tag k="toilets_po" v="seated"/><tag k="wc_guide_i" v="3992"/><tag k="Cluster_ID" v="23"/><tag k="xyz" v="1064_1328_11"/></node><node lat="47.069782" lon="7.18904"  id="-4"  changeset="false" ><tag k="id" v="4409"/><tag k="amenity" v="toilets"/><tag k="municipali" v="T�uffelen"/><tag k="toilets_po" v="seated"/><tag k="wc_guide_i" v="4409"/><tag k="Cluster_ID" v="11"/><tag k="xyz" v="1064_1328_11"/></node><node lat="47.051167" lon="7.064448"  id="-5"  changeset="false" ><tag k="id" v="18445"/><tag k="amenity" v="toilets"/><tag k="municipali" v="Le Landeron"/><tag k="name" v="Vielle Ville"/><tag k="toilets_po" v="seated"/><tag k="wc_guide_i" v="18445"/><tag k="Cluster_ID" v="23"/><tag k="xyz" v="1064_1328_11"/></node><node lat="47.056271" lon="7.072191"  id="-6"  changeset="false" ><tag k="id" v="19620"/><tag k="amenity" v="toilets"/><tag k="municipali" v="Le Landeron"/><tag k="name" v="La Lagune , Piscine"/><tag k="toilets_po" v="seated"/><tag k="wc_guide_i" v="19620"/><tag k="Cluster_ID" v="23"/><tag k="xyz" v="1064_1328_11"/></node><node lat="47.059387" lon="7.066637"  id="-7"  changeset="false" ><tag k="id" v="19621"/><tag k="amenity" v="toilets"/><tag k="municipali" v="Le Landeron"/><tag k="name" v="Cimeti�re"/><tag k="toilets_po" v="seated"/><tag k="wc_guide_i" v="19621"/><tag k="Cluster_ID" v="23"/><tag k="xyz" v="1064_1328_11"/></node><node lat="47.056252" lon="7.060427"  id="-8"  changeset="false" ><tag k="id" v="19623"/><tag k="amenity" v="toilets"/><tag k="descriptio" v="� L'�tage"/><tag k="municipali" v="Le Landeron"/><tag k="name" v="Centre Migros"/><tag k="toilets_po" v="seated"/><tag k="wc_guide_i" v="19623"/><tag k="Cluster_ID" v="23"/><tag k="xyz" v="1064_1328_11"/></node><node lat="47.093727" lon="7.156533"  id="-9"  changeset="false" ><tag k="id" v="19827"/><tag k="amenity" v="toilets"/><tag k="descriptio" v="Hinten beim Kiosk Twann"/><tag k="toilets_po" v="seated"/><tag k="wc_guide_i" v="19827"/><tag k="Cluster_ID" v="11"/><tag k="xyz" v="1064_1328_11"/></node><node lat="47.094757" lon="7.156544"  id="-10"  changeset="false" ><tag k="id" v="19828"/><tag k="amenity" v="toilets"/><tag k="name" v="Bahnhof Twann"/><tag k="toilets_po" v="seated"/><tag k="wc_guide_i" v="19828"/><tag k="Cluster_ID" v="11"/><tag k="xyz" v="1064_1328_11"/></node></osm>