<?xml version="1.0" encoding="UTF-8"?><osm version="0.6" generator="https://github.com/Rub21/geojson2osm"><node lat="47.565914" lon="8.072183"  id="-1"  changeset="false" ><tag k="id" v="1994"/><tag k="amenity" v="toilets"/><tag k="municipali" v="Laufenburg (Baden)"/><tag k="name" v="Im Edeka Markt"/><tag k="toilets_po" v="seated"/><tag k="wc_guide_i" v="1994"/><tag k="Cluster_ID" v="28"/><tag k="xyz" v="1069_1332_11"/></node><node lat="47.519238" lon="8.017133"  id="-2"  changeset="false" ><tag k="id" v="2989"/><tag k="amenity" v="toilets"/><tag k="municipali" v="Oeschgen"/><tag k="name" v="Oeschgen"/><tag k="toilets_po" v="seated"/><tag k="wc_guide_i" v="2989"/><tag k="Cluster_ID" v="41"/><tag k="xyz" v="1069_1332_11"/></node><node lat="47.51923" lon="8.017144"  id="-3"  changeset="false" ><tag k="id" v="2990"/><tag k="amenity" v="toilets"/><tag k="municipali" v="Oeschgen"/><tag k="name" v="Oeschgen"/><tag k="toilets_po" v="seated"/><tag k="wc_guide_i" v="2990"/><tag k="Cluster_ID" v="41"/><tag k="xyz" v="1069_1332_11"/></node><node lat="47.555748" lon="8.061304"  id="-4"  changeset="false" ><tag k="id" v="4261"/><tag k="amenity" v="toilets"/><tag k="municipali" v="Laufenburg"/><tag k="name" v="Friedhof"/><tag k="toilets_po" v="seated"/><tag k="wc_guide_i" v="4261"/><tag k="Cluster_ID" v="41"/><tag k="xyz" v="1069_1332_11"/></node><node lat="47.532761" lon="7.987161"  id="-5"  changeset="false" ><tag k="id" v="16695"/><tag k="amenity" v="toilets"/><tag k="municipali" v="Eiken"/><tag k="name" v="Friedhof Eiken"/><tag k="toilets_po" v="seated"/><tag k="wc_guide_i" v="16695"/><tag k="Cluster_ID" v="41"/><tag k="xyz" v="1069_1332_11"/></node><node lat="47.545258" lon="7.95702"  id="-6"  changeset="false" ><tag k="id" v="19365"/><tag k="amenity" v="toilets"/><tag k="descriptio" v="Fragen im shop"/><tag k="municipali" v="Stein AG"/><tag k="name" v="Avec Tankstelle"/><tag k="toilets_po" v="seated"/><tag k="wc_guide_i" v="19365"/><tag k="Cluster_ID" v="41"/><tag k="xyz" v="1069_1332_11"/></node><node lat="47.54731" lon="7.912965"  id="-7"  changeset="false" ><tag k="id" v="20082"/><tag k="amenity" v="toilets"/><tag k="municipali" v="Mumpf"/><tag k="name" v="Friedhof"/><tag k="toilets_po" v="seated"/><tag k="wc_guide_i" v="20082"/><tag k="Cluster_ID" v="41"/><tag k="xyz" v="1069_1332_11"/></node><node lat="47.550686" lon="7.987343"  id="-8"  changeset="false" ><tag k="id" v="20806"/><tag k="amenity" v="toilets"/><tag k="municipali" v="Sisseln"/><tag k="name" v="beim Spielplatz"/><tag k="toilets_po" v="seated"/><tag k="wc_guide_i" v="20806"/><tag k="Cluster_ID" v="41"/><tag k="xyz" v="1069_1332_11"/></node></osm>