<?xml version="1.0" encoding="UTF-8"?><osm version="0.6" generator="https://github.com/Rub21/geojson2osm"><node lat="47.425537" lon="9.609166"  id="-1"  changeset="false" ><tag k="id" v="1145"/><tag k="amenity" v="toilets"/><tag k="municipali" v="Berneck"/><tag k="name" v="Werkhof"/><tag k="toilets_po" v="seated"/><tag k="wc_guide_i" v="1145"/><tag k="Cluster_ID" v="29"/><tag k="xyz" v="1078_1331_11"/></node><node lat="47.477139" lon="9.493432"  id="-2"  changeset="false" ><tag k="id" v="1148"/><tag k="amenity" v="toilets"/><tag k="municipali" v="Rorschach"/><tag k="toilets_po" v="seated"/><tag k="wc_guide_i" v="1148"/><tag k="Cluster_ID" v="29"/><tag k="xyz" v="1078_1331_11"/></node><node lat="47.4785" lon="9.49523"  id="-3"  changeset="false" ><tag k="id" v="2208"/><tag k="amenity" v="toilets"/><tag k="municipali" v="Rorschach"/><tag k="name" v="B�hne"/><tag k="toilets_po" v="seated"/><tag k="wc_guide_i" v="2208"/><tag k="Cluster_ID" v="29"/><tag k="xyz" v="1078_1331_11"/></node><node lat="47.448696" lon="9.509697"  id="-4"  changeset="false" ><tag k="id" v="2224"/><tag k="amenity" v="toilets"/><tag k="municipali" v="Grub"/><tag k="name" v="Friedhof"/><tag k="toilets_po" v="seated"/><tag k="wc_guide_i" v="2224"/><tag k="Cluster_ID" v="29"/><tag k="xyz" v="1078_1331_11"/></node><node lat="47.478016" lon="9.498925"  id="-5"  changeset="false" ><tag k="id" v="2248"/><tag k="amenity" v="toilets"/><tag k="municipali" v="Rorschach"/><tag k="toilets_po" v="seated"/><tag k="wc_guide_i" v="2248"/><tag k="Cluster_ID" v="29"/><tag k="xyz" v="1078_1331_11"/></node><node lat="47.450893" lon="9.603751"  id="-6"  changeset="false" ><tag k="id" v="2528"/><tag k="amenity" v="toilets"/><tag k="descriptio" v="Bahnhof"/><tag k="municipali" v="Walzenhausen"/><tag k="name" v="Bahnhof"/><tag k="toilets_po" v="seated"/><tag k="wc_guide_i" v="2528"/><tag k="Cluster_ID" v="29"/><tag k="xyz" v="1078_1331_11"/></node><node lat="47.479969" lon="9.528129"  id="-7"  changeset="false" ><tag k="id" v="2891"/><tag k="amenity" v="toilets"/><tag k="municipali" v="Rorschacherberg"/><tag k="name" v="H�rnlibuck"/><tag k="toilets_po" v="seated"/><tag k="wc_guide_i" v="2891"/><tag k="Cluster_ID" v="29"/><tag k="xyz" v="1078_1331_11"/></node><node lat="47.405987" lon="9.628831"  id="-8"  changeset="false" ><tag k="id" v="4243"/><tag k="amenity" v="toilets"/><tag k="municipali" v="Widnau"/><tag k="name" v="Migros"/><tag k="toilets_po" v="seated"/><tag k="wc_guide_i" v="4243"/><tag k="Cluster_ID" v="29"/><tag k="xyz" v="1078_1331_11"/></node><node lat="47.406864" lon="9.606863"  id="-9"  changeset="false" ><tag k="id" v="4294"/><tag k="amenity" v="toilets"/><tag k="descriptio" v="hinter Feuerwehrdepot"/><tag k="municipali" v="Balgach"/><tag k="name" v="Balgach Rathaus"/><tag k="toilets_po" v="seated"/><tag k="wc_guide_i" v="4294"/><tag k="Cluster_ID" v="29"/><tag k="xyz" v="1078_1331_11"/></node><node lat="47.409695" lon="9.624903"  id="-10"  changeset="false" ><tag k="id" v="4584"/><tag k="amenity" v="toilets"/><tag k="municipali" v="Heerbrugg"/><tag k="name" v="Coop"/><tag k="toilets_po" v="seated"/><tag k="wc_guide_i" v="4584"/><tag k="Cluster_ID" v="29"/><tag k="xyz" v="1078_1331_11"/></node><node lat="47.445606" lon="9.534706"  id="-11"  changeset="false" ><tag k="id" v="4717"/><tag k="amenity" v="toilets"/><tag k="municipali" v="Heiden"/><tag k="toilets_po" v="seated"/><tag k="wc_guide_i" v="4717"/><tag k="Cluster_ID" v="29"/><tag k="xyz" v="1078_1331_11"/></node><node lat="47.405506" lon="9.635388"  id="-12"  changeset="false" ><tag k="id" v="18398"/><tag k="amenity" v="toilets"/><tag k="municipali" v="Widnau"/><tag k="name" v="Gemeindeverwaltung Widnau"/><tag k="toilets_po" v="seated"/><tag k="wc_guide_i" v="18398"/><tag k="Cluster_ID" v="29"/><tag k="xyz" v="1078_1331_11"/></node><node lat="47.450977" lon="9.602"  id="-13"  changeset="false" ><tag k="id" v="18973"/><tag k="amenity" v="toilets"/><tag k="municipali" v="Walzenhausen"/><tag k="name" v="Mehrzweckanlage"/><tag k="toilets_po" v="seated"/><tag k="wc_guide_i" v="18973"/><tag k="Cluster_ID" v="29"/><tag k="xyz" v="1078_1331_11"/></node><node lat="47.421173" lon="9.553448"  id="-14"  changeset="false" ><tag k="id" v="19191"/><tag k="amenity" v="toilets"/><tag k="municipali" v="Oberegg"/><tag k="name" v="Friedhof Oberegg"/><tag k="toilets_po" v="seated"/><tag k="wc_guide_i" v="19191"/><tag k="Cluster_ID" v="29"/><tag k="xyz" v="1078_1331_11"/></node><node lat="47.477131" lon="9.49335"  id="-15"  changeset="false" ><tag k="id" v="19233"/><tag k="amenity" v="toilets"/><tag k="municipali" v="Rorschach"/><tag k="toilets_po" v="urinal"/><tag k="wc_guide_i" v="19233"/><tag k="Cluster_ID" v="29"/><tag k="xyz" v="1078_1331_11"/></node><node lat="47.460701" lon="9.602185"  id="-16"  changeset="false" ><tag k="id" v="19307"/><tag k="amenity" v="toilets"/><tag k="municipali" v="Rheineck"/><tag k="name" v="Rastst�tte"/><tag k="toilets_po" v="seated"/><tag k="wc_guide_i" v="19307"/><tag k="Cluster_ID" v="29"/><tag k="xyz" v="1078_1331_11"/></node><node lat="47.460709" lon="9.602096"  id="-17"  changeset="false" ><tag k="id" v="19308"/><tag k="amenity" v="toilets"/><tag k="municipali" v="Rheineck"/><tag k="name" v="Rastst�tte"/><tag k="toilets_po" v="urinal"/><tag k="wc_guide_i" v="19308"/><tag k="Cluster_ID" v="29"/><tag k="xyz" v="1078_1331_11"/></node><node lat="47.474182" lon="9.493035"  id="-18"  changeset="false" ><tag k="id" v="19336"/><tag k="amenity" v="toilets"/><tag k="descriptio" v="WC abgeschlossen und nur an gewissen Anl�ssen ge�ffnet"/><tag k="municipali" v="Rorschach"/><tag k="name" v="Kirchenplatz"/><tag k="toilets_po" v="seated"/><tag k="wc_guide_i" v="19336"/><tag k="Cluster_ID" v="29"/><tag k="xyz" v="1078_1331_11"/></node><node lat="47.45147" lon="9.60118"  id="-19"  changeset="false" ><tag k="id" v="20111"/><tag k="amenity" v="toilets"/><tag k="municipali" v="Walzenhausen"/><tag k="name" v="Eingang Bergbahn"/><tag k="toilets_po" v="seated"/><tag k="wc_guide_i" v="20111"/><tag k="Cluster_ID" v="29"/><tag k="xyz" v="1078_1331_11"/></node><node lat="47.459129" lon="9.521545"  id="-20"  changeset="false" ><tag k="id" v="21040"/><tag k="amenity" v="toilets"/><tag k="municipali" v="F�nfl�nderblick"/><tag k="name" v="Toitoi provisorisch"/><tag k="toilets_po" v="seated"/><tag k="wc_guide_i" v="21040"/><tag k="Cluster_ID" v="29"/><tag k="xyz" v="1078_1331_11"/></node></osm>