<?xml version="1.0" encoding="UTF-8"?><osm version="0.6" generator="https://github.com/Rub21/geojson2osm"><node lat="46.794186" lon="9.821083"  id="-1"  changeset="false" ><tag k="id" v="1301"/><tag k="amenity" v="toilets"/><tag k="descriptio" v="Erstes Untergeschoss"/><tag k="municipali" v="Davos Platz"/><tag k="name" v="R�tia Shoppingcenter"/><tag k="toilets_po" v="seated"/><tag k="wc_guide_i" v="1301"/><tag k="website" v="http://www.raetia-center.ch/"/><tag k="Cluster_ID" v="48"/><tag k="xyz" v="1079_1325_11"/></node><node lat="46.783379" lon="9.679465"  id="-2"  changeset="false" ><tag k="id" v="1762"/><tag k="amenity" v="toilets"/><tag k="municipali" v="Arosa"/><tag k="name" v="Bahnhof Arosa"/><tag k="toilets_po" v="seated"/><tag k="wc_guide_i" v="1762"/><tag k="Cluster_ID" v="48"/><tag k="xyz" v="1079_1325_11"/></node><node lat="46.798901" lon="9.827571"  id="-3"  changeset="false" ><tag k="id" v="2566"/><tag k="amenity" v="toilets"/><tag k="municipali" v="Davos"/><tag k="name" v="Kurpark"/><tag k="toilets_po" v="seated"/><tag k="wc_guide_i" v="2566"/><tag k="Cluster_ID" v="48"/><tag k="xyz" v="1079_1325_11"/></node><node lat="46.768738" lon="9.806491"  id="-4"  changeset="false" ><tag k="id" v="4463"/><tag k="amenity" v="toilets"/><tag k="descriptio" v="Vis A Vis Fleischtrocknerei Spiess"/><tag k="municipali" v="Davos Frauenkirch"/><tag k="toilets_po" v="seated"/><tag k="wc_guide_i" v="4463"/><tag k="Cluster_ID" v="48"/><tag k="xyz" v="1079_1325_11"/></node><node lat="46.797752" lon="9.822847"  id="-5"  changeset="false" ><tag k="id" v="18411"/><tag k="amenity" v="toilets"/><tag k="descriptio" v="Schr�g vis-a-vis Caf� Schneider"/><tag k="municipali" v="Davos"/><tag k="toilets_po" v="seated"/><tag k="wc_guide_i" v="18411"/><tag k="Cluster_ID" v="48"/><tag k="xyz" v="1079_1325_11"/></node></osm>