<?xml version="1.0" encoding="UTF-8"?><osm version="0.6" generator="https://github.com/Rub21/geojson2osm"><node lat="47.348698" lon="8.708171"  id="-1"  changeset="false" ><tag k="id" v="1193"/><tag k="amenity" v="toilets"/><tag k="descriptio" v="Berufsschule - hat nicht immer offen"/><tag k="municipali" v="Uster"/><tag k="name" v="Schule"/><tag k="toilets_po" v="seated"/><tag k="wc_guide_i" v="1193"/><tag k="Cluster_ID" v="40"/><tag k="xyz" v="1073_1330_11"/></node><node lat="47.348846" lon="8.714604"  id="-2"  changeset="false" ><tag k="id" v="1278"/><tag k="amenity" v="toilets"/><tag k="municipali" v="Uster"/><tag k="name" v="Stadtpark-WC"/><tag k="toilets_po" v="seated"/><tag k="wc_guide_i" v="1278"/><tag k="Cluster_ID" v="40"/><tag k="xyz" v="1073_1330_11"/></node><node lat="47.36655" lon="8.785157"  id="-3"  changeset="false" ><tag k="id" v="1359"/><tag k="amenity" v="toilets"/><tag k="municipali" v="Pf�ffikon"/><tag k="name" v="Bahnhof"/><tag k="toilets_po" v="seated"/><tag k="wc_guide_i" v="1359"/><tag k="Cluster_ID" v="40"/><tag k="xyz" v="1073_1330_11"/></node><node lat="47.36388" lon="8.78245"  id="-4"  changeset="false" ><tag k="id" v="1891"/><tag k="amenity" v="toilets"/><tag k="municipali" v="Pf�ffikon"/><tag k="name" v="Seequai bei Bootswerft"/><tag k="toilets_po" v="seated"/><tag k="wc_guide_i" v="1891"/><tag k="Cluster_ID" v="40"/><tag k="xyz" v="1073_1330_11"/></node><node lat="47.34502" lon="8.718381"  id="-5"  changeset="false" ><tag k="id" v="1902"/><tag k="amenity" v="toilets"/><tag k="municipali" v="Uster"/><tag k="name" v="Schlossweg"/><tag k="toilets_po" v="seated"/><tag k="wc_guide_i" v="1902"/><tag k="Cluster_ID" v="40"/><tag k="xyz" v="1073_1330_11"/></node><node lat="47.367188" lon="8.784378"  id="-6"  changeset="false" ><tag k="id" v="2245"/><tag k="amenity" v="toilets"/><tag k="municipali" v="Pf�ffikon (ZH)"/><tag k="name" v="Bahnhof Pf�ffikon ZH"/><tag k="toilets_po" v="seated"/><tag k="wc_guide_i" v="2245"/><tag k="Cluster_ID" v="40"/><tag k="xyz" v="1073_1330_11"/></node><node lat="47.332191" lon="8.623543"  id="-7"  changeset="false" ><tag k="id" v="2290"/><tag k="amenity" v="toilets"/><tag k="municipali" v="Zumikon"/><tag k="name" v="Dorfplatz Parkhaus"/><tag k="toilets_po" v="seated"/><tag k="wc_guide_i" v="2290"/><tag k="Cluster_ID" v="40"/><tag k="xyz" v="1073_1330_11"/></node><node lat="47.38501" lon="8.750095"  id="-8"  changeset="false" ><tag k="id" v="2334"/><tag k="amenity" v="toilets"/><tag k="descriptio" v="Automat"/><tag k="municipali" v="Fehraltorf"/><tag k="name" v="Bahnhof"/><tag k="toilets_po" v="seated"/><tag k="wc_guide_i" v="2334"/><tag k="Cluster_ID" v="40"/><tag k="xyz" v="1073_1330_11"/></node><node lat="47.386967" lon="8.688965"  id="-9"  changeset="false" ><tag k="id" v="3371"/><tag k="amenity" v="toilets"/><tag k="municipali" v="Volketswil"/><tag k="name" v="Friedhof"/><tag k="toilets_po" v="seated"/><tag k="wc_guide_i" v="3371"/><tag k="Cluster_ID" v="40"/><tag k="xyz" v="1073_1330_11"/></node><node lat="47.305527" lon="8.768579"  id="-10"  changeset="false" ><tag k="id" v="4267"/><tag k="amenity" v="toilets"/><tag k="municipali" v="Gossau ZH"/><tag k="name" v="AGROLA Tankstelle"/><tag k="toilets_po" v="seated"/><tag k="wc_guide_i" v="4267"/><tag k="Cluster_ID" v="20"/><tag k="xyz" v="1073_1330_11"/></node><node lat="47.349415" lon="8.715564"  id="-11"  changeset="false" ><tag k="id" v="4472"/><tag k="amenity" v="toilets"/><tag k="descriptio" v="W�hrend Einkaufszentren Illuster"/><tag k="municipali" v="Uster"/><tag k="name" v="Illuster"/><tag k="toilets_po" v="seated"/><tag k="wc_guide_i" v="4472"/><tag k="Cluster_ID" v="40"/><tag k="xyz" v="1073_1330_11"/></node><node lat="47.308918" lon="8.718456"  id="-12"  changeset="false" ><tag k="id" v="16390"/><tag k="amenity" v="toilets"/><tag k="descriptio" v="ToiToi"/><tag k="municipali" v="M�nchaltorf"/><tag k="name" v="Schulhausplatz"/><tag k="toilets_po" v="seated"/><tag k="wc_guide_i" v="16390"/><tag k="Cluster_ID" v="20"/><tag k="xyz" v="1073_1330_11"/></node><node lat="47.359932" lon="8.725383"  id="-13"  changeset="false" ><tag k="id" v="16408"/><tag k="amenity" v="toilets"/><tag k="descriptio" v="Schiedsrichter Toilette Ist Immer Offen"/><tag k="municipali" v="Uster"/><tag k="name" v="Uster Sportzentrum Buchholz"/><tag k="toilets_po" v="seated"/><tag k="wc_guide_i" v="16408"/><tag k="Cluster_ID" v="40"/><tag k="xyz" v="1073_1330_11"/></node><node lat="47.324005" lon="8.6521"  id="-14"  changeset="false" ><tag k="id" v="16479"/><tag k="amenity" v="toilets"/><tag k="municipali" v="Forch"/><tag k="name" v="Parkplatz"/><tag k="toilets_po" v="seated"/><tag k="wc_guide_i" v="16479"/><tag k="Cluster_ID" v="40"/><tag k="xyz" v="1073_1330_11"/></node><node lat="47.344177" lon="8.774778"  id="-15"  changeset="false" ><tag k="id" v="16511"/><tag k="amenity" v="toilets"/><tag k="descriptio" v="Einfaches gratis Stehklo"/><tag k="municipali" v="Seegr�ben"/><tag k="name" v="Badi Seegr�ben"/><tag k="toilets_po" v="seated"/><tag k="wc_guide_i" v="16511"/><tag k="Cluster_ID" v="40"/><tag k="xyz" v="1073_1330_11"/></node><node lat="47.342064" lon="8.775001"  id="-16"  changeset="false" ><tag k="id" v="16532"/><tag k="amenity" v="toilets"/><tag k="descriptio" v="Einfaches gratis Stehklo In der Badesaison immer offen"/><tag k="municipali" v="Seegr�ben"/><tag k="name" v="Seebadi Seegr�ben"/><tag k="toilets_po" v="seated"/><tag k="wc_guide_i" v="16532"/><tag k="Cluster_ID" v="40"/><tag k="xyz" v="1073_1330_11"/></node><node lat="47.348255" lon="8.717231"  id="-17"  changeset="false" ><tag k="id" v="18207"/><tag k="amenity" v="toilets"/><tag k="descriptio" v="Im 1. Obergeschoss. Mit Rolltreppe oder Aufzug erreichbar."/><tag k="municipali" v="Uster"/><tag k="name" v="Einkaufszentrum: Uschter 77"/><tag k="toilets_po" v="seated"/><tag k="wc_guide_i" v="18207"/><tag k="website" v="http://www.uschter77.ch"/><tag k="Cluster_ID" v="40"/><tag k="xyz" v="1073_1330_11"/></node><node lat="47.324909" lon="8.648164"  id="-18"  changeset="false" ><tag k="id" v="18664"/><tag k="amenity" v="toilets"/><tag k="municipali" v="K�snacht ZH"/><tag k="name" v="Haltestelle Forch"/><tag k="toilets_po" v="seated"/><tag k="wc_guide_i" v="18664"/><tag k="Cluster_ID" v="40"/><tag k="xyz" v="1073_1330_11"/></node><node lat="47.367668" lon="8.772571"  id="-19"  changeset="false" ><tag k="id" v="19275"/><tag k="amenity" v="toilets"/><tag k="municipali" v="Pf�ffikon"/><tag k="name" v="Friedhof Pf�ffikon ZH"/><tag k="toilets_po" v="seated"/><tag k="wc_guide_i" v="19275"/><tag k="Cluster_ID" v="40"/><tag k="xyz" v="1073_1330_11"/></node><node lat="47.284939" lon="8.619257"  id="-20"  changeset="false" ><tag k="id" v="20678"/><tag k="amenity" v="toilets"/><tag k="municipali" v="Herrliberg"/><tag k="name" v="Friedhof"/><tag k="toilets_po" v="seated"/><tag k="wc_guide_i" v="20678"/><tag k="Cluster_ID" v="40"/><tag k="xyz" v="1073_1330_11"/></node><node lat="47.369438" lon="8.782217"  id="-21"  changeset="false" ><tag k="id" v="20781"/><tag k="amenity" v="toilets"/><tag k="municipali" v="Pf�ffikon"/><tag k="toilets_po" v="seated"/><tag k="wc_guide_i" v="20781"/><tag k="Cluster_ID" v="40"/><tag k="xyz" v="1073_1330_11"/></node><node lat="47.367157" lon="8.672855"  id="-22"  changeset="false" ><tag k="id" v="20823"/><tag k="amenity" v="toilets"/><tag k="municipali" v="Greifensee"/><tag k="name" v="Badi Greifensee"/><tag k="toilets_po" v="seated"/><tag k="wc_guide_i" v="20823"/><tag k="Cluster_ID" v="40"/><tag k="xyz" v="1073_1330_11"/></node></osm>