<?xml version="1.0" encoding="UTF-8"?><osm version="0.6" generator="https://github.com/Rub21/geojson2osm"><node lat="47.362625" lon="7.340129"  id="-1"  changeset="false" ><tag k="id" v="2441"/><tag k="amenity" v="toilets"/><tag k="municipali" v="Del�mont"/><tag k="name" v="Entr�e parking Gros Pr�"/><tag k="toilets_po" v="seated"/><tag k="wc_guide_i" v="2441"/><tag k="Cluster_ID" v="13"/><tag k="xyz" v="1065_1330_11"/></node><node lat="47.366882" lon="7.342401"  id="-2"  changeset="false" ><tag k="id" v="19687"/><tag k="amenity" v="toilets"/><tag k="municipali" v="Del�mont"/><tag k="name" v="ARTsenal (b�timent c�t� nord)"/><tag k="toilets_po" v="seated"/><tag k="wc_guide_i" v="19687"/><tag k="Cluster_ID" v="13"/><tag k="xyz" v="1065_1330_11"/></node><node lat="47.379639" lon="7.358228"  id="-3"  changeset="false" ><tag k="id" v="19688"/><tag k="amenity" v="toilets"/><tag k="descriptio" v="contourner la chapelle"/><tag k="municipali" v="Del�mont"/><tag k="name" v="Chapelle du Vorbourg (c�t� nord)"/><tag k="toilets_po" v="seated"/><tag k="wc_guide_i" v="19688"/><tag k="Cluster_ID" v="13"/><tag k="xyz" v="1065_1330_11"/></node><node lat="47.363365" lon="7.342653"  id="-4"  changeset="false" ><tag k="id" v="19749"/><tag k="amenity" v="toilets"/><tag k="descriptio" v="Toilettes souvent ferm�es"/><tag k="municipali" v="Del�mont"/><tag k="name" v="Orangerie - Jardins du Ch�teau"/><tag k="toilets_po" v="seated"/><tag k="wc_guide_i" v="19749"/><tag k="Cluster_ID" v="13"/><tag k="xyz" v="1065_1330_11"/></node><node lat="47.363544" lon="7.346387"  id="-5"  changeset="false" ><tag k="id" v="19780"/><tag k="amenity" v="toilets"/><tag k="descriptio" v="Acc�s parking 1er �tage"/><tag k="municipali" v="Del�mont"/><tag k="name" v="Centre commercial Migros"/><tag k="toilets_po" v="seated"/><tag k="wc_guide_i" v="19780"/><tag k="Cluster_ID" v="13"/><tag k="xyz" v="1065_1330_11"/></node><node lat="47.335121" lon="7.209123"  id="-6"  changeset="false" ><tag k="id" v="20733"/><tag k="amenity" v="toilets"/><tag k="municipali" v="Glovelier"/><tag k="name" v="Gare"/><tag k="toilets_po" v="seated"/><tag k="wc_guide_i" v="20733"/><tag k="Cluster_ID" v="31"/><tag k="xyz" v="1065_1330_11"/></node><node lat="47.356617" lon="7.294569"  id="-7"  changeset="false" ><tag k="id" v="20766"/><tag k="amenity" v="toilets"/><tag k="municipali" v="Develier"/><tag k="name" v="Eglise"/><tag k="toilets_po" v="seated"/><tag k="wc_guide_i" v="20766"/><tag k="Cluster_ID" v="13"/><tag k="xyz" v="1065_1330_11"/></node><node lat="47.340397" lon="7.372944"  id="-8"  changeset="false" ><tag k="id" v="20901"/><tag k="amenity" v="toilets"/><tag k="municipali" v="Courrendlin"/><tag k="name" v="� c�t� De L'eglise"/><tag k="toilets_po" v="seated"/><tag k="wc_guide_i" v="20901"/><tag k="Cluster_ID" v="13"/><tag k="xyz" v="1065_1330_11"/></node><node lat="47.361107" lon="7.356237"  id="-9"  changeset="false" ><tag k="id" v="21076"/><tag k="amenity" v="toilets"/><tag k="descriptio" v="Entr�e � droite, Beim Eingang rechts"/><tag k="municipali" v="Del�mont"/><tag k="name" v="M Parc"/><tag k="toilets_po" v="seated"/><tag k="wc_guide_i" v="21076"/><tag k="Cluster_ID" v="13"/><tag k="xyz" v="1065_1330_11"/></node></osm>