<?xml version="1.0" encoding="UTF-8"?><osm version="0.6" generator="https://github.com/Rub21/geojson2osm"><node lat="47.299488" lon="9.086372"  id="-1"  changeset="false" ><tag k="id" v="1191"/><tag k="amenity" v="toilets"/><tag k="municipali" v="Wattwil"/><tag k="name" v="Bahnhof"/><tag k="toilets_po" v="seated"/><tag k="wc_guide_i" v="1191"/><tag k="Cluster_ID" v="20"/><tag k="xyz" v="1075_1330_11"/></node><node lat="47.285099" lon="8.99587"  id="-2"  changeset="false" ><tag k="id" v="1354"/><tag k="amenity" v="toilets"/><tag k="descriptio" v="Mit Dusche und Waschraum (letzteres kostenpflichtig)"/><tag k="municipali" v="St. Gallenkappel"/><tag k="name" v="Camping WC-Anlage"/><tag k="toilets_po" v="seated"/><tag k="wc_guide_i" v="1354"/><tag k="Cluster_ID" v="20"/><tag k="xyz" v="1075_1330_11"/></node><node lat="47.286247" lon="8.997663"  id="-3"  changeset="false" ><tag k="id" v="1355"/><tag k="amenity" v="toilets"/><tag k="municipali" v="St. Gallenkappel"/><tag k="toilets_po" v="seated"/><tag k="wc_guide_i" v="1355"/><tag k="Cluster_ID" v="20"/><tag k="xyz" v="1075_1330_11"/></node><node lat="47.39352" lon="9.075125"  id="-4"  changeset="false" ><tag k="id" v="2439"/><tag k="amenity" v="toilets"/><tag k="descriptio" v="Dixi-WC"/><tag k="municipali" v="Oberrindal"/><tag k="name" v="Parkplatz bei der alten Holzbr�cke"/><tag k="toilets_po" v="seated"/><tag k="wc_guide_i" v="2439"/><tag k="Cluster_ID" v="3"/><tag k="xyz" v="1075_1330_11"/></node><node lat="47.336845" lon="9.130497"  id="-5"  changeset="false" ><tag k="id" v="2513"/><tag k="amenity" v="toilets"/><tag k="municipali" v="Brunnadern"/><tag k="name" v="Bahnhof"/><tag k="toilets_po" v="seated"/><tag k="wc_guide_i" v="2513"/><tag k="Cluster_ID" v="3"/><tag k="xyz" v="1075_1330_11"/></node><node lat="47.337631" lon="9.130329"  id="-6"  changeset="false" ><tag k="id" v="2619"/><tag k="amenity" v="toilets"/><tag k="descriptio" v="7-17 Uh"/><tag k="municipali" v="Brunnadern"/><tag k="name" v="Bahnhof Brunnadern Neckertal"/><tag k="toilets_po" v="seated"/><tag k="wc_guide_i" v="2619"/><tag k="Cluster_ID" v="3"/><tag k="xyz" v="1075_1330_11"/></node><node lat="47.36026" lon="9.135606"  id="-7"  changeset="false" ><tag k="id" v="16414"/><tag k="amenity" v="toilets"/><tag k="municipali" v="Mogelsberg"/><tag k="name" v="Friedhof bei Kirche"/><tag k="toilets_po" v="seated"/><tag k="wc_guide_i" v="16414"/><tag k="Cluster_ID" v="3"/><tag k="xyz" v="1075_1330_11"/></node><node lat="47.32875" lon="9.02177"  id="-8"  changeset="false" ><tag k="id" v="21193"/><tag k="amenity" v="toilets"/><tag k="municipali" v="Libingen"/><tag k="name" v="Mehrzweckgeb�ude Libingen"/><tag k="toilets_po" v="seated"/><tag k="wc_guide_i" v="21193"/><tag k="Cluster_ID" v="3"/><tag k="xyz" v="1075_1330_11"/></node></osm>