<?xml version="1.0" encoding="UTF-8"?><osm version="0.6" generator="https://github.com/Rub21/geojson2osm"><node lat="46.203804" lon="6.152945"  id="-1"  changeset="false" ><tag k="id" v="2250"/><tag k="amenity" v="toilets"/><tag k="municipali" v="Genf"/><tag k="name" v="F�te de Gen�ve - 13.08.2011"/><tag k="toilets_po" v="seated"/><tag k="wc_guide_i" v="2250"/><tag k="Cluster_ID" v="45"/><tag k="xyz" v="1059_1321_11"/></node><node lat="46.208481" lon="6.163917"  id="-2"  changeset="false" ><tag k="id" v="2854"/><tag k="amenity" v="toilets"/><tag k="municipali" v="Gen�ve"/><tag k="name" v="Baby Plage"/><tag k="toilets_po" v="seated"/><tag k="wc_guide_i" v="2854"/><tag k="Cluster_ID" v="45"/><tag k="xyz" v="1059_1321_11"/></node><node lat="46.287067" lon="6.169418"  id="-3"  changeset="false" ><tag k="id" v="4026"/><tag k="amenity" v="toilets"/><tag k="municipali" v="Versoix"/><tag k="name" v="buvette Moby Dick"/><tag k="toilets_po" v="seated"/><tag k="wc_guide_i" v="4026"/><tag k="Cluster_ID" v="45"/><tag k="xyz" v="1059_1321_11"/></node><node lat="46.275112" lon="6.169273"  id="-4"  changeset="false" ><tag k="id" v="4028"/><tag k="amenity" v="toilets"/><tag k="municipali" v="Versoix"/><tag k="name" v="La Becassine"/><tag k="toilets_po" v="seated"/><tag k="wc_guide_i" v="4028"/><tag k="Cluster_ID" v="45"/><tag k="xyz" v="1059_1321_11"/></node><node lat="46.264275" lon="6.162968"  id="-5"  changeset="false" ><tag k="id" v="4269"/><tag k="amenity" v="toilets"/><tag k="municipali" v="Genthod"/><tag k="name" v="Creux-de-Genthod"/><tag k="toilets_po" v="seated"/><tag k="wc_guide_i" v="4269"/><tag k="Cluster_ID" v="45"/><tag k="xyz" v="1059_1321_11"/></node><node lat="46.204262" lon="6.154773"  id="-6"  changeset="false" ><tag k="id" v="4291"/><tag k="amenity" v="toilets"/><tag k="municipali" v="Gen�ve"/><tag k="name" v="Quai Marchand des Eaux-Vives"/><tag k="toilets_po" v="seated"/><tag k="wc_guide_i" v="4291"/><tag k="Cluster_ID" v="45"/><tag k="xyz" v="1059_1321_11"/></node><node lat="46.304779" lon="6.181104"  id="-7"  changeset="false" ><tag k="id" v="16395"/><tag k="amenity" v="toilets"/><tag k="municipali" v="Tannay"/><tag k="name" v="Buvette De La Plage De Tannay"/><tag k="toilets_po" v="seated"/><tag k="wc_guide_i" v="16395"/><tag k="Cluster_ID" v="45"/><tag k="xyz" v="1059_1321_11"/></node><node lat="46.197128" lon="6.188965"  id="-8"  changeset="false" ><tag k="id" v="18974"/><tag k="amenity" v="toilets"/><tag k="descriptio" v="D�but du Chemin de la Bessonnette"/><tag k="municipali" v="Ch�ne-Bougeries"/><tag k="name" v="Avant le parc"/><tag k="toilets_po" v="seated"/><tag k="wc_guide_i" v="18974"/><tag k="Cluster_ID" v="45"/><tag k="xyz" v="1059_1321_11"/></node><node lat="46.202682" lon="6.156486"  id="-9"  changeset="false" ><tag k="id" v="19742"/><tag k="amenity" v="toilets"/><tag k="municipali" v="Gen�ve"/><tag k="name" v="Place Eaux Vives"/><tag k="toilets_po" v="seated"/><tag k="wc_guide_i" v="19742"/><tag k="Cluster_ID" v="45"/><tag k="xyz" v="1059_1321_11"/></node><node lat="46.216255" lon="6.181141"  id="-10"  changeset="false" ><tag k="id" v="20456"/><tag k="amenity" v="toilets"/><tag k="descriptio" v="Devant l'�glise, Descendre les escaliers"/><tag k="municipali" v="Cologny"/><tag k="name" v="Devant Eglise"/><tag k="toilets_po" v="seated"/><tag k="wc_guide_i" v="20456"/><tag k="Cluster_ID" v="45"/><tag k="xyz" v="1059_1321_11"/></node><node lat="46.196449" lon="6.194211"  id="-11"  changeset="false" ><tag k="id" v="21105"/><tag k="amenity" v="toilets"/><tag k="municipali" v="Ch�ne-Bourg"/><tag k="name" v="Migros 1er �tage"/><tag k="toilets_po" v="seated"/><tag k="wc_guide_i" v="21105"/><tag k="Cluster_ID" v="45"/><tag k="xyz" v="1059_1321_11"/></node></osm>