<?xml version="1.0" encoding="UTF-8"?><osm version="0.6" generator="https://github.com/Rub21/geojson2osm"><node lat="46.763451" lon="10.096328"  id="-1"  changeset="false" ><tag k="id" v="2292"/><tag k="amenity" v="toilets"/><tag k="municipali" v="Susch"/><tag k="name" v="RHB Autoverlad Sagliains"/><tag k="toilets_po" v="seated"/><tag k="wc_guide_i" v="2292"/><tag k="Cluster_ID" v="47"/><tag k="xyz" v="1081_1325_11"/></node><node lat="46.775558" lon="10.113986"  id="-2"  changeset="false" ><tag k="id" v="3925"/><tag k="amenity" v="toilets"/><tag k="municipali" v="Schweiz"/><tag k="name" v="Staziun RHB"/><tag k="toilets_po" v="seated"/><tag k="wc_guide_i" v="3925"/><tag k="Cluster_ID" v="47"/><tag k="xyz" v="1081_1325_11"/></node><node lat="46.69817" lon="10.089956"  id="-3"  changeset="false" ><tag k="id" v="19436"/><tag k="amenity" v="toilets"/><tag k="municipali" v="Zernez"/><tag k="name" v="RHB Bahnhof Zernez"/><tag k="toilets_po" v="seated"/><tag k="wc_guide_i" v="19436"/><tag k="Cluster_ID" v="47"/><tag k="xyz" v="1081_1325_11"/></node></osm>