<?xml version="1.0" encoding="UTF-8"?><osm version="0.6" generator="https://github.com/Rub21/geojson2osm"><node lat="47.010235" lon="6.986533"  id="-1"  changeset="false" ><tag k="id" v="2750"/><tag k="amenity" v="toilets"/><tag k="municipali" v="St. Blaise"/><tag k="name" v="Port de St-Blaise"/><tag k="toilets_po" v="seated"/><tag k="wc_guide_i" v="2750"/><tag k="Cluster_ID" v="23"/><tag k="xyz" v="1063_1327_11"/></node><node lat="47.003677" lon="6.96293"  id="-2"  changeset="false" ><tag k="id" v="3476"/><tag k="amenity" v="toilets"/><tag k="municipali" v="Neuch�tel"/><tag k="toilets_po" v="seated"/><tag k="wc_guide_i" v="3476"/><tag k="Cluster_ID" v="23"/><tag k="xyz" v="1063_1327_11"/></node><node lat="46.996101" lon="6.948477"  id="-3"  changeset="false" ><tag k="id" v="3698"/><tag k="amenity" v="toilets"/><tag k="municipali" v="Neuch�tel"/><tag k="name" v="Toilettes Du Port"/><tag k="toilets_po" v="seated"/><tag k="wc_guide_i" v="3698"/><tag k="Cluster_ID" v="23"/><tag k="xyz" v="1063_1327_11"/></node><node lat="46.997128" lon="6.945505"  id="-4"  changeset="false" ><tag k="id" v="3699"/><tag k="amenity" v="toilets"/><tag k="municipali" v="Neuch�tel"/><tag k="name" v="Centre Maladi�re"/><tag k="toilets_po" v="seated"/><tag k="wc_guide_i" v="3699"/><tag k="Cluster_ID" v="23"/><tag k="xyz" v="1063_1327_11"/></node><node lat="46.986141" lon="6.889358"  id="-5"  changeset="false" ><tag k="id" v="3701"/><tag k="amenity" v="toilets"/><tag k="municipali" v="Peseux"/><tag k="name" v="Toilettes Migros"/><tag k="toilets_po" v="seated"/><tag k="wc_guide_i" v="3701"/><tag k="Cluster_ID" v="23"/><tag k="xyz" v="1063_1327_11"/></node><node lat="46.975159" lon="6.881905"  id="-6"  changeset="false" ><tag k="id" v="3717"/><tag k="amenity" v="toilets"/><tag k="descriptio" v="Auvernier"/><tag k="municipali" v="Auvernier"/><tag k="name" v="Auvernier"/><tag k="toilets_po" v="seated"/><tag k="wc_guide_i" v="3717"/><tag k="Cluster_ID" v="23"/><tag k="xyz" v="1063_1327_11"/></node><node lat="46.983521" lon="6.884547"  id="-7"  changeset="false" ><tag k="id" v="4391"/><tag k="amenity" v="toilets"/><tag k="municipali" v="Corcelles-Cormondr�che"/><tag k="name" v="Gare Peseux"/><tag k="toilets_po" v="seated"/><tag k="wc_guide_i" v="4391"/><tag k="Cluster_ID" v="23"/><tag k="xyz" v="1063_1327_11"/></node><node lat="46.986515" lon="6.889724"  id="-8"  changeset="false" ><tag k="id" v="4392"/><tag k="amenity" v="toilets"/><tag k="descriptio" v="� c�t� du bar l'Il�t"/><tag k="municipali" v="Peseux"/><tag k="name" v="Cap2000"/><tag k="toilets_po" v="seated"/><tag k="wc_guide_i" v="4392"/><tag k="Cluster_ID" v="23"/><tag k="xyz" v="1063_1327_11"/></node><node lat="46.993526" lon="6.928028"  id="-9"  changeset="false" ><tag k="id" v="4393"/><tag k="amenity" v="toilets"/><tag k="descriptio" v="� c�t� du bar dans le parking"/><tag k="municipali" v="Neuch�tel"/><tag k="name" v="Parking du Seyon"/><tag k="toilets_po" v="seated"/><tag k="wc_guide_i" v="4393"/><tag k="Cluster_ID" v="23"/><tag k="xyz" v="1063_1327_11"/></node><node lat="47.015549" lon="6.906085"  id="-10"  changeset="false" ><tag k="id" v="4396"/><tag k="amenity" v="toilets"/><tag k="municipali" v="Valangin"/><tag k="toilets_po" v="seated"/><tag k="wc_guide_i" v="4396"/><tag k="Cluster_ID" v="23"/><tag k="xyz" v="1063_1327_11"/></node><node lat="46.980877" lon="6.904995"  id="-11"  changeset="false" ><tag k="id" v="4582"/><tag k="amenity" v="toilets"/><tag k="municipali" v="Neuch�tel"/><tag k="toilets_po" v="seated"/><tag k="wc_guide_i" v="4582"/><tag k="Cluster_ID" v="23"/><tag k="xyz" v="1063_1327_11"/></node><node lat="46.975533" lon="6.878689"  id="-12"  changeset="false" ><tag k="id" v="16516"/><tag k="amenity" v="toilets"/><tag k="municipali" v="Auvernier"/><tag k="toilets_po" v="seated"/><tag k="wc_guide_i" v="16516"/><tag k="Cluster_ID" v="23"/><tag k="xyz" v="1063_1327_11"/></node><node lat="46.991199" lon="6.923347"  id="-13"  changeset="false" ><tag k="id" v="16519"/><tag k="amenity" v="toilets"/><tag k="municipali" v="Neuenburg"/><tag k="toilets_po" v="seated"/><tag k="wc_guide_i" v="16519"/><tag k="Cluster_ID" v="23"/><tag k="xyz" v="1063_1327_11"/></node><node lat="46.990387" lon="6.919016"  id="-14"  changeset="false" ><tag k="id" v="16520"/><tag k="amenity" v="toilets"/><tag k="municipali" v="Neuenburg"/><tag k="toilets_po" v="seated"/><tag k="wc_guide_i" v="16520"/><tag k="Cluster_ID" v="23"/><tag k="xyz" v="1063_1327_11"/></node><node lat="46.997978" lon="6.937234"  id="-15"  changeset="false" ><tag k="id" v="16521"/><tag k="amenity" v="toilets"/><tag k="municipali" v="Neuenburg"/><tag k="toilets_po" v="seated"/><tag k="wc_guide_i" v="16521"/><tag k="Cluster_ID" v="23"/><tag k="xyz" v="1063_1327_11"/></node><node lat="46.98362" lon="6.911903"  id="-16"  changeset="false" ><tag k="id" v="18311"/><tag k="amenity" v="toilets"/><tag k="descriptio" v="Sous le pont pour pi�tons - C�t� lac"/><tag k="municipali" v="Neuch�tel"/><tag k="name" v="Plage de Serriere"/><tag k="toilets_po" v="seated"/><tag k="wc_guide_i" v="18311"/><tag k="Cluster_ID" v="23"/><tag k="xyz" v="1063_1327_11"/></node><node lat="47.012409" lon="6.988516"  id="-17"  changeset="false" ><tag k="id" v="19585"/><tag k="amenity" v="toilets"/><tag k="municipali" v="St-Blaise"/><tag k="name" v="Banque Raiffeisen"/><tag k="toilets_po" v="seated"/><tag k="wc_guide_i" v="19585"/><tag k="Cluster_ID" v="23"/><tag k="xyz" v="1063_1327_11"/></node><node lat="47.012573" lon="6.995791"  id="-18"  changeset="false" ><tag k="id" v="19586"/><tag k="amenity" v="toilets"/><tag k="municipali" v="Marin-Epagnier"/><tag k="name" v="Centre Commercial Manor"/><tag k="toilets_po" v="seated"/><tag k="wc_guide_i" v="19586"/><tag k="Cluster_ID" v="23"/><tag k="xyz" v="1063_1327_11"/></node><node lat="46.992367" lon="6.939172"  id="-19"  changeset="false" ><tag k="id" v="19622"/><tag k="amenity" v="toilets"/><tag k="municipali" v="Neuch�tel"/><tag k="name" v="Place Rouge"/><tag k="toilets_po" v="seated"/><tag k="wc_guide_i" v="19622"/><tag k="Cluster_ID" v="23"/><tag k="xyz" v="1063_1327_11"/></node><node lat="46.921494" lon="7.025482"  id="-20"  changeset="false" ><tag k="id" v="20464"/><tag k="amenity" v="toilets"/><tag k="municipali" v="Bellerive"/><tag k="name" v="Eglise Cotterd"/><tag k="toilets_po" v="seated"/><tag k="wc_guide_i" v="20464"/><tag k="Cluster_ID" v="23"/><tag k="xyz" v="1063_1327_11"/></node><node lat="47.039028" lon="7.024271"  id="-21"  changeset="false" ><tag k="id" v="20659"/><tag k="amenity" v="toilets"/><tag k="municipali" v="Marin"/><tag k="name" v="Gare de Marin-Epagnier"/><tag k="toilets_po" v="seated"/><tag k="wc_guide_i" v="20659"/><tag k="Cluster_ID" v="23"/><tag k="xyz" v="1063_1327_11"/></node></osm>