<?xml version="1.0" encoding="UTF-8"?><osm version="0.6" generator="https://github.com/Rub21/geojson2osm"><node lat="46.117748" lon="8.709068"  id="-1"  changeset="false" ><tag k="id" v="3648"/><tag k="amenity" v="toilets"/><tag k="municipali" v="Brissago TI"/><tag k="name" v="via de barcadero"/><tag k="toilets_po" v="seated"/><tag k="wc_guide_i" v="3648"/><tag k="Cluster_ID" v="43"/><tag k="xyz" v="1073_1320_11"/></node><node lat="46.120277" lon="8.711482"  id="-2"  changeset="false" ><tag k="id" v="3649"/><tag k="amenity" v="toilets"/><tag k="municipali" v="Brissago TI"/><tag k="name" v="bei municipio"/><tag k="toilets_po" v="seated"/><tag k="wc_guide_i" v="3649"/><tag k="Cluster_ID" v="43"/><tag k="xyz" v="1073_1320_11"/></node><node lat="46.175884" lon="8.686755"  id="-3"  changeset="false" ><tag k="id" v="18075"/><tag k="amenity" v="toilets"/><tag k="descriptio" v="Faire le tour du b�timent pour acc�der � l'�tage inf�rieur"/><tag k="municipali" v="Centovalli"/><tag k="name" v="Arriv�e du t�l�f�rique"/><tag k="toilets_po" v="seated"/><tag k="wc_guide_i" v="18075"/><tag k="Cluster_ID" v="43"/><tag k="xyz" v="1073_1320_11"/></node><node lat="46.176533" lon="8.702222"  id="-4"  changeset="false" ><tag k="id" v="18076"/><tag k="amenity" v="toilets"/><tag k="descriptio" v="Dans le b�timent de la gare, c�t� place de la gare, aucune Indication sur la porte"/><tag k="municipali" v="Intragna"/><tag k="name" v="Gare FART"/><tag k="toilets_po" v="seated"/><tag k="wc_guide_i" v="18076"/><tag k="Cluster_ID" v="43"/><tag k="xyz" v="1073_1320_11"/></node><node lat="46.17836" lon="8.700825"  id="-5"  changeset="false" ><tag k="id" v="18077"/><tag k="amenity" v="toilets"/><tag k="descriptio" v="Toilettes pour s'accroupir; acc�der � l'�tage inf�rieur par l'escalier ext�rie"/><tag k="municipali" v="Intragna"/><tag k="name" v="Station aval du funiculaire Intsgna-Pila-Costa"/><tag k="toilets_po" v="seated"/><tag k="wc_guide_i" v="18077"/><tag k="Cluster_ID" v="43"/><tag k="xyz" v="1073_1320_11"/></node><node lat="46.155094" lon="8.767159"  id="-6"  changeset="false" ><tag k="id" v="20446"/><tag k="amenity" v="toilets"/><tag k="municipali" v="Ascona"/><tag k="toilets_po" v="seated"/><tag k="wc_guide_i" v="20446"/><tag k="Cluster_ID" v="43"/><tag k="xyz" v="1073_1320_11"/></node><node lat="46.145321" lon="8.727683"  id="-7"  changeset="false" ><tag k="id" v="20457"/><tag k="amenity" v="toilets"/><tag k="municipali" v="Ronco sopra Ascona"/><tag k="name" v="Parkanlage"/><tag k="toilets_po" v="seated"/><tag k="wc_guide_i" v="20457"/><tag k="Cluster_ID" v="43"/><tag k="xyz" v="1073_1320_11"/></node><node lat="46.166111" lon="8.758935"  id="-8"  changeset="false" ><tag k="id" v="20533"/><tag k="amenity" v="toilets"/><tag k="municipali" v="Losone"/><tag k="name" v="Cimitero losone"/><tag k="toilets_po" v="seated"/><tag k="wc_guide_i" v="20533"/><tag k="Cluster_ID" v="43"/><tag k="xyz" v="1073_1320_11"/></node><node lat="46.147659" lon="8.732046"  id="-9"  changeset="false" ><tag k="id" v="20604"/><tag k="amenity" v="toilets"/><tag k="municipali" v="Ronco"/><tag k="name" v="Friedhof Ronco"/><tag k="toilets_po" v="seated"/><tag k="wc_guide_i" v="20604"/><tag k="Cluster_ID" v="43"/><tag k="xyz" v="1073_1320_11"/></node></osm>