<?xml version="1.0" encoding="UTF-8"?><osm version="0.6" generator="https://github.com/Rub21/geojson2osm"><node lat="46.890732" lon="7.499378"  id="-1"  changeset="false" ><tag k="id" v="1624"/><tag k="amenity" v="toilets"/><tag k="descriptio" v="Eingang im Parkhaus oder von Dorfplatz vis a vis Valiant Bank die Treppe runter."/><tag k="municipali" v="Belp"/><tag k="name" v="Parkhaus beim Denner"/><tag k="toilets_po" v="seated"/><tag k="wc_guide_i" v="1624"/><tag k="Cluster_ID" v="0"/><tag k="xyz" v="1066_1326_11"/></node><node lat="46.88879" lon="7.498941"  id="-2"  changeset="false" ><tag k="id" v="1895"/><tag k="amenity" v="toilets"/><tag k="municipali" v="Belp"/><tag k="name" v="Bahnhof Belp"/><tag k="toilets_po" v="seated"/><tag k="wc_guide_i" v="1895"/><tag k="Cluster_ID" v="0"/><tag k="xyz" v="1066_1326_11"/></node><node lat="46.89085" lon="7.499447"  id="-3"  changeset="false" ><tag k="id" v="2444"/><tag k="amenity" v="toilets"/><tag k="descriptio" v="Gemeinde-WC, stets gepflegt"/><tag k="municipali" v="Belp"/><tag k="name" v="Kreuzplatz"/><tag k="toilets_po" v="seated"/><tag k="wc_guide_i" v="2444"/><tag k="Cluster_ID" v="0"/><tag k="xyz" v="1066_1326_11"/></node><node lat="46.823124" lon="7.550579"  id="-4"  changeset="false" ><tag k="id" v="3174"/><tag k="amenity" v="toilets"/><tag k="municipali" v="Kirchdorf"/><tag k="name" v="Friedhof"/><tag k="toilets_po" v="seated"/><tag k="wc_guide_i" v="3174"/><tag k="Cluster_ID" v="7"/><tag k="xyz" v="1066_1326_11"/></node><node lat="46.901169" lon="7.400923"  id="-5"  changeset="false" ><tag k="id" v="3914"/><tag k="amenity" v="toilets"/><tag k="municipali" v="Gasel"/><tag k="name" v="Bahnhof Gasel"/><tag k="toilets_po" v="seated"/><tag k="wc_guide_i" v="3914"/><tag k="Cluster_ID" v="0"/><tag k="xyz" v="1066_1326_11"/></node><node lat="46.877037" lon="7.543037"  id="-6"  changeset="false" ><tag k="id" v="4119"/><tag k="amenity" v="toilets"/><tag k="municipali" v="M�nsingen"/><tag k="toilets_po" v="seated"/><tag k="wc_guide_i" v="4119"/><tag k="Cluster_ID" v="0"/><tag k="xyz" v="1066_1326_11"/></node><node lat="46.811714" lon="7.47578"  id="-7"  changeset="false" ><tag k="id" v="4433"/><tag k="amenity" v="toilets"/><tag k="municipali" v="Riggisberg"/><tag k="name" v="Aufbahrungshalle"/><tag k="toilets_po" v="seated"/><tag k="wc_guide_i" v="4433"/><tag k="Cluster_ID" v="7"/><tag k="xyz" v="1066_1326_11"/></node><node lat="46.867165" lon="7.546897"  id="-8"  changeset="false" ><tag k="id" v="18043"/><tag k="amenity" v="toilets"/><tag k="municipali" v="M�nsingen"/><tag k="name" v="Freibad M�nsingen"/><tag k="toilets_po" v="seated"/><tag k="wc_guide_i" v="18043"/><tag k="Cluster_ID" v="0"/><tag k="xyz" v="1066_1326_11"/></node><node lat="46.91342" lon="7.500582"  id="-9"  changeset="false" ><tag k="id" v="19576"/><tag k="amenity" v="toilets"/><tag k="descriptio" v="Gate 1"/><tag k="municipali" v="Belp"/><tag k="name" v="Flughafen Bern"/><tag k="toilets_po" v="seated"/><tag k="wc_guide_i" v="19576"/><tag k="Cluster_ID" v="0"/><tag k="xyz" v="1066_1326_11"/></node><node lat="46.911083" lon="7.505517"  id="-10"  changeset="false" ><tag k="id" v="19577"/><tag k="amenity" v="toilets"/><tag k="descriptio" v="F�r Besucher Freibad und Restaurant gratis."/><tag k="municipali" v="Belp"/><tag k="name" v="Giesenbad Belp"/><tag k="toilets_po" v="seated"/><tag k="wc_guide_i" v="19577"/><tag k="Cluster_ID" v="0"/><tag k="xyz" v="1066_1326_11"/></node><node lat="46.891895" lon="7.542125"  id="-11"  changeset="false" ><tag k="id" v="20105"/><tag k="amenity" v="toilets"/><tag k="descriptio" v="Tankstellenpersonal  fragen, um WC zu �ffnen"/><tag k="municipali" v="Rubigen"/><tag k="name" v="Cooo Tankstelle"/><tag k="toilets_po" v="seated"/><tag k="wc_guide_i" v="20105"/><tag k="Cluster_ID" v="0"/><tag k="xyz" v="1066_1326_11"/></node></osm>