<?xml version="1.0" encoding="UTF-8"?><osm version="0.6" generator="https://github.com/Rub21/geojson2osm"><node lat="46.005814" lon="8.949695"  id="-1"  changeset="false" ><tag k="id" v="2235"/><tag k="amenity" v="toilets"/><tag k="municipali" v="Lugano"/><tag k="name" v="Manor"/><tag k="toilets_po" v="seated"/><tag k="wc_guide_i" v="2235"/><tag k="Cluster_ID" v="25"/><tag k="xyz" v="1074_1319_11"/></node><node lat="46.035965" lon="8.954437"  id="-2"  changeset="false" ><tag k="id" v="2631"/><tag k="amenity" v="toilets"/><tag k="municipali" v="Comano"/><tag k="name" v="Comano"/><tag k="toilets_po" v="seated"/><tag k="wc_guide_i" v="2631"/><tag k="Cluster_ID" v="25"/><tag k="xyz" v="1074_1319_11"/></node><node lat="46.010517" lon="8.943686"  id="-3"  changeset="false" ><tag k="id" v="3201"/><tag k="amenity" v="toilets"/><tag k="descriptio" v="Scendere la scala"/><tag k="municipali" v="Massagno"/><tag k="name" v="Fuori dal muro"/><tag k="toilets_po" v="seated"/><tag k="wc_guide_i" v="3201"/><tag k="Cluster_ID" v="25"/><tag k="xyz" v="1074_1319_11"/></node><node lat="46.032932" lon="8.940382"  id="-4"  changeset="false" ><tag k="id" v="3775"/><tag k="amenity" v="toilets"/><tag k="municipali" v="Cureglia"/><tag k="toilets_po" v="urinal"/><tag k="wc_guide_i" v="3775"/><tag k="Cluster_ID" v="25"/><tag k="xyz" v="1074_1319_11"/></node><node lat="46.036629" lon="8.945618"  id="-5"  changeset="false" ><tag k="id" v="4262"/><tag k="amenity" v="toilets"/><tag k="municipali" v="Cureglia"/><tag k="toilets_po" v="seated"/><tag k="wc_guide_i" v="4262"/><tag k="Cluster_ID" v="25"/><tag k="xyz" v="1074_1319_11"/></node><node lat="45.955952" lon="8.947849"  id="-6"  changeset="false" ><tag k="id" v="4286"/><tag k="amenity" v="toilets"/><tag k="municipali" v="Melide"/><tag k="name" v="Lugano"/><tag k="toilets_po" v="seated"/><tag k="wc_guide_i" v="4286"/><tag k="Cluster_ID" v="25"/><tag k="xyz" v="1074_1319_11"/></node><node lat="46.062717" lon="8.923932"  id="-7"  changeset="false" ><tag k="id" v="4483"/><tag k="amenity" v="toilets"/><tag k="descriptio" v="Lugano"/><tag k="municipali" v="Torricella-Taverne"/><tag k="name" v="Lugano"/><tag k="toilets_po" v="seated"/><tag k="wc_guide_i" v="4483"/><tag k="Cluster_ID" v="25"/><tag k="xyz" v="1074_1319_11"/></node><node lat="46.012329" lon="8.815686"  id="-8"  changeset="false" ><tag k="id" v="4672"/><tag k="amenity" v="toilets"/><tag k="municipali" v="Astano"/><tag k="name" v="Astano Paese"/><tag k="toilets_po" v="seated"/><tag k="wc_guide_i" v="4672"/><tag k="Cluster_ID" v="25"/><tag k="xyz" v="1074_1319_11"/></node><node lat="46.003696" lon="8.949492"  id="-9"  changeset="false" ><tag k="id" v="16723"/><tag k="amenity" v="toilets"/><tag k="municipali" v="Lugano"/><tag k="name" v="Autosilo Motta"/><tag k="toilets_po" v="seated"/><tag k="wc_guide_i" v="16723"/><tag k="Cluster_ID" v="25"/><tag k="xyz" v="1074_1319_11"/></node><node lat="45.998573" lon="8.945065"  id="-10"  changeset="false" ><tag k="id" v="16728"/><tag k="amenity" v="toilets"/><tag k="municipali" v="Lugano"/><tag k="name" v="Autosilo Loreto"/><tag k="toilets_po" v="seated"/><tag k="wc_guide_i" v="16728"/><tag k="Cluster_ID" v="25"/><tag k="xyz" v="1074_1319_11"/></node><node lat="46.023781" lon="8.957291"  id="-11"  changeset="false" ><tag k="id" v="16730"/><tag k="amenity" v="toilets"/><tag k="municipali" v="Porza"/><tag k="name" v="Percorso Vita"/><tag k="toilets_po" v="seated"/><tag k="wc_guide_i" v="16730"/><tag k="Cluster_ID" v="25"/><tag k="xyz" v="1074_1319_11"/></node><node lat="46.007984" lon="8.95811"  id="-12"  changeset="false" ><tag k="id" v="16732"/><tag k="amenity" v="toilets"/><tag k="municipali" v="Lugano"/><tag k="name" v="Campo Rionale"/><tag k="toilets_po" v="seated"/><tag k="wc_guide_i" v="16732"/><tag k="Cluster_ID" v="25"/><tag k="xyz" v="1074_1319_11"/></node><node lat="45.95789" lon="8.911531"  id="-13"  changeset="false" ><tag k="id" v="16739"/><tag k="amenity" v="toilets"/><tag k="municipali" v="Barbengo"/><tag k="toilets_po" v="seated"/><tag k="wc_guide_i" v="16739"/><tag k="Cluster_ID" v="25"/><tag k="xyz" v="1074_1319_11"/></node><node lat="46.014839" lon="8.958921"  id="-14"  changeset="false" ><tag k="id" v="16788"/><tag k="amenity" v="toilets"/><tag k="municipali" v="Lugano"/><tag k="name" v="Campo Rionale"/><tag k="toilets_po" v="seated"/><tag k="wc_guide_i" v="16788"/><tag k="Cluster_ID" v="25"/><tag k="xyz" v="1074_1319_11"/></node><node lat="46.027004" lon="8.953065"  id="-15"  changeset="false" ><tag k="id" v="19396"/><tag k="amenity" v="toilets"/><tag k="municipali" v="Porza"/><tag k="name" v="Piazza Soldati"/><tag k="toilets_po" v="seated"/><tag k="wc_guide_i" v="19396"/><tag k="Cluster_ID" v="25"/><tag k="xyz" v="1074_1319_11"/></node><node lat="45.970581" lon="8.860488"  id="-16"  changeset="false" ><tag k="id" v="19468"/><tag k="amenity" v="toilets"/><tag k="municipali" v="Ponte Tresa TI"/><tag k="name" v="Statione Ponte Tresa"/><tag k="toilets_po" v="seated"/><tag k="wc_guide_i" v="19468"/><tag k="Cluster_ID" v="25"/><tag k="xyz" v="1074_1319_11"/></node><node lat="46.00906" lon="8.946415"  id="-17"  changeset="false" ><tag k="id" v="19791"/><tag k="amenity" v="toilets"/><tag k="municipali" v="Lugano"/><tag k="toilets_po" v="seated"/><tag k="wc_guide_i" v="19791"/><tag k="Cluster_ID" v="25"/><tag k="xyz" v="1074_1319_11"/></node><node lat="45.993546" lon="8.900403"  id="-18"  changeset="false" ><tag k="id" v="20520"/><tag k="amenity" v="toilets"/><tag k="municipali" v="Agno"/><tag k="name" v="Parco Communale"/><tag k="toilets_po" v="seated"/><tag k="wc_guide_i" v="20520"/><tag k="Cluster_ID" v="25"/><tag k="xyz" v="1074_1319_11"/></node></osm>