<?xml version="1.0" encoding="UTF-8"?><osm version="0.6" generator="https://github.com/Rub21/geojson2osm"><node lat="47.570335" lon="8.467981"  id="-1"  changeset="false" ><tag k="id" v="2331"/><tag k="amenity" v="toilets"/><tag k="municipali" v="Zweidlen"/><tag k="name" v="Zweidlen Bahnhof"/><tag k="toilets_po" v="seated"/><tag k="wc_guide_i" v="2331"/><tag k="Cluster_ID" v="40"/><tag k="xyz" v="1072_1332_11"/></node><node lat="47.581329" lon="8.512688"  id="-2"  changeset="false" ><tag k="id" v="3139"/><tag k="amenity" v="toilets"/><tag k="municipali" v="Eglisau"/><tag k="name" v="Bahnhof H�ntwangen"/><tag k="toilets_po" v="seated"/><tag k="wc_guide_i" v="3139"/><tag k="Cluster_ID" v="40"/><tag k="xyz" v="1072_1332_11"/></node><node lat="47.524448" lon="8.536167"  id="-3"  changeset="false" ><tag k="id" v="3358"/><tag k="amenity" v="toilets"/><tag k="municipali" v="B�lach"/><tag k="name" v="bahnhof"/><tag k="toilets_po" v="seated"/><tag k="wc_guide_i" v="3358"/><tag k="Cluster_ID" v="40"/><tag k="xyz" v="1072_1332_11"/></node><node lat="47.523895" lon="8.536205"  id="-4"  changeset="false" ><tag k="id" v="3400"/><tag k="amenity" v="toilets"/><tag k="municipali" v="B�lach"/><tag k="name" v="Sportanlage Hirslen"/><tag k="toilets_po" v="seated"/><tag k="wc_guide_i" v="3400"/><tag k="Cluster_ID" v="40"/><tag k="xyz" v="1072_1332_11"/></node><node lat="47.519005" lon="8.548643"  id="-5"  changeset="false" ><tag k="id" v="3936"/><tag k="amenity" v="toilets"/><tag k="municipali" v="B�lach"/><tag k="name" v="Stadtweiher"/><tag k="toilets_po" v="seated"/><tag k="wc_guide_i" v="3936"/><tag k="Cluster_ID" v="40"/><tag k="xyz" v="1072_1332_11"/></node><node lat="47.577076" lon="8.573469"  id="-6"  changeset="false" ><tag k="id" v="16789"/><tag k="amenity" v="toilets"/><tag k="municipali" v="R�dlingen"/><tag k="name" v="Kl�ranlage"/><tag k="toilets_po" v="seated"/><tag k="wc_guide_i" v="16789"/><tag k="Cluster_ID" v="40"/><tag k="xyz" v="1072_1332_11"/></node><node lat="47.594166" lon="8.490755"  id="-7"  changeset="false" ><tag k="id" v="20331"/><tag k="amenity" v="toilets"/><tag k="descriptio" v="Friedhof Toiletten"/><tag k="municipali" v="H�ntwangen"/><tag k="toilets_po" v="seated"/><tag k="wc_guide_i" v="20331"/><tag k="Cluster_ID" v="40"/><tag k="xyz" v="1072_1332_11"/></node></osm>